"MonitoringLocationIdentifier","Site_no","OrganizationIdentifier","OrganizationFormalName","MonitoringLocationName","MonitoringLocationTypeName","MonitoringLocationDescriptionText","HUCEightDigitCode","DrainageAreaMeasureMeasureValue","DrainageAreaMeasureMeasureUnitCode","ContributingDrainageAreaMeasureMeasureValue","ContributingDrainageAreaMeasureMeasureUnitCode","LatitudeMeasure","LongitudeMeasure","SourceMapScaleNumeric","HorizontalAccuracyMeasureMeasureValue","HorizontalAccuracyMeasureMeasureUnitCode","HorizontalCollectionMethodName","HorizontalCoordinateReferenceSystemDatumName","VerticalMeasureMeasureValue","VerticalMeasureMeasureUnitCode","VerticalAccuracyMeasureMeasureValue","VerticalAccuracyMeasureMeasureUnitCode","VerticalCollectionMethodName","VerticalCoordinateReferenceSystemDatumName","CountryCode","StateCode","CountyCode","AquiferName","FormationTypeText","AquiferTypeName","ConstructionDateText","WellDepthMeasureMeasureValue","WellDepthMeasureMeasureUnitCode","WellHoleDepthMeasureMeasureValue","WellHoleDepthMeasureMeasureUnitCode","Site_name","Agency","LLID_Stream_Lake","Str_LLID","Str_name","LAKE_LLID","LAKE_NAME","Latitude_clean","Longitude_clean"
"USGS-11493500","11493500","USGS-OR","USGS Oregon Water Science Center","WILLIAMSON RIVER NEAR KLAMATH AGENCY, OR","Stream","",18010201,"1290.0","sq mi",NA,NA,"42.740135299999999","-121.8344618",NA,"Unknown","Unknown","Interpolated from map","NAD83","4483.1599999999999","feet","0.10000000000000001","feet","Level or other surveying method","NGVD29","US",41,"35",NA,NA,NA,NA,NA,NA,NA,NA,NA,NA,NA,NA,NA,NA,NA,"42.7401353","-121.8344618"
"USGS-11501000","11501000","USGS-OR","USGS Oregon Water Science Center","SPRAGUE RIVER NEAR CHILOQUIN, OR","Stream","",18010202,"1565.0","sq mi",NA,NA,"42.584580899999999","-121.8497366",NA,"Unknown","Unknown","Interpolated from map","NAD83","4202.4300000000003","feet","0.10000000000000001","feet","Level or other surveying method","NGVD29","US",41,"35",NA,NA,NA,NA,NA,NA,NA,NA,NA,NA,NA,NA,NA,NA,NA,"42.5845809","-121.8497366"
"USGS-11504100","11504100","USGS-OR","USGS Oregon Water Science Center","WOOD R NR FORT KLAMATH OREG","Stream","",18010203,"87.700000000000003","sq mi",NA,NA,"42.645690000000002","-121.9955755",NA,"Unknown","Unknown","Interpolated from map","NAD83","4150.0","feet","20.0","feet","Interpolated from topographic map","NGVD29","US",41,"35",NA,NA,NA,NA,NA,NA,NA,NA,NA,NA,NA,NA,NA,NA,NA,"42.64569","-121.9955755"
"USGS-11507100","11507100","USGS-OR","USGS Oregon Water Science Center","UPPER KLAMATH LAKE OUTLET AT KLAMATH FALLS OR","Stream","",18010203,NA,"",NA,"","42.238755300000001","-121.80528270000001",NA,"Unknown","Unknown","Interpolated from map","NAD83",NA,"",NA,"","","","US",41,"35",NA,NA,NA,NA,NA,NA,NA,NA,NA,NA,NA,NA,NA,NA,NA,"42.2387553","-121.8052827"
"USGS-11507501","11507501","USGS-OR","USGS Oregon Water Science Center","LINK RIVER BELOW KENO CANAL, NEAR KLAMATH FALLS,OR","Stream","Annett Sullivan qw study",18010204,NA,"",NA,"","42.219311400000002","-121.7902816",24000,"1","seconds","Interpolated from map","NAD83","4087.0","feet","1.6000000000000001","feet","Interpolated from digital elevation model (DEM)","NAVD88","US",41,"035",NA,NA,NA,NA,NA,NA,NA,NA,NA,NA,NA,NA,NA,NA,NA,"42.2193114","-121.7902816"
"USGS-11509370","11509370","USGS-OR","USGS Oregon Water Science Center","KLAMATH RIVER ABOVE KENO DAM, AT KENO, OR","Stream","Annett Sullivan qw study",18010204,NA,"",NA,"","42.127922300000002","-121.9288964",24000,"1","seconds","Interpolated from map","NAD83","4087.0","feet","1.6000000000000001","feet","Interpolated from digital elevation model (DEM)","NAVD88","US",41,"035",NA,NA,NA,NA,NA,NA,NA,NA,NA,NA,NA,NA,NA,NA,NA,"42.1279223","-121.9288964"
"USGS-11509500","11509500","USGS-OR","USGS Oregon Water Science Center","KLAMATH RIVER AT KENO, OR","Stream","",18010206,"3920.0","sq mi",NA,"","42.133199500000003","-121.9622313",NA,"1","seconds","Interpolated from map","NAD83","3961.0","feet","10.0","feet","Interpolated from topographic map","NGVD29","US",41,"035",NA,NA,NA,NA,NA,NA,NA,NA,NA,NA,NA,NA,NA,NA,NA,"42.1331995","-121.9622313"
"USGS-11516580","11516580","USGS-OR","USGS Oregon Water Science Center","COTTONWOOD CREEK NEAR ASHLAND, OR","Stream","City of Ashland - periodic sampling & Q meas",18010206,"9.7000000000000003E-2","sq mi",NA,"","42.076800599999999","-122.7044757",NA,"1","seconds","Interpolated from map","NAD83","6800.0","feet","20.0","feet","Interpolated from topographic map","NGVD29","US",41,"029",NA,NA,NA,NA,NA,NA,NA,NA,NA,NA,NA,NA,NA,NA,NA,"42.0768006","-122.7044757"
"USGS-13173600","13173600","USGS-ID","USGS Idaho Water Science Center","SNAKE RIVER NR ADRIAN OR","Stream","",17050103,"43000.0","sq mi",NA,"","43.7309932","-117.0718258",24000,"5","seconds","Interpolated from map","NAD83","2190.0","feet","5.0","feet","Interpolated from topographic map","NAVD88","US",41,"45",NA,NA,NA,NA,NA,NA,NA,NA,NA,NA,NA,NA,NA,NA,NA,"43.7309932","-117.0718258"
"USGS-13177900","13177900","USGS-ID","USGS Idaho Water Science Center","OWYHEE RIVER ABV NORTH FORK AT THREE FORKS OR","Stream","",17050107,NA,"",NA,NA,"42.544323499999997","-117.17069600000001",NA,"5","seconds","Interpolated from map","NAD83",NA,"",NA,"","","","US",41,"45",NA,NA,NA,NA,NA,NA,NA,NA,NA,NA,NA,NA,NA,NA,NA,"42.5443235","-117.170696"
"USGS-13177920","13177920","USGS-ID","USGS Idaho Water Science Center","NORTH FORK OWYHEE RIVER AT THREE FORKS OR","Stream","",17050107,NA,"",NA,NA,"42.544045699999998","-117.169307",NA,"5","seconds","Interpolated from map","NAD83",NA,"",NA,"","","","US",41,"45",NA,NA,NA,NA,NA,NA,NA,NA,NA,NA,NA,NA,NA,NA,NA,"42.5440457","-117.169307"
"USGS-13180600","13180600","USGS-ID","USGS Idaho Water Science Center","JORDAN CREEK NR ROME OR","Stream","",17050108,NA,"",NA,NA,"42.864045099999998","-117.6396007",NA,"5","seconds","Interpolated from map","NAD83",NA,"",NA,"","","","US",41,"45",NA,NA,NA,NA,NA,NA,NA,NA,NA,NA,NA,NA,NA,NA,NA,"42.8640451","-117.6396007"
"USGS-13184000","13184000","USGS-OR","USGS Oregon Water Science Center","OWYHEE RIVER AT OWYHEE, OREG.","Stream","",17050110,"11300.0","sq mi",NA,"","43.777660500000003","-117.0676601",NA,"Unknown","Unknown","Interpolated from map","NAD83","2190.0","feet","20.0","feet","Interpolated from topographic map","NGVD29","US",41,"45",NA,NA,NA,NA,NA,NA,NA,NA,NA,NA,NA,NA,NA,NA,NA,"43.7776605","-117.0676601"
"USGS-13331500","13331500","USGS-OR","USGS Oregon Water Science Center","MINAM RIVER AT MINAM, OR","Stream","",17060105,"240.0","sq mi",NA,"","45.619866899999998","-117.72658920000001",NA,"Unknown","Unknown","Interpolated from map","NAD83","2540.48","feet","0.10000000000000001","feet","Level or other surveying method","NGVD29","US",41,"063",NA,NA,NA,NA,NA,NA,NA,NA,NA,NA,NA,NA,NA,NA,NA,"45.6198669","-117.7265892"
"USGS-14076500","14076500","USGS-OR","USGS Oregon Water Science Center","DESCHUTES RIVER NEAR CULVER, OR","Stream","",17070301,"2705.0","sq mi",NA,NA,"44.498729300000001","-121.3211558",NA,"Unknown","Unknown","Interpolated from map","NAD83","1980.0","feet","20.0","feet","Interpolated from topographic map","NGVD29","US",41,"31",NA,NA,NA,NA,NA,NA,NA,NA,NA,NA,NA,NA,NA,NA,NA,"44.4987293","-121.3211558"
"USGS-14087393","14087393","USGS-OR","USGS Oregon Water Science Center","CROOKED RIVER AT CARCASS TRAIL NEAR CULVER, OR","Stream","PFO/BLM Seepage run study  Jennifer Morace 09/2004",17070305,NA,"",NA,"","44.472618500000003","-121.297543",NA,"1","seconds","Interpolated from map","NAD83","2020.0","feet","20.0","feet","Interpolated from topographic map","NGVD29","US",41,"31",NA,NA,NA,NA,NA,NA,NA,NA,NA,NA,NA,NA,NA,NA,NA,"44.4726185","-121.297543"
"USGS-14128910","14128910","USGS-OR","USGS Oregon Water Science Center","COLUMBIA RIVER AT WARRENDALE, OR","Stream","",17080001,"240400.0","sq mi",NA,"","45.612339599999999","-122.0275838",NA,"Unknown","Unknown","Interpolated from map","NAD83",NA,"",NA,"","","","US",41,"51",NA,NA,NA,NA,NA,NA,NA,NA,NA,NA,NA,NA,NA,NA,NA,"45.6123396","-122.0275838"
"USGS-14144800","14144800","USGS-OR","USGS Oregon Water Science Center","MIDDLE FORK WILLAMETTE RIVER NR OAKRIDGE, OR","Stream","",17090001,"264.0","sq mi",NA,NA,"43.6017887","-122.4575474",NA,"1","seconds","Interpolated from map","NAD83","1560.0","feet","0.10000000000000001","feet","Level or other surveying method","NGVD29","US",41,"39",NA,NA,NA,NA,NA,NA,NA,NA,"MIDDLE FORK WILLAMETTE RIVER NR OAKRIDGE, OR","USGS","1230144440225","1230144440225","Middle Fork Willamette River",NA,NA,"43.6017887","-122.4575474"
"USGS-14152500","14152500","USGS-OR","USGS Oregon Water Science Center","COAST FORK WILLAMETTE AT LONDON, OR","Stream","",17090002,"72.099999999999994","sq mi",NA,NA,"43.641510199999999","-123.08590890000001",NA,"Unknown","Unknown","Interpolated from map","NAD83","852.58000000000004","feet","0.10000000000000001","feet","Level or other surveying method","NGVD29","US",41,"39",NA,NA,NA,NA,NA,NA,NA,NA,"COAST FORK WILLAMETTE AT LONDON, OR","USGS","1230233440232","1230233440232","Coast Fork Willamette River",NA,NA,"43.6415102","-123.0859089"
"USGS-14153500","14153500","USGS-OR","USGS Oregon Water Science Center","COAST FORK WILLAMETTE R BLW COTTAGE GROVE DAM, OR","Stream","",17090002,"104.0","sq mi",NA,NA,"43.720677899999998","-123.0497994",NA,"1","seconds","Interpolated from map","NAD83","711.0","feet","10.0","feet","Interpolated from topographic map","NGVD29","US",41,"39",NA,NA,NA,NA,NA,NA,NA,NA,"COAST FORK WILLAMETTE R BLW COTTAGE GROVE DAM, OR","USGS","1230233440232","1230233440232","Coast Fork Willamette River",NA,NA,"43.7206779","-123.0497994"
"USGS-14154500","14154500","USGS-OR","USGS Oregon Water Science Center","ROW RIVER ABOVE PITCHER CREEK, NEAR DORENA, OR","Stream","",17090002,"211.0","sq mi",NA,NA,"43.7359565","-122.8734019",NA,"Unknown","Unknown","Interpolated from map","NAD83","856.15999999999997","feet","0.10000000000000001","feet","Level or other surveying method","NGVD29","US",41,"39",NA,NA,NA,NA,NA,NA,NA,NA,"ROW RIVER ABOVE PITCHER CREEK, NEAR DORENA, OR","USGS","1230436438208","1230436438208","Row River",NA,NA,"43.7359565","-122.8734019"
"USGS-14159110","14159110","USGS-OR","USGS Oregon Water Science Center","MCKENZIE RIVER ABOVE SOUTH FORK, NEAR RAINBOW, OR","Stream","Water Temp data collected 2000ft ds 1983-1984",17090004,"525.96000000000004","sq mi",NA,"","44.166375500000001","-122.2565336",NA,"1","seconds","Global positioning system (GPS), uncorrected","NAD83","1150.0","feet","30.0","feet","Interpolated from topographic map","NGVD29","US",41,"039",NA,NA,NA,NA,NA,NA,NA,NA,"MCKENZIE RIVER ABOVE SOUTH FORK, NEAR RAINBOW, OR","USGS","1230673441173","1230673441173","McKenzie River",NA,NA,"44.1663755","-122.2565336"
"USGS-14159200","14159200","USGS-OR","USGS Oregon Water Science Center","SO FK MCKENZIE RIVER ABV COUGAR LAKE NR RAINBOW OR","Stream","",17090004,"160.0","sq mi",NA,"","44.047066999999998","-122.21782450000001",NA,"1","seconds","Interpolated from map","NAD83","1709.51","feet","10.0","feet","Interpolated from topographic map","NGVD29","US",41,"39",NA,NA,NA,NA,NA,NA,NA,NA,NA,NA,NA,NA,NA,NA,NA,"44.047067","-122.2178245"
"USGS-14159500","14159500","USGS-OR","USGS Oregon Water Science Center","SOUTH FORK MCKENZIE RIVER NEAR RAINBOW, OR","Stream","",17090004,"208.0","sq mi",NA,"","44.135958199999997","-122.248391",NA,"1","seconds","Interpolated from map","NAD83","1236.4200000000001","feet","10.0","feet","Interpolated from topographic map","NGVD29","US",41,"039",NA,NA,NA,NA,NA,NA,NA,NA,"SOUTH FORK MCKENZIE RIVER NEAR RAINBOW, OR","USGS","1222958441593","1222958441593","South Fork McKenzie River",NA,NA,"44.1359582","-122.248391"
"USGS-14161500","14161500","USGS-OR","USGS Oregon Water Science Center","LOOKOUT CREEK NEAR BLUE RIVER, OR","Stream","",17090004,"24.100000000000001","sq mi",NA,"","44.209570800000002","-122.256733",NA,"1","seconds","Interpolated from map","NAD83","1377.76","feet","10.0","feet","Interpolated from topographic map","NGVD29","US",41,"039",NA,NA,NA,NA,NA,NA,NA,NA,"LOOKOUT CREEK NEAR BLUE RIVER, OR","USGS","1222619442061","1222619442061","Lookout Creek",NA,NA,"44.2095708","-122.256733"
"USGS-14162200","14162200","USGS-OR","USGS Oregon Water Science Center","BLUE RIVER AT BLUE RIVER, OR","Stream","",17090004,"87.700000000000003","sq mi",NA,"","44.162348199999997","-122.3331192",NA,"1","seconds","Interpolated from map","NAD83","1056.53","feet","10.0","feet","Interpolated from topographic map","NGVD29","US",41,"039",NA,NA,NA,NA,NA,NA,NA,NA,"BLUE RIVER AT BLUE RIVER, OR","USGS","1223436441532","1223436441532","Blue River",NA,NA,"44.1623482","-122.3331192"
"USGS-14162400","14162400",NA,NA,NA,NA,NA,NA,NA,NA,NA,NA,"44.1281814","-122.3803393",NA,NA,NA,NA,"NAD83",NA,NA,NA,NA,NA,NA,NA,NA,NA,NA,NA,NA,NA,NA,NA,NA,NA,"MCKENZIE RIVER AT FINN ROCK, OR","USGS","1230673441173","1230673441173","McKenzie River",NA,NA,"44.1281814","-122.3803393"
"USGS-14162500","14162500","USGS-OR","USGS Oregon Water Science Center","MCKENZIE RIVER NEAR VIDA, OR","Stream","",17090004,"930.0","sq mi",NA,"","44.124848700000001","-122.47062",NA,"1","seconds","Interpolated from map","NAD83","855.71000000000004","feet","10.0","feet","Interpolated from topographic map","NGVD29","US",41,"039",NA,NA,NA,NA,NA,NA,NA,NA,"MCKENZIE RIVER NEAR VIDA, OR","USGS","1230673441173","1230673441173","McKenzie River",NA,NA,"44.1248487","-122.47062"
"USGS-14163000","14163000",NA,NA,NA,NA,NA,NA,NA,NA,NA,NA,"44.1456825","-122.5720152",NA,NA,NA,NA,"NAD83",NA,NA,NA,NA,NA,NA,NA,NA,NA,NA,NA,NA,NA,NA,NA,NA,NA,"GATE CREEK AT VIDA,OREG.","USGS","1225760441447","1225760441447","Gate Creek",NA,NA,"44.1456825","-122.5720152"
"USGS-14164550","14164550","USGS-OR","USGS Oregon Water Science Center","CAMP CRK AT CAMP CRK RD BRIDGE, NR SPRINGFIELD, OR","Stream","EWEB Storm event monitor proj-C.Anderson Sept.2002",17090004,"26.0","sq mi",NA,"","44.070666699999997","-122.8846667",NA,".5","seconds","Global positioning system (GPS), uncorrected","NAD83","525.0","feet","10.0","feet","Interpolated from topographic map","NGVD29","US",41,"39",NA,NA,NA,NA,NA,NA,NA,NA,"CAMP CRK AT CAMP CRK RD BRIDGE, NR SPRINGFIELD, OR","USGS","1228827440629","1228827440629","Camp Creek",NA,NA,"44.0706667","-122.8846667"
"USGS-14164700","14164700","USGS-OR","USGS Oregon Water Science Center","CEDAR CREEK AT SPRINGFIELD, OR","Stream","PFO",17090004,NA,"",NA,"","44.059348","-122.9196644",NA,".5","seconds","Global positioning system (GPS), uncorrected","NAD83","490.0","feet","10.0","feet","Interpolated from topographic map","NGVD29","US",41,"39",NA,NA,NA,NA,NA,NA,NA,NA,"CEDAR CREEK AT SPRINGFIELD, OR","USGS","1229475440684","1229475440684","Cedar Flat Creek",NA,NA,"44.059348","-122.9196644"
"USGS-14164900","14164900","USGS-OR","USGS Oregon Water Science Center","McKENZIE RIVER ABV HAYDEN BR, AT SPRINGFIELD,OR","Stream","",17090004,"1140.0","sq mi",NA,"","44.071236499999998","-122.9645273",NA,"Unknown","Unknown","Interpolated from map","NAD83","400.0","feet","20.0","feet","Interpolated from topographic map","NGVD29","US",41,"39",NA,NA,NA,NA,NA,NA,NA,NA,"McKENZIE RIVER ABV HAYDEN BR, AT SPRINGFIELD,OR","USGS","1230673441173","1230673441173","McKenzie River",NA,NA,"44.0712365","-122.9645273"
"USGS-14178000","14178000","USGS-OR","USGS Oregon Water Science Center","NO SANTIAM R BLW BOULDER CRK, NR DETROIT, OR","Stream","",17090005,"216.0","sq mi",NA,"","44.706788500000002","-122.1011859",NA,"Unknown","Unknown","Interpolated from map","NAD83","1590.0699999999999","feet","0.10000000000000001","feet","Level or other surveying method","NGVD29","US",41,"047",NA,NA,NA,NA,NA,NA,NA,NA,NA,NA,NA,NA,NA,NA,NA,"44.7067885","-122.1011859"
"USGS-14179000","14179000","USGS-OR","USGS Oregon Water Science Center","BREITENBUSH R ABV FRENCH CR NR DETROIT, OR.","Stream","",17090005,"108.0","sq mi",NA,"","44.7526218","-122.12896480000001",NA,"10","seconds","Interpolated from map","NAD83","1573.95","feet","0.10000000000000001","feet","Interpolated from topographic map","NGVD29","US",41,"047",NA,NA,NA,NA,NA,NA,NA,NA,"BREITENBUSH R ABV FRENCH CR NR DETROIT, OR.","USGS","1221580447267","1221580447267","Breitenbush River",NA,NA,"44.7526218","-122.1289648"
"USGS-14179100","14179100","USGS-OR","USGS Oregon Water Science Center","FRENCH CREEK NEAR DETROIT, OR","Stream","Portland Field Office site",17090005,"9.9000000000000004","sq mi",NA,"","44.760399700000001","-122.1684099",NA,"1","seconds","Interpolated from map","NAD83","1800.0","feet","20.0","feet","Interpolated from topographic map","NGVD29","US",41,"047",NA,NA,NA,NA,NA,NA,NA,NA,"FRENCH CREEK NEAR DETROIT, OR","USGS","1221547447400","1221547447400","French Creek",NA,NA,"44.7603997","-122.1684099"
"USGS-14180300","14180300","USGS-OR","USGS Oregon Water Science Center","BLOWOUT CREEK NEAR DETROIT, OR","Stream","",17090005,"26.0","sq mi",NA,"","44.652900000000002","-122.13090800000001",NA,"3","seconds","Interpolated from map","NAD83","1840.0","feet","20.0","feet","Interpolated from topographic map","NGVD29","US",41,"043",NA,NA,NA,NA,NA,NA,NA,NA,"BLOWOUT CREEK NEAR DETROIT, OR","USGS","1222080446950","1222080446950","Blowout Creek",NA,NA,"44.6529","-122.130908"
"USGS-14181500","14181500","USGS-OR","USGS Oregon Water Science Center","NORTH SANTIAM RIVER AT NIAGARA, OR","Stream","",17090005,"453.0","sq mi",NA,"","44.752621900000001","-122.298412",NA,"Unknown","Unknown","Interpolated from map","NAD83","1093.78","feet","0.10000000000000001","feet","Level or other surveying method","NGVD29","US",41,"047",NA,NA,NA,NA,NA,NA,NA,NA,NA,NA,NA,NA,NA,NA,NA,"44.7526219","-122.298412"
"USGS-14199710","14199710","USGS-OR","USGS Oregon Water Science Center","NATE CREEK NEAR COLTON,OREG.","Stream","",17090009,"11.1","sq mi",NA,"","45.166511800000002","-122.4900861",NA,"1","seconds","Interpolated from map","NAD83","400.0","feet","20.0","feet","Interpolated from topographic map","NGVD29","US",41,"005",NA,NA,NA,NA,NA,NA,NA,NA,"NATE CREEK NEAR COLTON,OREG.","USGS","1224899451656","1224899451656","Nate Creek",NA,NA,"45.1665118","-122.4900861"
"USGS-14200000","14200000","USGS-OR","USGS Oregon Water Science Center","MOLALLA RIVER NEAR CANBY, OR","Stream","",17090009,"323.0","sq mi",NA,"","45.244287700000001","-122.687314",NA,"1","seconds","Interpolated from map","NAD83","94.0","feet","10.0","feet","Interpolated from topographic map","NGVD29","US",41,"005",NA,NA,NA,NA,NA,NA,NA,NA,NA,NA,NA,NA,NA,NA,NA,"45.2442877","-122.687314"
"USGS-14200400","14200400","USGS-OR","USGS Oregon Water Science Center","LITTLE ABIQUA CREEK NEAR SCOTTS MILLS, OR","Stream","",17090009,"9.8100000000000005","sq mi","9.8100000000000005","sq mi","44.955677600000001","-122.6284199",124000,"Unknown","Unknown","Interpolated from map","NAD83","800.0","feet","20.0","feet","Interpolated from topographic map","NGVD29","US",41,"47",NA,NA,NA,NA,NA,NA,NA,NA,"LITTLE ABIQUA CREEK NEAR SCOTTS MILLS, OR","USGS","1226280449569","1226280449569","Little Abiqua Creek",NA,NA,"44.9556776","-122.6284199"
"USGS-14201300","14201300","USGS-OR","USGS Oregon Water Science Center","ZOLLNER CREEK NEAR MT ANGEL, OR","Stream","",17090009,"15.0","sq mi",NA,"","45.100398200000001","-122.82175959999999",124000,"Unknown","Unknown","Interpolated from map","NAD83","120.0","feet","20.0","feet","Interpolated from topographic map","NGVD29","US",41,"47",NA,NA,NA,NA,NA,NA,NA,NA,"ZOLLNER CREEK NEAR MT ANGEL, OR","USGS","1228266451046","1228266451046","Zollner Creek",NA,NA,"45.1003982","-122.8217596"
"USGS-14202300","14202300","USGS-OR","USGS Oregon Water Science Center","TUALATIN RIVER AT CHERRY GROVE, OR.","Stream","TUALATIN PROJECT - requested by MCDOYLE",17090010,NA,"",NA,NA,"45.4673339","-123.2917776",NA,"Unknown","Unknown","Interpolated from map","NAD83",NA,"",NA,"","","","US",41,"67",NA,NA,NA,NA,NA,NA,NA,NA,"TUALATIN RIVER AT CHERRY GROVE, OR.","USGS","1226500453377","1226500453377","Tualatin River",NA,NA,"45.4673339","-123.2917776"
"USGS-14202510","14202510","USGS-OR","USGS Oregon Water Science Center","TUALATIN RIVER AT GASTON, OR","Stream","",17090010,"50.899999999999999","sq mi",NA,"","45.438725499999997","-123.1409405",NA,"10","seconds","Interpolated from map","NAD83",NA,"",NA,"","","","US",41,"067",NA,NA,NA,NA,NA,NA,NA,NA,"TUALATIN RIVER AT GASTON, OR","USGS","1226500453377","1226500453377","Tualatin River",NA,NA,"45.4387255","-123.1409405"
"USGS-14202650","14202650","USGS-OR","USGS Oregon Water Science Center","WAPATO CREEK AT SW GASTON ROAD, AT GASTON, OR","Stream","TUALATIN PROJECT INTERMITTENT SITE",17090010,"24.100000000000001","sq mi",NA,"","45.4406417","-123.125",24000,".5","seconds","Interpolated from Digital Map","NAD83","180.0","feet","5.0","feet","Interpolated from topographic map","NGVD29","US",41,"067",NA,NA,NA,NA,NA,NA,NA,NA,"WAPATO CREEK AT SW GASTON ROAD, AT GASTON, OR","USGS","1231250454590","1231250454590","Wapato Creek",NA,NA,"45.4406417","-123.125"
"USGS-14202980","14202980","USGS-OR","USGS Oregon Water Science Center","SCOGGINS CK BLW HENRY HAGG LAKE, NR GASTON, OR","Stream","",17090010,"38.799999999999997","sq mi",NA,"","45.469279700000001","-123.200109",NA,"1","seconds","Interpolated from map","NAD83","187.47999999999999","feet","0.10000000000000001","feet","Level or other surveying method","NGVD29","US",41,"67",NA,NA,NA,NA,NA,NA,NA,NA,"SCOGGINS CK BLW HENRY HAGG LAKE, NR GASTON, OR","USGS","1231261454600","1231261454600","Scoggins Creek",NA,NA,"45.4692797","-123.200109"
"USGS-14203000","14203000","USGS-OR","USGS Oregon Water Science Center","SCOGGIN CREEK NEAR GASTON, OREG.","Stream","",17090010,"43.299999999999997","sq mi",NA,NA,"45.458725000000001","-123.15566339999999",NA,"Unknown","Unknown","Interpolated from map","NAD83","168.91999999999999","feet","0.10000000000000001","feet","Level or other surveying method","NGVD29","US",41,"67",NA,NA,NA,NA,NA,NA,NA,NA,"SCOGGIN CREEK NEAR GASTON, OREG.","USGS","1231261454600","1231261454600","Scoggins Creek",NA,NA,"45.458725","-123.1556634"
"USGS-14203500","14203500","USGS-OR","USGS Oregon Water Science Center","TUALATIN RIVER NEAR DILLEY, OR","Stream","",17090010,"125.0","sq mi",NA,NA,"45.474836500000002","-123.124274",NA,"Unknown","Unknown","Interpolated from map","NAD83","147.56999999999999","feet","0.10000000000000001","feet","Level or other surveying method","NGVD29","US",41,"67",NA,NA,NA,NA,NA,NA,NA,NA,"TUALATIN RIVER NEAR DILLEY, OR","USGS","1226500453377","1226500453377","Tualatin River",NA,NA,"45.4748365","-123.124274"
"USGS-14204520","14204520",NA,NA,NA,NA,NA,NA,NA,NA,NA,NA,"45.5192805","-123.1303859",NA,NA,NA,NA,"NAD83",NA,NA,NA,NA,NA,NA,NA,NA,NA,NA,NA,NA,NA,NA,NA,NA,NA,"GALES CREEK AT FOREST GROVE,OREG.   (DUPLICATE1)","USGS","1231025454915","1231025454915","Gales Creek",NA,NA,"45.5192805","-123.1303859"
"USGS-14204530","14204530","USGS-OR","USGS Oregon Water Science Center","GALES CREEK AT ROUTE 47 AT FOREST GROVE, OR","Stream","",17090010,NA,"",NA,NA,"45.510669700000001","-123.1156632",NA,"Unknown","Unknown","Interpolated from map","NAD83",NA,"",NA,"","","","US",41,"67",NA,NA,NA,NA,NA,NA,NA,NA,"GALES CREEK AT ROUTE 47 AT FOREST GROVE, OR","USGS","1231025454915","1231025454915","Gales Creek",NA,NA,"45.5106697","-123.1156632"
"USGS-14204650","14204650","USGS-OR","USGS Oregon Water Science Center","DIVERSION FROM TUAL R AT SPRINGHILL PUMPING PLANT","Stream","",17090010,NA,"",NA,"","45.492892500000004","-123.09232900000001",NA,"Unknown","Unknown","Interpolated from map","NAD83",NA,"",NA,"","","","US",41,"067",NA,NA,NA,NA,NA,NA,NA,NA,"DIVERSION FROM TUAL R AT SPRINGHILL PUMPING PLANT","USGS","1226500453377","1226500453377","Tualatin River",NA,NA,"45.4928925","-123.092329"
"USGS-14204660","14204660","USGS-OR","USGS Oregon Water Science Center","TUALATIN R AT SW FERN HILL RD, NR FOREST GROVE, OR","Stream","FORMERLY NAMED; AT SPRINGHILL RD NR FOREST GR, OR",17090010,NA,"",NA,NA,"45.5","-123.08917219999999",24000,"1","seconds","Interpolated from Digital Map","NAD83","155.0","feet","5.0","feet","Interpolated from digital elevation model (DEM)","NAVD88","US",41,"67",NA,NA,NA,NA,NA,NA,NA,NA,"TUALATIN RIVER AT SPRINGHILL RD NR FOREST GR, OR","USGS","1226500453377","1226500453377","Tualatin River",NA,NA,"45.5","-123.0891722"
"USGS-14204800","14204800","USGS-OR","USGS Oregon Water Science Center","TUALATIN RIVER AT GOLF COURSE RD NR CORNELIUS, OR","Stream","",17090010,NA,"",NA,NA,"45.502059699999997","-123.0562173",NA,"Unknown","Unknown","Interpolated from map","NAD83",NA,"",NA,"","","","US",41,"67",NA,NA,NA,NA,NA,NA,NA,NA,"TUALATIN RIVER AT GOLF COURSE RD NR CORNELIUS, OR","USGS","1226500453377","1226500453377","Tualatin River",NA,NA,"45.5020597","-123.0562173"
"USGS-14205400","14205400","USGS-OR","USGS Oregon Water Science Center","EAST FORK DAIRY CREEK NEAR MEACHAM CORNER, OR","Stream","PFO - NAWQA",17090010,"33.799999999999997","sq mi",NA,"","45.682335700000003","-123.069553",NA,"1","seconds","Interpolated from Digital Map","NAD83","290.0","feet","20.0","feet","Interpolated from topographic map","NGVD29","US",41,"67",NA,NA,NA,NA,NA,NA,NA,NA,"EAST FORK DAIRY CREEK NEAR MEACHAM CORNER, OR","USGS","1230728455698","1230728455698","East Fork Dairy Creek",NA,NA,"45.6823357","-123.069553"
"USGS-14205780","14205780",NA,NA,NA,NA,NA,NA,NA,NA,NA,NA,"45.5784477","-123.070663",NA,NA,NA,NA,"NAD83",NA,NA,NA,NA,NA,NA,NA,NA,NA,NA,NA,NA,NA,NA,NA,NA,NA,"EAST FORK DAIRY CREEK NEAR ROY,OREG.","USGS","1230728455698","1230728455698","East Fork Dairy Creek",NA,NA,"45.5784477","-123.070663"
"USGS-14205850","14205850","USGS-OR","USGS Oregon Water Science Center","DAIRY CREEK AT SUSBAUER ROAD","Stream","REQUESTED BY MWJOHNSTON",17090010,NA,"",NA,NA,"45.5387263","-123.0417729",NA,"Unknown","Unknown","Interpolated from map","NAD83",NA,"",NA,"","","","US",41,"67",NA,NA,NA,NA,NA,NA,NA,NA,"DAIRY CREEK AT SUSBAUER ROAD","USGS","1229958455017","1229958455017","Dairy Creek",NA,NA,"45.5387263","-123.0417729"
"USGS-14206070","14206070","USGS-OR","USGS Oregon Water Science Center","MCKAY CK ABV WAIBLE CK @ SCOTCH CHURCH RD NR N.PLN","Stream","",17090010,NA,"",NA,"","45.572615499999998","-122.991772",NA,"1","seconds","Interpolated from map","NAD83",NA,"",NA,"","","","US",41,"67",NA,NA,NA,NA,NA,NA,NA,NA,"MCKAY CK ABV WAIBLE CK @ SCOTCH CHURCH RD NR N.PLN","USGS","1230119455224","1230119455224","McKay Creek",NA,NA,"45.5726155","-122.991772"
"USGS-14206180","14206180","USGS-OR","USGS Oregon Water Science Center","MCKAY CREEK NEAR HILLSBORO,OREG.","Stream","(Includes data from 14206120 QW)",17090010,"61.0","sq mi",NA,NA,"45.542893499999998","-123.004272",NA,"1","seconds","Interpolated from map","NAD83","126.53","feet","10.0","feet","Interpolated from topographic map","NGVD29","US",41,"67",NA,NA,NA,NA,NA,NA,NA,NA,"MCKAY CREEK NEAR HILLSBORO,OREG.","USGS","1230119455224","1230119455224","McKay Creek",NA,NA,"45.5428935","-123.004272"
"USGS-14206200","14206200","USGS-OR","USGS Oregon Water Science Center","DAIRY CREEK AT RTE 8 NEAR HILLSBORO, OR","Stream","",17090010,NA,"",NA,NA,"45.519838100000001","-123.0106608",NA,"Unknown","Unknown","Interpolated from map","NAD83",NA,"",NA,"","","","US",41,"67",NA,NA,NA,NA,NA,NA,NA,NA,"DAIRY CREEK AT RTE 8 NEAR HILLSBORO, OR","USGS","1229958455017","1229958455017","Dairy Creek",NA,NA,"45.5198381","-123.0106608"
"USGS-14206241","14206241","USGS-OR","USGS Oregon Water Science Center","TUALATIN RIVER AT HWY 219 NEAR HILLSBORO, OR","Stream","",17090010,NA,"",NA,NA,"45.500116400000003","-122.9912157",NA,"1","seconds","Interpolated from map","NAD83",NA,"",NA,"","","","US",41,"67",NA,NA,NA,NA,NA,NA,NA,NA,"TUALATIN RIVER AT HWY 219 NEAR HILLSBORO, OR","USGS","1226500453377","1226500453377","Tualatin River",NA,NA,"45.5001164","-122.9912157"
"USGS-14206347","14206347","USGS-OR","USGS Oregon Water Science Center","ROCK CREEK AT QUATAMA ROAD NEAR HILLSBORO, OR","Stream","Was site number 14206445 changed 10-08-2002",17090010,"25.800000000000001","sq mi",NA,"","45.523727700000002","-122.9092692",NA,"1","seconds","Interpolated from map","NAD83","150.0","feet","20.0","feet","Interpolated from topographic map","NGVD29","US",41,"067",NA,NA,NA,NA,NA,NA,NA,NA,"ROCK CREEK AT QUATAMA ROAD NEAR HILLSBORO, OR","USGS","1229444454907","1229444454907","Rock Creek",NA,NA,"45.5237277","-122.9092692"
"USGS-14206372","14206372","USGS-OR","USGS Oregon Water Science Center","JOHNSON CREEK AT DAVIS ROAD NEAR BEAVERTON, OR","Stream","",17090010,NA,"",NA,"","45.474839699999997","-122.8323219",NA,"1","seconds","Interpolated from map","NAD83",NA,"",NA,"","","","US",41,"67",NA,NA,NA,NA,NA,NA,NA,NA,"JOHNSON CREEK AT DAVIS ROAD NEAR BEAVERTON, OR","USGS","1228355454932","1228355454932","Johnson Creek",NA,NA,"45.4748397","-122.8323219"
"USGS-14206419","14206419","USGS-OR","USGS Oregon Water Science Center","BRONSON CREEK AT SALTZMAN ROAD NR ORENCO, OR","Stream","",17090010,NA,"",NA,NA,"45.555116900000002","-122.8081555",NA,"1","seconds","Interpolated from map","NAD83",NA,"",NA,"","","","US",41,"67",NA,NA,NA,NA,NA,NA,NA,NA,"BRONSON CREEK AT SALTZMAN ROAD NR ORENCO, OR","USGS","1228861455195","1228861455195","Bronson Creek",NA,NA,"45.5551169","-122.8081555"
"USGS-14206421","14206421","USGS-OR","USGS Oregon Water Science Center","BRONSON CREEK AT WEST UNION ROAD NR ORENCO, OR","Stream","",17090010,NA,"",NA,"","45.544839000000003","-122.8395452",NA,"1","seconds","Interpolated from map","NAD83",NA,"",NA,"","","","US",41,"67",NA,NA,NA,NA,NA,NA,NA,NA,"BRONSON CREEK AT WEST UNION ROAD NR ORENCO, OR","USGS","1228861455195","1228861455195","Bronson Creek",NA,NA,"45.544839","-122.8395452"
"USGS-14206425","14206425","USGS-OR","USGS Oregon Water Science Center","BRONSON CREEK AT 185TH AVE NR ALOHA, OR","Stream","Data moved from 14206298 2/18/2011",17090010,"4.1500000000000004","sq mi",NA,"","45.532339","-122.8676014",NA,"1","seconds","Interpolated from map","NAD83",NA,"",NA,"","","","US",41,"67",NA,NA,NA,NA,NA,NA,NA,NA,"BRONSON CREEK AT 185TH AVE NR ALOHA, OR","USGS","1228861455195","1228861455195","Bronson Creek",NA,NA,"45.532339","-122.8676014"
"USGS-14206426","14206426","USGS-OR","USGS Oregon Water Science Center","BRONSON CREEK AT WALKER ROAD","Stream","Was 14206300 changed 10/02 Klamath Lake project",17090010,NA,"",NA,"","45.530116700000001","-122.87287929999999",NA,"1","seconds","Interpolated from map","NAD83",NA,"",NA,"","","","US",41,"67",NA,NA,NA,NA,NA,NA,NA,NA,"BRONSON CREEK AT WALKER ROAD","USGS","1228861455195","1228861455195","Bronson Creek",NA,NA,"45.5301167","-122.8728793"
"USGS-14206435","14206435","USGS-OR","USGS Oregon Water Science Center","BEAVERTON CREEK AT SW 216TH AVE, NR ORENCO, OR","Stream","OWRD site  no USGS ADAPS data  10/09/2002",17090010,"36.899999999999999","sq mi",NA,"","45.5206722","-122.89954659999999",NA,"1","seconds","Interpolated from map","NAD83","140.0","feet","20.0","feet","Interpolated from topographic map","NGVD29","US",41,"067",NA,NA,NA,NA,NA,NA,NA,NA,"BEAVERTON CREEK AT SW 216TH AVE, NR ORENCO, OR","USGS","1229133455196","1229133455196","Beaverton Creek",NA,NA,"45.5206722","-122.8995466"
"USGS-14206440","14206440","USGS-OR","USGS Oregon Water Science Center","OLD SITE SEE NEW SITE 14206295","Stream","DATA MOVED TO SITE 14206295 02/2011",17090010,NA,"",NA,NA,"45.490116700000002","-122.9514922",1,"1","seconds","Interpolated from map","NAD83",NA,"",NA,"","","","US",41,"67",NA,NA,NA,NA,NA,NA,NA,NA,"TUALATIN RIVER AT ROOD BRIDGE AT HILLSBORO, OR (old=NEW 14206295)","USGS","1226500453377","1226500453377","Tualatin River",NA,NA,"45.4901167","-122.9514922"
"USGS-14206441","14206441","USGS-OR","USGS Oregon Water Science Center","DAWSON CREEK AT AIRPORT ROAD, NEAR HILLSBORO, OR","Stream","",17090010,NA,"",NA,"","45.538171800000001","-122.9359367",NA,"1","seconds","Interpolated from map","NAD83",NA,"",NA,"","","","US",41,"67",NA,NA,NA,NA,NA,NA,NA,NA,"DAWSON CREEK AT AIRPORT ROAD, NEAR HILLSBORO, OR","USGS","1229329455162","1229329455162","Dawson Creek",NA,NA,"45.5381718","-122.9359367"
"USGS-14206443","14206443","USGS-OR","USGS Oregon Water Science Center","DAWSON CREEK AT BROOKWOOD ROAD, NEAR HILLSBORO, OR","Stream","",17090010,NA,"",NA,"","45.524005299999999","-122.93482539999999",NA,"1","seconds","Interpolated from map","NAD83",NA,"",NA,"","","","US",41,"67",NA,NA,NA,NA,NA,NA,NA,NA,"DAWSON CREEK AT BROOKWOOD ROAD, NEAR HILLSBORO, OR","USGS","1229329455162","1229329455162","Dawson Creek",NA,NA,"45.5240053","-122.9348254"
"USGS-14206445","14206445","USGS-OR","USGS Oregon Water Science Center","See new number 14206347","Stream","See new site number above in sta.name  10/08/2002",17090010,NA,"",NA,"","45.523727700000002","-122.9092692",NA,"1","seconds","Interpolated from map","NAD83",NA,"",NA,"","","","US",41,"67",NA,NA,NA,NA,NA,NA,NA,NA,"See new number 14206347","USGS","1229444454907","1229444454907","Rock Creek",NA,NA,"45.5237277","-122.9092692"
"USGS-14206450","14206450","USGS-OR","USGS Oregon Water Science Center","ROCK CREEK NEAR HILLSBORO,OREG.","Stream","",17090010,"74.0","sq mi",NA,"","45.502338799999997","-122.9478811",NA,"Unknown","Unknown","Interpolated from map","NAD83","116.27","feet","0.10000000000000001","feet","Level or other surveying method","NGVD29","US",41,"67",NA,NA,NA,NA,NA,NA,NA,NA,"ROCK CREEK NEAR HILLSBORO,OREG.","USGS","1229444454907","1229444454907","Rock Creek",NA,NA,"45.5023388","-122.9478811"
"USGS-14206500","14206500","USGS-OR","USGS Oregon Water Science Center","TUALATIN RIVER AT FARMINGTON,OREG.","Stream","",17090010,"568.0","sq mi",NA,NA,"45.4498392","-122.9512138",NA,"Unknown","Unknown","Interpolated from map","NAD83","100.42","feet","0.10000000000000001","feet","Level or other surveying method","NGVD29","US",41,"67",NA,NA,NA,NA,NA,NA,NA,NA,"TUALATIN RIVER AT FARMINGTON,OREG.","USGS","1226500453377","1226500453377","Tualatin River",NA,NA,"45.4498392","-122.9512138"
"USGS-14206670","14206670","USGS-OR","USGS Oregon Water Science Center","MCFEE CREEK NEAR SCHOLLS, OR","Stream","",17090010,NA,"",NA,NA,"45.401228500000002","-122.9384349",NA,"Unknown","Unknown","Interpolated from map","NAD83",NA,"",NA,"","","","US",41,"67",NA,NA,NA,NA,NA,NA,NA,NA,"MCFEE CREEK NEAR SCHOLLS, OR","USGS","1229278454064","1229278454064","McFee Creek",NA,NA,"45.4012285","-122.9384349"
"USGS-14206690","14206690","USGS-OR","USGS Oregon Water Science Center","TUALATIN RIVER AT HWY 210 BRIDGE, NR SCHOLLS, OR","Stream","",17090010,NA,"",NA,NA,"45.417895199999997","-122.9209346",NA,"Unknown","Unknown","Interpolated from map","NAD83",NA,"",NA,"","","","US",41,"67",NA,NA,NA,NA,NA,NA,NA,NA,"TUALATIN RIVER AT HWY 210 BRIDGE, NR SCHOLLS, OR","USGS","1226500453377","1226500453377","Tualatin River",NA,NA,"45.4178952","-122.9209346"
"USGS-14206740","14206740","USGS-OR","USGS Oregon Water Science Center","TUALATIN RIVER AT ELSNER RD NEAR SHERWOOD, OR","Stream","",17090010,NA,"",NA,NA,"45.388173700000003","-122.8517655",NA,"Unknown","Unknown","Interpolated from map","NAD83",NA,"",NA,"","","","US",41,"67",NA,NA,NA,NA,NA,NA,NA,NA,"TUALATIN RIVER AT ELSNER RD NEAR SHERWOOD, OR","USGS","1226500453377","1226500453377","Tualatin River",NA,NA,"45.3881737","-122.8517655"
"USGS-14206748","14206748","USGS-OR","USGS Oregon Water Science Center","CEDAR CREEK AT EDY ROAD, NEAR SHERWOOD, OR","Stream","",17090010,NA,"",NA,"","45.367896000000002","-122.8573209",NA,"1","seconds","Interpolated from map","NAD83",NA,"",NA,"","","","US",41,"67",NA,NA,NA,NA,NA,NA,NA,NA,"CEDAR CREEK AT EDY ROAD, NEAR SHERWOOD, OR","USGS","1228597453736","1228597453736","Cedar Creek",NA,NA,"45.367896","-122.8573209"
"USGS-14206750","14206750","USGS-OR","USGS Oregon Water Science Center","CHICKEN CREEK NEAR SHERWOOD, OR","Stream","",17090010,"15.5","sq mi",NA,NA,"45.374840399999997","-122.85648759999999",NA,"Unknown","Unknown","Interpolated from map","NAD83","130.0","feet","20.0","feet","Interpolated from topographic map","NGVD29","US",41,"67",NA,NA,NA,NA,NA,NA,NA,NA,"CHICKEN CREEK NEAR SHERWOOD, OR","USGS","1228372453885","1228372453885","Chicken Creek",NA,NA,"45.3748404","-122.8564876"
"USGS-14206900","14206900","USGS-OR","USGS Oregon Water Science Center","FANNO CREEK AT 56TH AVE, AT PORTLAND, OR","Stream","",17090010,"2.3700000000000001","sq mi",NA,NA,"45.487895799999997","-122.73481940000001",NA,"Unknown","Unknown","Interpolated from map","NAD83","250.0","feet","20.0","feet","Interpolated from topographic map","NGVD29","US",41,"51",NA,NA,NA,NA,NA,NA,NA,NA,"FANNO CREEK AT 56TH AVE, AT PORTLAND, OR","USGS","1227639453931","1227639453931","Fanno Creek",NA,NA,"45.4878958","-122.7348194"
"USGS-14206925","14206925","USGS-OR","USGS Oregon Water Science Center","FANNO CREEK AT SCHOLLS FERRY ROAD NEAR ALLEN BLVD","Stream","Established for Stuart Rounds",17090010,NA,"",NA,NA,"45.470951200000002","-122.77482019999999",NA,"Unknown","Unknown","Interpolated from map","NAD83","190.0","feet","20.0","feet","Interpolated from topographic map","NGVD29","US",41,"67",NA,NA,NA,NA,NA,NA,NA,NA,"FANNO CREEK AT SCHOLLS FERRY ROAD NEAR ALLEN BLVD","USGS","1227639453931","1227639453931","Fanno Creek",NA,NA,"45.4709512","-122.7748202"
"USGS-14206928","14206928","USGS-OR","USGS Oregon Water Science Center","FANNO CREEK NEAR SW PARKVIEW LOOP NEAR METZGER, OR","Stream","",17090010,NA,"",NA,"","45.457340100000003","-122.7964872",NA,"1","seconds","Interpolated from map","NAD83",NA,"",NA,"","","","US",41,"67",NA,NA,NA,NA,NA,NA,NA,NA,"FANNO CREEK NEAR SW PARKVIEW LOOP NEAR METZGER, OR","USGS","1227639453931","1227639453931","Fanno Creek",NA,NA,"45.4573401","-122.7964872"
"USGS-14206933","14206933","USGS-OR","USGS Oregon Water Science Center","ASH CREEK AT METZGER PARK AT METZGER, OR","Stream","",17090010,NA,"",NA,"","45.449840399999999","-122.7637084",NA,"1","seconds","Interpolated from map","NAD83",NA,"",NA,"","","","US",41,"67",NA,NA,NA,NA,NA,NA,NA,NA,"ASH CREEK AT METZGER PARK AT METZGER, OR","USGS","1227827454392","1227827454392","Ash Creek",NA,NA,"45.4498404","-122.7637084"
"USGS-14206935","14206935","USGS-OR","USGS Oregon Water Science Center","ASH CREEK AT GREENBERG ROAD","Stream","Was site 14206930 (Matt Johnston)",17090010,NA,"",NA,"","45.440673699999998","-122.77926429999999",NA,"1","seconds","Interpolated from map","NAD83",NA,"",NA,"","","","US",41,"67",NA,NA,NA,NA,NA,NA,NA,NA,"ASH CREEK AT GREENBERG ROAD","USGS","1227827454392","1227827454392","Ash Creek",NA,NA,"45.4406737","-122.7792643"
"USGS-14206938","14206938","USGS-OR","USGS Oregon Water Science Center","SUMMER CREEK AT SW 121 AVE NEAR TIGARD, OR","Stream","",17090010,NA,"",NA,"","45.434840299999998","-122.79982029999999",NA,"1","seconds","Interpolated from map","NAD83",NA,"",NA,"","","","US",41,"67",NA,NA,NA,NA,NA,NA,NA,NA,"SUMMER CREEK AT SW 121 AVE NEAR TIGARD, OR","USGS","1227852454334","1227852454334","Summer Creek",NA,NA,"45.4348403","-122.7998203"
"USGS-14206950","14206950","USGS-OR","USGS Oregon Water Science Center","FANNO CREEK AT DURHAM, OR","Stream","STRATA WF-WP/u(a?)",17090010,"31.5","sq mi",NA,"","45.403452000000001","-122.7548185",24000,"1","seconds","Interpolated from map","NAD83","115.78","feet","0.10000000000000001","feet","Level or other surveying method","NAVD88","US",41,"67",NA,NA,NA,NA,NA,NA,NA,NA,"FANNO CREEK AT DURHAM, OR","USGS","1227639453931","1227639453931","Fanno Creek",NA,NA,"45.403452","-122.7548185"
"USGS-14206960","14206960","USGS-OR","USGS Oregon Water Science Center","TUALATIN RIVER AT BOONES FERRY RD AT TUALATIN, OR","Stream","",17090010,NA,"",NA,NA,"45.385952199999998","-122.75731829999999",NA,"Unknown","Unknown","Interpolated from map","NAD83",NA,"",NA,"","","","US",41,"67",NA,NA,NA,NA,NA,NA,NA,NA,"TUALATIN RIVER AT BOONES FERRY RD AT TUALATIN, OR","USGS","1226500453377","1226500453377","Tualatin River",NA,NA,"45.3859522","-122.7573183"
"USGS-14207050","14207050","USGS-OR","USGS Oregon Water Science Center","TUALATIN RIVER AT STAFFORD RD NR LAKE OSWEGO, OR","Stream","",17090010,NA,"",NA,NA,"45.379563900000001","-122.6978721",NA,"Unknown","Unknown","Interpolated from map","NAD83",NA,"",NA,"","","","US",41,"5",NA,NA,NA,NA,NA,NA,NA,NA,"TUALATIN RIVER AT STAFFORD RD NR LAKE OSWEGO, OR","USGS","1226500453377","1226500453377","Tualatin River",NA,NA,"45.3795639","-122.6978721"
"USGS-14207200","14207200","USGS-OR","USGS Oregon Water Science Center","TUALATIN RIVER AT OSWEGO DAM, NEAR WEST LINN, OR","Stream","",17090010,NA,"",NA,NA,"45.3565088","-122.6850937",NA,"Unknown","Unknown","Interpolated from map","NAD83",NA,"",NA,"","","","US",41,"5",NA,NA,NA,NA,NA,NA,NA,NA,"TUALATIN RIVER AT OSWEGO DAM, NEAR WEST LINN, OR","USGS","1226500453377","1226500453377","Tualatin River",NA,NA,"45.3565088","-122.6850937"
"USGS-14207600","14207600","USGS-OR","USGS Oregon Water Science Center","TUALATIN RIVER AT WEISS BRIDGE AT WEST LINN, OR","Stream","TUALATIN PROJECT - requested by MCDOYLE",17090010,NA,"",NA,NA,"45.339564799999998","-122.654537",NA,"Unknown","Unknown","Interpolated from map","NAD83",NA,"",NA,"","","","US",41,"5",NA,NA,NA,NA,NA,NA,NA,NA,"TUALATIN RIVER AT WEISS BRIDGE AT WEST LINN, OR","USGS","1226500453377","1226500453377","Tualatin River",NA,NA,"45.3395648","-122.654537"
"USGS-14210000","14210000",NA,NA,NA,NA,NA,NA,NA,NA,NA,NA,"45.2998435","-122.3539746",NA,NA,NA,NA,"NAD83",NA,NA,NA,NA,NA,NA,NA,NA,NA,NA,NA,NA,NA,NA,NA,NA,NA,"CLACKAMAS RIVER AT ESTACADA, OR","USGS","1226050453723","1226050453723","Clackamas River",NA,NA,"45.2998435","-122.3539746"
"USGS-14210530","14210530","USGS-OR","USGS Oregon Water Science Center","RICHARDSON CREEK AT HWY 224, NEAR CARVER, OR","Stream","PESTICIDE STUDY   T.HERRETT     & K.CARPENTER",17090011,NA,"",NA,"","45.397621200000003","-122.4717558",NA,"1","seconds","Interpolated from map","NAD83",NA,"",NA,"","","","US",41,"5",NA,NA,NA,NA,NA,NA,NA,NA,"RICHARDSON CREEK AT HWY 224, NEAR CARVER, OR","USGS","1224764453923","1224764453923","Richardson Creek",NA,NA,"45.3976212","-122.4717558"
"USGS-14210750","14210750",NA,NA,NA,NA,NA,NA,NA,NA,NA,NA,"45.3901214","-122.4942559",NA,NA,NA,NA,"NAD83",NA,NA,NA,NA,NA,NA,NA,NA,NA,NA,NA,NA,NA,NA,NA,NA,NA,"CLEAR CREEK AT CARVER,OREG.","USGS","1224947453929","1224947453929","Clear Creek",NA,NA,"45.3901214","-122.4942559"
"USGS-14210900","14210900","USGS-OR","USGS Oregon Water Science Center","SIEBEN CREEK AT HWY 224, OR","Stream","REQUESTED BY KURT CARPENTER",17090011,NA,"",NA,"","45.410252800000002","-122.5222389",24000,"1","seconds","Interpolated from Digital Map","NAD83",NA,"",NA,"","","","US",41,"5",NA,NA,NA,NA,NA,NA,NA,NA,"SIEBEN CREEK AT HWY 224, OR","USGS","1225222454131","1225222454131","Sieben Drainage Ditch",NA,NA,"45.4102528","-122.5222389"
"USGS-14211004","14211004","USGS-OR","USGS Oregon Water Science Center","CARLI CREEK UPSTREAM FROM MOUTH, NR CLACKAMAS, OR","Stream","Kurt Carpenter project   & pesticide  T.Herrett",17090011,NA,"",NA,"","45.400398600000003","-122.5481463",NA,"1","seconds","Global positioning system (GPS), uncorrected","NAD83",NA,"",NA,"","","","US",41,"5",NA,NA,NA,NA,NA,NA,NA,NA,"CARLI CREEK UPSTREAM FROM MOUTH, NR CLACKAMAS, OR","USGS","1225530453996","1225530453996","Unnamed Stream",NA,NA,"45.4003986","-122.5481463"
"USGS-14211006","14211006","USGS-OR","USGS Oregon Water Science Center","CLACKAMAS RIVER AT CLACKAMAS, OR","Stream","Pesticide study        T.Herrett   Sept. 2006",17090011,NA,"",NA,"","45.3970652","-122.558702",NA,"1","seconds","Interpolated from map","NAD83",NA,"",NA,"","","","US",41,"5",NA,NA,NA,NA,NA,NA,NA,NA,"CLACKAMAS RIVER AT CLACKAMAS, OR","USGS","1226050453723","1226050453723","Clackamas River",NA,NA,"45.3970652","-122.558702"
"USGS-14211008","14211008","USGS-OR","USGS Oregon Water Science Center","COW CREEK AT MOUTH, NEAR GLADSTONE, OR","Stream","Kurt Carpenter project & pesticide  T.Herrett",17090011,NA,"",NA,"","45.390120699999997","-122.5737024",NA,"1","seconds","Global positioning system (GPS), uncorrected","NAD83",NA,"",NA,"","","","US",41,"5",NA,NA,NA,NA,NA,NA,NA,NA,"COW CREEK AT MOUTH, NEAR GLADSTONE, OR","USGS","1225733453897","1225733453897","Cow Creek",NA,NA,"45.3901207","-122.5737024"
"USGS-14211315","14211315","USGS-OR","USGS Oregon Water Science Center","TRYON CREEK NEAR LAKE OSWEGO, OR","Stream","Portland Field Office station",17090012,"6.2800000000000002","sq mi",NA,"","45.430674799999998","-122.6737057",NA,"1","seconds","Interpolated from map","NAD83","95.0","feet","5.0","feet","Interpolated from topographic map","NGVD29","US",41,"005",NA,NA,NA,NA,NA,NA,NA,NA,"TRYON CREEK NEAR LAKE OSWEGO, OR","USGS","1226557454227","1226557454227","Tryon Creek",NA,NA,"45.4306748","-122.6737057"
"USGS-14211500","14211500","USGS-OR","USGS Oregon Water Science Center","JOHNSON CREEK AT SYCAMORE, OR","Stream","",17090012,"26.800000000000001","sq mi",NA,NA,"45.477620199999997","-122.50786859999999",NA,"1","seconds","Interpolated from map","NAD83","228.47","feet","10.0","feet","Interpolated from topographic map","NGVD29","US",41,"51",NA,NA,NA,NA,NA,NA,NA,NA,"JOHNSON CREEK AT SYCAMORE, OR","USGS","1226465454422","1226465454422","Johnson Creek",NA,NA,"45.4776202","-122.5078686"
"USGS-14211550","14211550","USGS-OR","USGS Oregon Water Science Center","JOHNSON CREEK AT MILWAUKIE, OR","Stream","",17090012,"53.170000000000002","sq mi",NA,NA,"45.452897","-122.6431496",124000,"1","seconds","Interpolated from map","NAD83","0.0","feet","10.0","feet","Interpolated from topographic map","NGVD29","US",41,"5",NA,NA,NA,NA,NA,NA,NA,NA,"JOHNSON CREEK AT MILWAUKIE, OR","USGS","1226465454422","1226465454422","Johnson Creek",NA,NA,"45.452897","-122.6431496"
"USGS-14211720","14211720","USGS-OR","USGS Oregon Water Science Center","WILLAMETTE RIVER AT PORTLAND, OR","Stream","",17090012,"11200.0","sq mi",NA,"","45.517499999999998","-122.66916670000001",NA,"1","seconds","Interpolated from Digital Map","NAD83","1.55","feet","1.0","feet","Interpolated from topographic map","NGVD29","US",41,"51",NA,NA,NA,NA,NA,NA,NA,NA,"WILLAMETTE RIVER AT PORTLAND, OR","USGS","1227618456580","1227618456580","Willamette River",NA,NA,"45.5175","-122.6691667"
"USGS-14222890","14222890","USGS-OR","USGS Oregon Water Science Center","COLUMBIA RIVER NR COLUMBIA CITY,OREG.","Stream","",17080003,"2539.0","sq mi",NA,"","45.915114299999999","-122.8162154",NA,"Unknown","Unknown","Interpolated from map","NAD83",NA,"",NA,"","","","US",41,"9",NA,NA,NA,NA,NA,NA,NA,NA,NA,NA,NA,NA,NA,NA,NA,"45.9151143","-122.8162154"
"USGS-14246900","14246900","USGS-OR","USGS Oregon Water Science Center","COLUMBIA RIVER @ BEAVER ARMY TERMINAL NR QUINCY,OR","Stream","Columbia R Datum subtrct 1 ft to correct to NGVD29",17080003,"256900.0","sq mi",NA,"","46.181221399999998","-123.1834539",NA,"1","seconds","Interpolated from map","NAD83","-1.0","feet","20.0","feet","Interpolated from topographic map","NGVD29","US",41,"9",NA,NA,NA,NA,NA,NA,NA,NA,NA,NA,NA,NA,NA,NA,NA,"46.1812214","-123.1834539"
"USGS-14312490","14312490","USGS-OR","USGS Oregon Water Science Center","LAKE CREEK CANAL NEAR DIAMOND LAKE, OR","Stream: Canal","USFS   for T.Herrett 10/12/2005",17100301,NA,"",NA,"","43.185403700000002","-122.16669899999999",NA,"1","seconds","Global positioning system (GPS), uncorrected","NAD83","5183.0","feet","20.0","feet","Interpolated from topographic map","NGVD29","US",41,"019",NA,NA,NA,NA,NA,NA,NA,NA,NA,NA,NA,NA,NA,NA,NA,"43.1854037","-122.166699"
"USGS-14312600","14312600","USGS-OR","USGS Oregon Water Science Center","LAKE CREEK AT HIGHWAY 138 NEAR DIAMOND LAKE, OR","Stream","USFS  T.Herrett 3/06    lat long rev 10/06",17100301,NA,"",NA,"","43.257625400000002","-122.1705889",NA,"1","seconds","Interpolated from map","NAD83","4460.0","feet","20.0","feet","Interpolated from digital elevation model (DEM)","NGVD29","US",41,"019",NA,NA,NA,NA,NA,NA,NA,NA,NA,NA,NA,NA,NA,NA,NA,"43.2576254","-122.1705889"
"USGS-14313500","14313500","USGS-OR","USGS Oregon Water Science Center","N UMPQUA RIVER BLW LEMOLO LK, NR TOKETEE FALLS, OR","Stream","",17100301,"170.0","sq mi",NA,"","43.322068700000003","-122.1955907",NA,"Unknown","Unknown","Interpolated from map","NAD83","4025.0","feet","20.0","feet","Interpolated from topographic map","NGVD29","US",41,"019",NA,NA,NA,NA,NA,NA,NA,NA,NA,NA,NA,NA,NA,NA,NA,"43.3220687","-122.1955907"
"USGS-14314010","14314010","USGS-OR","USGS Oregon Water Science Center","N UMPQUA R AT TOKETEE LAKE INFLOW NR TKTE FALLS,OR","Stream","USFS             T.Herrett March 2006",17100301,NA,"",NA,"","43.271511099999998","-122.4064305",NA,"1","seconds","Interpolated from map","NAD83","2430.0","feet","20.0","feet","Interpolated from topographic map","NGVD29","US",41,"019",NA,NA,NA,NA,NA,NA,NA,NA,NA,NA,NA,NA,NA,NA,NA,"43.2715111","-122.4064305"
"USGS-14316460","14316460","USGS-OR","USGS Oregon Water Science Center","NORTH UMPQUA R AT SODA SPGS, NR TOKETEE FALLS, OR","Stream","",17100301,NA,"",NA,"","43.305954399999997","-122.5128232",NA,"1","seconds","Interpolated from map","NAD83","1720.0","feet","100.0","feet","Interpolated from topographic map","NGVD29","US",41,"019",NA,NA,NA,NA,NA,NA,NA,NA,NA,NA,NA,NA,NA,NA,NA,"43.3059544","-122.5128232"
"USGS-14316495","14316495","USGS-OR","USGS Oregon Water Science Center","BOULDER CREEK NEAR TOKETEE FALLS, OR","Stream","",17100301,"30.399999999999999","sq mi",NA,"","43.303454299999999","-122.5303237",NA,"10","seconds","Interpolated from map","NAD83","1640.0","feet","80.0","feet","Interpolated from topographic map","NGVD29","US",41,"019",NA,NA,NA,NA,NA,NA,NA,NA,NA,NA,NA,NA,NA,NA,NA,"43.3034543","-122.5303237"
"USGS-14316500","14316500","USGS-OR","USGS Oregon Water Science Center","N UMPQUA RIVER ABV COPELAND CK NR TOKETEE FALLS,OR","Stream","",17100301,"475.0","sq mi",NA,"","43.295954299999998","-122.5367127",NA,"Unknown","Unknown","Interpolated from map","NAD83","1580.0","feet","20.0","feet","Interpolated from topographic map","NGVD29","US",41,"019",NA,NA,NA,NA,NA,NA,NA,NA,NA,NA,NA,NA,NA,NA,NA,"43.2959543","-122.5367127"
"USGS-14316700","14316700","USGS-OR","USGS Oregon Water Science Center","STEAMBOAT CREEK NEAR GLIDE, OR","Stream","",17100301,"227.0","sq mi",NA,"","43.349842000000002","-122.7289415",NA,"1","seconds","Interpolated from map","NAD83","1128.55","feet","10.0","feet","Interpolated from topographic map","NGVD29","US",41,"019",NA,NA,NA,NA,NA,NA,NA,NA,NA,NA,NA,NA,NA,NA,NA,"43.349842","-122.7289415"
"USGS-14316800","14316800","USGS-OR","USGS Oregon Water Science Center","NORTH UMPQUA R BL STEAMBOAT CR NR GLIDE,OREG.","Stream","",17100301,"865.0","sq mi",NA,"","43.321508199999997","-122.8094992",NA,"Unknown","Unknown","Interpolated from map","NAD83",NA,"",NA,"","","","US",41,"019",NA,NA,NA,NA,NA,NA,NA,NA,NA,NA,NA,NA,NA,NA,NA,"43.3215082","-122.8094992"
"USGS-14317450","14317450","USGS-OR","USGS Oregon Water Science Center","NORTH UMPQUA RIVER NEAR IDLEYLD PARK, OR","Stream","",17100301,"886.0","sq mi",NA,"","43.324562999999998","-122.9997836",NA,"Unknown","Unknown","Interpolated from map","NAD83","780.0","feet","20.0","feet","Interpolated from topographic map","NGVD29","US",41,"019",NA,NA,NA,NA,NA,NA,NA,NA,NA,NA,NA,NA,NA,NA,NA,"43.324563","-122.9997836"
"USGS-14317500","14317500","USGS-OR","USGS Oregon Water Science Center","N UMPQUA RIVER AB ROCK CR NR GLIDE OREG","Stream","",17100301,"886.0","sq mi",NA,"","43.330674199999997","-123.00311720000001",NA,"Unknown","Unknown","Interpolated from map","NAD83","770.0","feet","20.0","feet","Interpolated from topographic map","NGVD29","US",41,"019",NA,NA,NA,NA,NA,NA,NA,NA,NA,NA,NA,NA,NA,NA,NA,"43.3306742","-123.0031172"
"USGS-14350870","14350870","USGS-OR","USGS Oregon Water Science Center","NEIL CREEK AT MT ASHLAND, NEAR ASHLAND, OR","Stream","City of Ashland-periodic sampling and Q meas",17100308,"0.13600000000000001","sq mi",NA,"","42.081522900000003","-122.69475319999999",NA,"1","seconds","Interpolated from map","NAD83","5820.0","feet","20.0","feet","Interpolated from topographic map","NGVD29","US",41,"029",NA,NA,NA,NA,NA,NA,NA,NA,NA,NA,NA,NA,NA,NA,NA,"42.0815229","-122.6947532"
"USGS-14353420","14353420","USGS-OR","USGS Oregon Water Science Center","MIDDLE FORK OF E.F. ASHLAND CREEK, NR ASHLAND, OR","Stream","City of Ashland-periodic sampling & Q meas",17100308,"0.40400000000000003","sq mi",NA,"","42.095966599999997","-122.7191986",NA,"1","seconds","Interpolated from map","NAD83","5880.0","feet","20.0","feet","Interpolated from topographic map","NGVD29","US",41,"029",NA,NA,NA,NA,NA,NA,NA,NA,NA,NA,NA,NA,NA,NA,NA,"42.0959666","-122.7191986"
"USGS-14353425","14353425","USGS-OR","USGS Oregon Water Science Center","WEST FORK OF E.F. ASHLAND CREEK, NEAR ASHLAND, OR","Stream","City of Ashland-periodic sampling & Q meas",17100308,"0.36699999999999999","sq mi",NA,"","42.097077499999997","-122.72947670000001",NA,"1","seconds","Interpolated from map","NAD83","5940.0","feet","20.0","feet","Interpolated from topographic map","NGVD29","US",41,"029",NA,NA,NA,NA,NA,NA,NA,NA,NA,NA,NA,NA,NA,NA,NA,"42.0970775","-122.7294767"
"USGS-14353429","14353429","USGS-OR","USGS Oregon Water Science Center","EAST FORK OF EF ASHLAND CREEK, AT MT. ASHLAND, OR","Stream","New Central Point Office site",17100308,NA,"",NA,"","42.083189300000001","-122.7069759",NA,"1","seconds","Global positioning system (GPS), uncorrected","NAD83","6450.0","feet","10.0","feet","Interpolated from topographic map","NGVD29","US",41,"029",NA,NA,NA,NA,NA,NA,NA,NA,NA,NA,NA,NA,NA,NA,NA,"42.0831893","-122.7069759"
"USGS-14353430","14353430","USGS-OR","USGS Oregon Water Science Center","EAST FORK OF E.F. ASHLAND CREEK, NEAR ASHLAND, OR","Stream","City of Ashalnd-periodic sampling & Q meas",17100308,"0.11700000000000001","sq mi",NA,"","42.084856000000002","-122.70586470000001",NA,"1","seconds","Interpolated from map","NAD83","6120.0","feet","20.0","feet","Interpolated from topographic map","NGVD29","US",41,"029",NA,NA,NA,NA,NA,NA,NA,NA,NA,NA,NA,NA,NA,NA,NA,"42.084856","-122.7058647"
"USGS-14353435","14353435","USGS-OR","USGS Oregon Water Science Center","PUMPHOUSE CREEK AT MT ASHLAND, NEAR ASHLAND, OR","Stream","City of Ashland-periodic sampling & Q meas",17100308,"7.1999999999999995E-2","sq mi",NA,"","42.0904113","-122.7097538",NA,"1","seconds","Interpolated from map","NAD83","6000.0","feet","20.0","feet","Interpolated from topographic map","NGVD29","US",41,"029",NA,NA,NA,NA,NA,NA,NA,NA,NA,NA,NA,NA,NA,NA,NA,"42.0904113","-122.7097538"
"USGS-14353450","14353450","USGS-OR","USGS Oregon Water Science Center","E.F. ASHLAND CK, ABV BULL GAP CK, NR ASHLAND, OR","Stream","City of Ashland-periodic sampling & Q meas",17100308,"3.2000000000000002","sq mi",NA,"","42.109022000000003","-122.7111428",NA,"1","seconds","Interpolated from map","NAD83","4600.0","feet","20.0","feet","Interpolated from topographic map","NGVD29","US",41,"029",NA,NA,NA,NA,NA,NA,NA,NA,NA,NA,NA,NA,NA,NA,NA,"42.109022","-122.7111428"
"USGS-420451121510000","420451121510000","USGS-OR","USGS Oregon Water Science Center","KLAMATH STRAITS DRAIN NEAR HIGHWAY 97, OR","Stream","Stewart Rounds & Annett Sullivan Klamath R proj",18010204,NA,"",NA,"","42.080833300000002","-121.84999999999999",24000,"1","seconds","Differentially corrected Global Positioning System (DGPS)","NAD83","4088.0","feet","1.6000000000000001","feet","Interpolated from digital elevation model (DEM)","NAVD88","US",41,"035",NA,NA,NA,NA,NA,NA,NA,NA,NA,NA,NA,NA,NA,NA,NA,"42.0808333","-121.85"
"USGS-420615121533600","420615121533600","USGS-OR","USGS Oregon Water Science Center","KLAMATH RIVER AT SITE 12A, NR ROCK QUARRY, OR","Stream","Stewart Rounds & Annett Sulivan Klamath River proj",18010204,NA,"",NA,"","42.1041667","-121.89333329999999",24000,"1","seconds","Differentially corrected Global Positioning System (DGPS)","NAD83","4087.0","feet","1.6000000000000001","feet","Interpolated from digital elevation model (DEM)","NAVD88","US",41,"035",NA,NA,NA,NA,NA,NA,NA,NA,NA,NA,NA,NA,NA,NA,NA,"42.1041667","-121.8933333"
"USGS-420853121505500","420853121505500","USGS-OR","USGS Oregon Water Science Center","KLAMATH RIVER AT MILLER ISLAND BOAT RAMP, OR","Stream","Stewart Rounds & Annett Sullivan Klamath R proj",18010204,NA,"",NA,"","42.148055599999999","-121.84861100000001",24000,"1","seconds","Differentially corrected Global Positioning System (DGPS)","NAD83","4087.0","feet","1.6000000000000001","feet","Interpolated from digital elevation model (DEM)","NAVD88","US",41,"035",NA,NA,NA,NA,NA,NA,NA,NA,NA,NA,NA,NA,NA,NA,NA,"42.1480556","-121.848611"
"USGS-420941121453200","420941121453200","USGS-OR","USGS Oregon Water Science Center","OSU AG RESEARCH STATION","Stream: Canal","TARA CHESTNUT",18010203,NA,"",NA,NA,"42.161472199999999","-121.75875000000001",NA,"1","seconds","Global positioning system (GPS), uncorrected","NAD83",NA,"",NA,"","","","US",41,"35",NA,NA,NA,NA,NA,NA,NA,NA,NA,NA,NA,NA,NA,NA,NA,"42.1614722","-121.75875"
"USGS-421015121471800","421015121471800","USGS-OR","USGS Oregon Water Science Center","LOST RIVER DIVERSION CHANNEL NR KLAMATH RIVER, OR","Stream","Stewart Round & Annett Sullivan Klamath model proj",18010204,NA,"",NA,"","42.170833299999998","-121.78833330000001",24000,"1","seconds","Interpolated from Digital Map","NAD83","4088.0","feet","1.6000000000000001","feet","Interpolated from digital elevation model (DEM)","NAVD88","US",41,"035",NA,NA,NA,NA,NA,NA,NA,NA,NA,NA,NA,NA,NA,NA,NA,"42.1708333","-121.7883333"
"USGS-421205121462300","421205121462300","USGS-OR","USGS Oregon Water Science Center","LAKE EUWANA TRESTLE (LET)","Lake, Reservoir, Impoundment","Lake Euwana Buoyuancy asay sites  T.Wood  8/06",18010204,NA,"",NA,"","42.201200900000003","-121.77408610000001",NA,".1","seconds","Interpolated from map","NAD83",NA,"",NA,"","","","US",41,"035",NA,NA,NA,NA,NA,NA,NA,NA,NA,NA,NA,NA,NA,NA,NA,"42.2012009","-121.7740861"
"USGS-421209121463000","421209121463000","USGS-OR","USGS Oregon Water Science Center","KLAMATH RIVER AT RAILROAD BRIDGE, OR","Stream","Stewart Rounds & Annett Sullivan Klamath R proj",18010204,NA,"",NA,"","42.202500000000001","-121.77500000000001",24000,"1","seconds","Differentially corrected Global Positioning System (DGPS)","NAD83","4087.0","feet","1.6000000000000001","feet","Interpolated from digital elevation model (DEM)","NAVD88","US",41,"035",NA,NA,NA,NA,NA,NA,NA,NA,NA,NA,NA,NA,NA,NA,NA,"42.2025","-121.775"
"USGS-421311121472100","421311121472100","USGS-OR","USGS Oregon Water Science Center","LINK RIVER  (LRV)","Lake, Reservoir, Impoundment","Lake Euwana Buoyancy assay sites  T.Wood  8/06",18010204,NA,"",NA,"","42.203006199999997","-121.7903285",NA,".1","seconds","Interpolated from map","NAD83",NA,"",NA,"","","","US",41,"035",NA,NA,NA,NA,NA,NA,NA,NA,NA,NA,NA,NA,NA,NA,NA,"42.2030062","-121.7903285"
"USGS-421420121481700","421420121481700","USGS-OR","USGS Oregon Water Science Center","FREMONT BRIDGE  (FBR)","Lake, Reservoir, Impoundment","Lake Euwana buoyancy assay sites  T.Wood  8/06",18010204,NA,"",NA,"","42.238755300000001","-121.80586599999999",NA,"1","seconds","Interpolated from map","NAD83",NA,"",NA,"","","","US",41,"035",NA,NA,NA,NA,NA,NA,NA,NA,NA,NA,NA,NA,NA,NA,NA,"42.2387553","-121.805866"
"USGS-421740121551200","421740121551200","USGS-OR","USGS Oregon Water Science Center","FLOODED CALEDONIA MARSH (FCM-3)","Lake, Reservoir, Impoundment","QW portion of Sucker telemetry stydy  T.Wood  6/06",NA,NA,"",NA,"","42.294308100000002","-121.9211217",NA,"1","seconds","Interpolated from map","NAD83",NA,"",NA,"","","","US",41,"35",NA,NA,NA,NA,NA,NA,NA,NA,NA,NA,NA,NA,NA,NA,NA,"42.2943081","-121.9211217"
"USGS-421807121543800","421807121543800","USGS-OR","USGS Oregon Water Science Center","FLOODED CALDONIA MARSH (FCM-1)","Lake, Reservoir, Impoundment","QW portion of Sucker Telemetry study  T.Wood",NA,NA,"",NA,"","42.301808000000001","-121.911677",NA,"1","seconds","Interpolated from map","NAD83",NA,"",NA,"","","","US",41,"35",NA,NA,NA,NA,NA,NA,NA,NA,NA,NA,NA,NA,NA,NA,NA,"42.301808","-121.911677"
"USGS-421819121532800","421819121532800","USGS-OR","USGS Oregon Water Science Center","FLOODED CALEDONIA MARSH (FCM-2)","Lake, Reservoir, Impoundment","QW portion of Sucker telemetry study  T.Wood 6/06",NA,NA,"",NA,"","42.305141499999998","-121.8922319",NA,"1","seconds","Interpolated from map","NAD83",NA,"",NA,"","","","US",41,"35",NA,NA,NA,NA,NA,NA,NA,NA,NA,NA,NA,NA,NA,NA,NA,"42.3051415","-121.8922319"
"USGS-421838121513900","421838121513900","USGS-OR","USGS Oregon Water Science Center","NORTH BUCK ISLAND  - NBI","Lake, Reservoir, Impoundment","REQUESTED BY TAMMY WOOD",18010203,NA,"",NA,"","42.310419500000002","-121.86195309999999",24000,"1","minutes","Interpolated from map","NAD83","4143.0","feet","10.0","feet","Interpolated from topographic map","NAVD88","US",41,"35",NA,NA,NA,NA,NA,NA,NA,NA,NA,NA,NA,NA,NA,NA,NA,"42.3104195","-121.8619531"
"USGS-421933121550000","421933121550000","USGS-OR","USGS Oregon Water Science Center","HOWARD BAY  - HDB","Lake, Reservoir, Impoundment","REQUESTED BY TAMMY WOOD",18010203,NA,"",NA,"","42.325696299999997","-121.91778890000001",24000,"1","minutes","Interpolated from map","NAD83","4143.0","feet","10.0","feet","Interpolated from topographic map","NAVD88","US",41,"35",NA,NA,NA,NA,NA,NA,NA,NA,NA,NA,NA,NA,NA,NA,NA,"42.3256963","-121.9177889"
"USGS-422042121513100","422042121513100","USGS-OR","USGS Oregon Water Science Center","RATTLESNAKE POINT  -  RPT","Lake, Reservoir, Impoundment","QW portion sucker telemetry study T.Wood 06/2005",18010203,NA,"",NA,"","42.344752100000001","-121.8598427",NA,".1","seconds","Global positioning system (GPS), uncorrected","NAD83",NA,"",NA,"","","","US",41,"35",NA,NA,NA,NA,NA,NA,NA,NA,NA,NA,NA,NA,NA,NA,NA,"42.3447521","-121.8598427"
"USGS-422207119340400","422207119340400","USGS-OR","USGS Oregon Water Science Center","HART36","Lake, Reservoir, Impoundment","USGS-BRD Armi Sites in Eastern OR Aug. 2003",NA,NA,"",NA,"","42.3684966","-119.56883000000001",NA,"1","seconds","Global positioning system (GPS), uncorrected","NAD83","5640.0","feet","20.0","feet","Interpolated from topographic map","NGVD29","US",41,"37",NA,NA,NA,NA,NA,NA,NA,NA,NA,NA,NA,NA,NA,NA,NA,"42.3684966","-119.56883"
"USGS-422222120575602","422222120575602","USGS-OR","USGS Oregon Water Science Center","37.00S/15.00E-08DBC02","Stream","Near east well at Sprague River Park-C.Palmer 2002",18010202,NA,"",NA,"","42.372918499999997","-120.9666386",24000,".5","seconds","Global positioning system (GPS), uncorrected","NAD83","4370.0","feet","10.0","feet","Interpolated from topographic map","NGVD29","US",41,"35",NA,NA,NA,NA,NA,NA,NA,NA,NA,NA,NA,NA,NA,NA,NA,"42.3729185","-120.9666386"
"USGS-422305121553800","422305121553800","USGS-OR","USGS Oregon Water Science Center","MID-TRENCH - LOWER   -  MDTL","Lake, Reservoir, Impoundment","QW portion of sucker telemetry study T.Wood 9/2004",NA,NA,"",NA,"","42.384611499999998","-121.9284016",NA,"1","seconds","Interpolated from map","NAD83",NA,"",NA,"","","","US",41,"35",NA,NA,NA,NA,NA,NA,NA,NA,NA,NA,NA,NA,NA,NA,NA,"42.3846115","-121.9284016"
"USGS-422305121553803","422305121553803","USGS-OR","USGS Oregon Water Science Center","MID-TRENCH - UPPER   - MDTU","Lake, Reservoir, Impoundment","QW portion of sucker telemetry study T.Wood 9/2004",NA,NA,"",NA,"","42.384689199999997","-121.9286044",NA,".01","seconds","Interpolated from map","NAD83",NA,"",NA,"","","","US",41,"35",NA,NA,NA,NA,NA,NA,NA,NA,NA,NA,NA,NA,NA,NA,NA,"42.3846892","-121.9286044"
"USGS-422312121515900","422312121515900","USGS-OR","USGS Oregon Water Science Center","MID-LAKE   -  MDL","Lake, Reservoir, Impoundment","QW portion sucker telemetry study T.Wood 06/2005",18010203,NA,"",NA,"","42.3865287","-121.8675384",NA,".1","seconds","Global positioning system (GPS), uncorrected","NAD83",NA,"",NA,"","","","US",41,"35",NA,NA,NA,NA,NA,NA,NA,NA,NA,NA,NA,NA,NA,NA,NA,"42.3865287","-121.8675384"
"USGS-422437121515200","422437121515200","USGS-OR","USGS Oregon Water Science Center","MODOC RIM/MRM","Lake, Reservoir, Impoundment","QW portion Sucker telemetry study T.Wood 06/06",18010203,NA,"",NA,"","42.410222599999997","-121.86567770000001",NA,"1","seconds","Interpolated from map","NAD83",NA,"",NA,"","","","US",41,"35",NA,NA,NA,NA,NA,NA,NA,NA,NA,NA,NA,NA,NA,NA,NA,"42.4102226","-121.8656777"
"USGS-422500121581800","422500121581800","USGS-OR","USGS Oregon Water Science Center","UKL08-03","Lake, Reservoir, Impoundment","WQ NETWORK FOR SUCKER TELEMETRY STUDY 2003 T.WOODS",NA,NA,"",NA,"","42.416582499999997","-121.9728482",NA,".1","seconds","Global positioning system (GPS), uncorrected","NAD83",NA,"",NA,"","","","US",41,"35",NA,NA,NA,NA,NA,NA,NA,NA,NA,NA,NA,NA,NA,NA,NA,"42.4165825","-121.9728482"
"USGS-422501121581400","422501121581400","USGS-OR","USGS Oregon Water Science Center","UKL08","Lake, Reservoir, Impoundment","QW PORTION OF SUCKER TELEMETRY STUDY",NA,NA,"",NA,"","42.4167658","-121.9717287",NA,".1","seconds","Interpolated from map","NAD83",NA,"",NA,"","","","US",41,"35",NA,NA,NA,NA,NA,NA,NA,NA,NA,NA,NA,NA,NA,NA,NA,"42.4167658","-121.9717287"
"USGS-422502122011400","422502122011400","USGS-OR","USGS Oregon Water Science Center","UKL11-03","Lake, Reservoir, Impoundment","WQ NETWORK FOR SUCKER TELEMETRY STUDY 2003 T.WOODS",NA,NA,"",NA,"","42.417081899999999","-122.02171079999999",NA,".1","seconds","Global positioning system (GPS), uncorrected","NAD83",NA,"",NA,"","","","US",41,"35",NA,NA,NA,NA,NA,NA,NA,NA,NA,NA,NA,NA,NA,NA,NA,"42.4170819","-122.0217108"
"USGS-422559121574400","422559121574400","USGS-OR","USGS Oregon Water Science Center","EAGLE POINT - LOWER  - EPT","Lake, Reservoir, Impoundment","QW portion sucker telemetry study T.Wood 06/2005",18010203,NA,"",NA,"","42.432971100000003","-121.963376",NA,".1","seconds","Global positioning system (GPS), uncorrected","NAD83",NA,"",NA,"","","","US",41,"35",NA,NA,NA,NA,NA,NA,NA,NA,NA,NA,NA,NA,NA,NA,NA,"42.4329711","-121.963376"
"USGS-422559121574403","422559121574403","USGS-OR","USGS Oregon Water Science Center","EAGLE POINT - UPPER   - EPT","Lake, Reservoir, Impoundment","QW portion sucker telemetry study T.Wood 06/2005",18010203,NA,"",NA,"","42.432971100000003","-121.963376",NA,".1","seconds","Global positioning system (GPS), uncorrected","NAD83",NA,"",NA,"","","","US",41,"035",NA,NA,NA,NA,NA,NA,NA,NA,NA,NA,NA,NA,NA,NA,NA,"42.4329711","-121.963376"
"USGS-422606121592600","422606121592600","USGS-OR","USGS Oregon Water Science Center","UKL07","Lake, Reservoir, Impoundment","QW PORTION OF SUCKER TELEMETRY STUDY",NA,NA,"",NA,"","42.434890199999998","-121.9915603",NA,".1","seconds","Interpolated from map","NAD83",NA,"",NA,"","","","US",41,"35",NA,NA,NA,NA,NA,NA,NA,NA,NA,NA,NA,NA,NA,NA,NA,"42.4348902","-121.9915603"
"USGS-422621119401600","422621119401600","USGS-OR","USGS Oregon Water Science Center","HART64","Lake, Reservoir, Impoundment","USGS-BRD Armi Easter OR sites Aug.2003 C.Anderson",NA,NA,"",NA,"","42.439049699999998","-119.6721689",NA,"1","seconds","Global positioning system (GPS), uncorrected","NAD83","6600.0","feet","20.0","feet","Interpolated from topographic map","NGVD29","US",41,"37",NA,NA,NA,NA,NA,NA,NA,NA,NA,NA,NA,NA,NA,NA,NA,"42.4390497","-119.6721689"
"USGS-422622122004000","422622122004000","USGS-OR","USGS Oregon Water Science Center","MID-NORTH - LOWER  - MDNL","Lake, Reservoir, Impoundment","WQ network for sucker telemetry study T.Wood  2004",NA,NA,"",NA,"","42.439164900000002","-122.01223880000001",NA,".1","seconds","Global positioning system (GPS), uncorrected","NAD83",NA,"",NA,"","","","US",41,"35",NA,NA,NA,NA,NA,NA,NA,NA,NA,NA,NA,NA,NA,NA,NA,"42.4391649","-122.0122388"
"USGS-422628121594500","422628121594500","USGS-OR","USGS Oregon Water Science Center","MID NORTH KLAMATH LAKE, OR","Lake, Reservoir, Impoundment","REQUESTED BY TAMMY WOOD",18010203,NA,"",NA,"","42.441111100000001","-121.9958333",124000,"1","minutes","Interpolated from map","NAD83","4143.0","feet","1.0","feet","Interpolated from topographic map","NAVD88","US",41,"35",NA,NA,NA,NA,NA,NA,NA,NA,NA,NA,NA,NA,NA,NA,NA,"42.4411111","-121.9958333"
"USGS-422708119395400","422708119395400","USGS-OR","USGS Oregon Water Science Center","HART65","Lake, Reservoir, Impoundment","USGS-BRD Armi Eastern OR sites Aug.2003 C.Anderson",NA,NA,"",NA,"","42.452105000000003","-119.6660579",NA,"1","seconds","Global positioning system (GPS), uncorrected","NAD83","6460.0","feet","20.0","feet","Interpolated from topographic map","NGVD29","US",41,"037",NA,NA,NA,NA,NA,NA,NA,NA,NA,NA,NA,NA,NA,NA,NA,"42.452105","-119.6660579"
"USGS-422711122003700","422711122003700","USGS-OR","USGS Oregon Water Science Center","UKL06","Lake, Reservoir, Impoundment","QW PORTION OF SUCKER TELEMETRY STUDY",NA,NA,"",NA,"","42.453022900000001","-122.0115334",NA,".1","seconds","Interpolated from map","NAD83",NA,"",NA,"","","","US",41,"35",NA,NA,NA,NA,NA,NA,NA,NA,NA,NA,NA,NA,NA,NA,NA,"42.4530229","-122.0115334"
"USGS-422714122034100","422714122034100","USGS-OR","USGS Oregon Water Science Center","UKL09-03","Lake, Reservoir, Impoundment","WQ NETWORK FOR SUCKER TELEMETRY STUDY 2003 T.WOODS",NA,NA,"",NA,"","42.453830600000003","-122.0624349",NA,".1","seconds","Global positioning system (GPS), uncorrected","NAD83",NA,"",NA,"","","","US",41,"35",NA,NA,NA,NA,NA,NA,NA,NA,NA,NA,NA,NA,NA,NA,NA,"42.4538306","-122.0624349"
"USGS-422719121571400","422719121571400","USGS-OR","USGS Oregon Water Science Center","WILLIAMSON RIVER OUTLET - WMR","Lake, Reservoir, Impoundment","WQ NETWORK FOR SUCKER TELEMETRY STUDY 2003 T.WOODS",NA,NA,"",NA,"","42.455248400000002","-121.95490390000001",NA,".1","seconds","Global positioning system (GPS), uncorrected","NAD83",NA,"",NA,"","","","US",41,"35",NA,NA,NA,NA,NA,NA,NA,NA,NA,NA,NA,NA,NA,NA,NA,"42.4552484","-121.9549039"
"USGS-422727121592400","422727121592400","USGS-OR","USGS Oregon Water Science Center","UKL02-03","Lake, Reservoir, Impoundment","WQ NETWORK FOR SUCKER TELEMETRY STUDY 2003 T.WOODS",NA,NA,"",NA,"","42.457442499999999","-121.9911273",NA,".1","seconds","Global positioning system (GPS), uncorrected","NAD83",NA,"",NA,"","","","US",41,"35",NA,NA,NA,NA,NA,NA,NA,NA,NA,NA,NA,NA,NA,NA,NA,"42.4574425","-121.9911273"
"USGS-422817122014800","422817122014800","USGS-OR","USGS Oregon Water Science Center","UKL05","Lake, Reservoir, Impoundment","QW PORTION OF SUCKER TELEMETRY STUDY",NA,NA,"",NA,"","42.471330600000002","-122.0310593",NA,".1","seconds","Interpolated from map","NAD83",NA,"",NA,"","","","US",41,"35",NA,NA,NA,NA,NA,NA,NA,NA,NA,NA,NA,NA,NA,NA,NA,"42.4713306","-122.0310593"
"USGS-422840122030200","422840122030200","USGS-OR","USGS Oregon Water Science Center","UKL05-03","Lake, Reservoir, Impoundment","WQ NETWORK FOR SUCKER TELEMETRY STUDY 2003 T.WOODS",NA,NA,"",NA,"","42.4775524","-122.05168500000001",NA,".1","seconds","Global positioning system (GPS), uncorrected","NAD83",NA,"",NA,"","","","US",41,"35",NA,NA,NA,NA,NA,NA,NA,NA,NA,NA,NA,NA,NA,NA,NA,"42.4775524","-122.051685"
"USGS-423050121545700","423050121545700","USGS-OR","USGS Oregon Water Science Center","WILLIAMSON RIVER ABOVE AGENCY LAKE","Stream","KLAMATH LAKE PROJECT - HEHARRISON",18010203,NA,"",NA,"","42.513747600000002","-121.9169594",NA,"Unknown","Unknown","Interpolated from map","NAD83",NA,"",NA,"","","","US",41,"35",NA,NA,NA,NA,NA,NA,NA,NA,NA,NA,NA,NA,NA,NA,NA,"42.5137476","-121.9169594"
"USGS-423158123465900","423158123465900","USGS-OR","USGS Oregon Water Science Center","ROADS END CREEK  (Rdend)","Stream","ARMI grazing effects study-C.Anderson Nov. 2002",17100311,NA,"",NA,"","42.532611299999999","-123.7842435",NA,"1","seconds","Global positioning system (GPS), uncorrected","NAD83","2430.0","feet","10.0","feet","Interpolated from topographic map","NGVD29","US",41,"33",NA,NA,NA,NA,NA,NA,NA,NA,NA,NA,NA,NA,NA,NA,NA,"42.5326113","-123.7842435"
"USGS-423236123432500","423236123432500","USGS-OR","USGS Oregon Water Science Center","EAST TRIB OF NORTH FORK SILVER (ENSilv)","Stream","ARMI grazing effects study-C.Anderson Nov. 2002",17100311,NA,"",NA,"","42.543167599999997","-123.7247969",NA,"1","seconds","Global positioning system (GPS), uncorrected","NAD83","3200.0","feet","10.0","feet","Interpolated from topographic map","NGVD29","US",41,"33",NA,NA,NA,NA,NA,NA,NA,NA,NA,NA,NA,NA,NA,NA,NA,"42.5431676","-123.7247969"
"USGS-423247123443100","423247123443100","USGS-OR","USGS Oregon Water Science Center","SECTION 10 TRIBUTARY (Sec.10)","Stream","ARMI Grazing effects study-C.Anderson Nov.2002",17100311,NA,"",NA,"","42.546222999999998","-123.74313100000001",NA,"1","seconds","Global positioning system (GPS), uncorrected","NAD83","3750.0","feet","10.0","feet","Interpolated from topographic map","NGVD29","US",41,"33",NA,NA,NA,NA,NA,NA,NA,NA,NA,NA,NA,NA,NA,NA,NA,"42.546223","-123.743131"
"USGS-423324123445000","423324123445000","USGS-OR","USGS Oregon Water Science Center","SOURGRASS CREEK AT BLM 34-9-35.1 (Sourgrass)","Stream","Armi Grazing effects study-C.Anderson Nov.2002",17100311,NA,"",NA,"","42.556500700000001","-123.7484092",NA,"1","seconds","Global positioning system (GPS), uncorrected","NAD83","3600.0","feet","10.0","feet","Interpolated from topographic map","NGVD29","US",41,"33",NA,NA,NA,NA,NA,NA,NA,NA,NA,NA,NA,NA,NA,NA,NA,"42.5565007","-123.7484092"
"USGS-423454121562500","423454121562500","USGS-OR","USGS Oregon Water Science Center","WOOD RIVER NEAR MOUTH, BELOW CROOKED CREEK","Stream","KLAMATH PROJECT - HEHARRISON",18010203,NA,"",NA,"","42.5815245","-121.941406",NA,"Unknown","Unknown","Interpolated from map","NAD83",NA,"",NA,"","","","US",41,"35",NA,NA,NA,NA,NA,NA,NA,NA,NA,NA,NA,NA,NA,NA,NA,"42.5815245","-121.941406"
"USGS-423455121581201","423455121581201","USGS-OR","USGS Oregon Water Science Center","SEVEN-MILE BRIDGE AT AGENCY LAKE, OR","Lake, Reservoir, Impoundment","KLAMATH WETLANDS PROJECT - jlmorace",18010203,NA,"",NA,"","42.581802000000003","-121.971129",NA,"Unknown","Unknown","Interpolated from map","NAD83",NA,"",NA,"","","","US",41,"35",NA,NA,NA,NA,NA,NA,NA,NA,NA,NA,NA,NA,NA,NA,NA,"42.581802","-121.971129"
"USGS-423500121565600","423500121565600","USGS-OR","USGS Oregon Water Science Center","AGENCY LAKE ALONG SHORE NEAR WOOD RIVER WETLAND,OR","Lake, Reservoir, Impoundment","K.D.CARPENTER QW WETLAND STUDY   MAY 2003",18010203,NA,"",NA,"","42.583205","-121.9500257",NA,".5","seconds","Global positioning system (GPS), uncorrected","NAD83",NA,"",NA,"","","","US",41,"035",NA,NA,NA,NA,NA,NA,NA,NA,NA,NA,NA,NA,NA,NA,NA,"42.583205","-121.9500257"
"USGS-423539120524502","423539120524502","USGS-OR","USGS Oregon Water Science Center","34.005/16.00E-30BCB02","Stream","Near well at Sandhill Crossing Campground   2002",18010202,NA,"",NA,"","42.594600499999999","-120.88035410000001",24000,".5","seconds","Global positioning system (GPS), uncorrected","NAD83","6085.0","feet","10.0","feet","Interpolated from topographic map","NGVD29","US",41,"37",NA,NA,NA,NA,NA,NA,NA,NA,NA,NA,NA,NA,NA,NA,NA,"42.5946005","-120.8803541"
"USGS-425336119253500","425336119253500","USGS-OR","USGS Oregon Water Science Center","GU2  (Balls Lake 2  GUANO Ponds)","Lake, Reservoir, Impoundment","ARMI Water collection sites-C.Anderson Aug.2002",17120008,NA,"",NA,"","42.893212300000002","-119.4274429",NA,"1","seconds","Global positioning system (GPS), uncorrected","NAD83","5250.0","feet","10.0","feet","Global Positioning System","NGVD29","US",41,"25",NA,NA,NA,NA,NA,NA,NA,NA,NA,NA,NA,NA,NA,NA,NA,"42.8932123","-119.4274429"
"USGS-425406119255200","425406119255200","USGS-OR","USGS Oregon Water Science Center","GU1   (Balls Lake 1  GUANO Ponds)","Lake, Reservoir, Impoundment","ARMI Water collection sites-C.Anderson Aug.2002",17120008,NA,"",NA,"","42.901545499999997","-119.4321654",NA,"1","seconds","Global positioning system (GPS), uncorrected","NAD83","5250.0","feet","10.0","feet","Global Positioning System","NGVD29","US",41,"25",NA,NA,NA,NA,NA,NA,NA,NA,NA,NA,NA,NA,NA,NA,NA,"42.9015455","-119.4321654"
"USGS-425947119341500","425947119341500","USGS-OR","USGS Oregon Water Science Center","Si14  (Little Ridge Lake SILVER Ponds)","Lake, Reservoir, Impoundment","ARMI Water collection sites-C.Anderson Aug. 2002",17120004,NA,"",NA,"","42.996265999999999","-119.5718938",NA,"1","seconds","Global positioning system (GPS), uncorrected","NAD83","5220.0","feet","10.0","feet","Global Positioning System","NGVD29","US",41,"25",NA,NA,NA,NA,NA,NA,NA,NA,NA,NA,NA,NA,NA,NA,NA,"42.996266","-119.5718938"
"USGS-430214119341500","430214119341500","USGS-OR","USGS Oregon Water Science Center","Si8  (Antelope Canyon Reservoir - SILVER Ponds)","Lake, Reservoir, Impoundment","ARMI Water collection sites-C.Anderson  Aug.2002",17120004,NA,"",NA,"","43.037098999999998","-119.5718943",NA,"1","seconds","Global positioning system (GPS), uncorrected","NAD83","5080.0","feet","10.0","feet","Global Positioning System","NGVD29","US",41,"25",NA,NA,NA,NA,NA,NA,NA,NA,NA,NA,NA,NA,NA,NA,NA,"43.037099","-119.5718943"
"USGS-430319119335300","430319119335300","USGS-OR","USGS Oregon Water Science Center","Si7   (Antelope Reservoir (SILVER Ponds))","Lake, Reservoir, Impoundment","ARMI Water Collection sites-C.Anderson  Aug.2002",17120004,NA,"",NA,"","43.055154399999999","-119.5657831",NA,"1","seconds","Global positioning system (GPS), uncorrected","NAD83","5000.0","feet","10.0","feet","Global Positioning System","NGVD29","US",41,"25",NA,NA,NA,NA,NA,NA,NA,NA,NA,NA,NA,NA,NA,NA,NA,"43.0551544","-119.5657831"
"USGS-430356119341800","430356119341800","USGS-OR","USGS Oregon Water Science Center","Si15  (Wilson Creek Cell2 west&south SILVER Ponds)","Stream","ARMI Water collection sites-C.Anderson  Aug.2002",17120004,NA,"",NA,"","43.065432000000001","-119.5727279",NA,"1","seconds","Global positioning system (GPS), uncorrected","NAD83","4020.0","feet","10.0","feet","Global Positioning System","NGVD29","US",41,"25",NA,NA,NA,NA,NA,NA,NA,NA,NA,NA,NA,NA,NA,NA,NA,"43.065432","-119.5727279"
"USGS-430516119345200","430516119345200","USGS-OR","USGS Oregon Water Science Center","Si4  (Road Lake SILVER Ponds)","Lake, Reservoir, Impoundment","ARMI Water collection sites-C.Anderson Aug.2002",17120004,NA,"",NA,"","43.087653899999999","-119.5821729",NA,"1","seconds","Global positioning system (GPS), uncorrected","NAD83","4920.0","feet","10.0","feet","Global Positioning System","NGVD29","US",41,"25",NA,NA,NA,NA,NA,NA,NA,NA,NA,NA,NA,NA,NA,NA,NA,"43.0876539","-119.5821729"
"USGS-430627119350100","430627119350100","USGS-OR","USGS Oregon Water Science Center","Si2  (Road Lake - SILVER Ponds)","Lake, Reservoir, Impoundment","ARMI Water collection sites-C.Anderson Aug.2002",17120004,NA,"",NA,"","43.107376000000002","-119.5846732",NA,"1","seconds","Global positioning system (GPS), uncorrected","NAD83","4960.0","feet","10.0","feet","Global Positioning System","NGVD29","US",41,"25",NA,NA,NA,NA,NA,NA,NA,NA,NA,NA,NA,NA,NA,NA,NA,"43.107376","-119.5846732"
"USGS-431234117245800","431234117245800","USGS-OR","USGS Oregon Water Science Center","RED 3","Lake, Reservoir, Impoundment","C.ANDERSON  ARMI SITES CONT'D  JULY 2003",17050110,NA,"",NA,"","43.209322700000001","-117.41710500000001",NA,"1","seconds","Global positioning system (GPS), uncorrected","NAD83",NA,"",NA,"","","","US",41,"45",NA,NA,NA,NA,NA,NA,NA,NA,NA,NA,NA,NA,NA,NA,NA,"43.2093227","-117.417105"
"USGS-431249117235500","431249117235500","USGS-OR","USGS Oregon Water Science Center","RED 4","Lake, Reservoir, Impoundment","C.ANDERSON  ARMI SITES CONT'D  JULY 2003",17050110,NA,"",NA,"","43.213489199999998","-117.3996044",NA,"1","seconds","Global positioning system (GPS), uncorrected","NAD83",NA,"",NA,"","","","US",41,"45",NA,NA,NA,NA,NA,NA,NA,NA,NA,NA,NA,NA,NA,NA,NA,"43.2134892","-117.3996044"
"USGS-431300117260500","431300117260500","USGS-OR","USGS Oregon Water Science Center","RED 2","Lake, Reservoir, Impoundment","C.ANDERSON  ARMI SITES CONT'D  JULY 2003",17050110,NA,"",NA,"","43.216545000000004","-117.43571729999999",NA,"1","seconds","Global positioning system (GPS), uncorrected","NAD83",NA,"",NA,"","","","US",41,"45",NA,NA,NA,NA,NA,NA,NA,NA,NA,NA,NA,NA,NA,NA,NA,"43.216545","-117.4357173"
"USGS-431343117225000","431343117225000","USGS-OR","USGS Oregon Water Science Center","RED 5","Lake, Reservoir, Impoundment","C.ANDERSON  ARMI SITES CONT'D  JULY 2003",17050110,NA,"",NA,"","43.228489199999999","-117.3815487",NA,"1","seconds","Global positioning system (GPS), uncorrected","NAD83",NA,"",NA,"","","","US",41,"45",NA,NA,NA,NA,NA,NA,NA,NA,NA,NA,NA,NA,NA,NA,NA,"43.2284892","-117.3815487"
"USGS-431344117252500","431344117252500","USGS-OR","USGS Oregon Water Science Center","RED 1","Lake, Reservoir, Impoundment","C.ANDERSON ARMI SITES CONT'D  JULY 2003",17050110,NA,"",NA,"","43.228767300000001","-117.4246062",NA,"1","seconds","Global positioning system (GPS), uncorrected","NAD83",NA,"",NA,"","","","US",41,"45",NA,NA,NA,NA,NA,NA,NA,NA,NA,NA,NA,NA,NA,NA,NA,"43.2287673","-117.4246062"
"USGS-431546122250600","431546122250600","USGS-OR","USGS Oregon Water Science Center","CLEARWATER CANAL NO.2 BYPASS REACH,   OR","Stream: Canal","N.UMPQUA SYNOPTIC PROJ STUDY C.ANDERSON 2005",NA,NA,"",NA,"","43.262622100000002","-122.4194864",NA,"1","seconds","Global positioning system (GPS), uncorrected","NAD83",NA,"",NA,"","","","US",41,"019",NA,NA,NA,NA,NA,NA,NA,NA,NA,NA,NA,NA,NA,NA,NA,"43.2626221","-122.4194864"
"USGS-431552122252100","431552122252100","USGS-OR","USGS Oregon Water Science Center","N UMPQUA R BL TOKETEE LAKE NR TOKETTE FALLS, OR","Stream","WILLAMETTE STATE STUDY - requested by heharrison",17100301,NA,"",NA,"","43.264288700000002","-122.4236532",NA,"Unknown","Unknown","Interpolated from map","NAD83",NA,"",NA,"","","","US",41,"019",NA,NA,NA,NA,NA,NA,NA,NA,NA,NA,NA,NA,NA,NA,NA,"43.2642887","-122.4236532"
"USGS-431553122243400","431553122243400","USGS-OR","USGS Oregon Water Science Center","CLEARWATER CANAL NO.2 PENSTOCK INFLOW     OR","Stream: Canal","N.UMPQUA SYNOPTIC PROJECT STUDY  C.ANDERSON 2005",NA,NA,"",NA,"","43.264566600000002","-122.4105972",NA,"1","seconds","Global positioning system (GPS), uncorrected","NAD83",NA,"",NA,"","","","US",41,"019",NA,NA,NA,NA,NA,NA,NA,NA,NA,NA,NA,NA,NA,NA,NA,"43.2645666","-122.4105972"
"USGS-431617122242200","431617122242200","USGS-OR","USGS Oregon Water Science Center","NORTH UMPQUA RIVER ABOVE TOKETEE LAKE, OR","Stream","N.UMPQUA SYNOPTIC PROJ STUDY C.ANDERSON 2005",NA,NA,"",NA,"","43.271233299999999","-122.4072639",NA,"1","seconds","Global positioning system (GPS), uncorrected","NAD83",NA,"",NA,"","","","US",41,"019",NA,NA,NA,NA,NA,NA,NA,NA,NA,NA,NA,NA,NA,NA,NA,"43.2712333","-122.4072639"
"USGS-431728122370800","431728122370800","USGS-OR","USGS Oregon Water Science Center","CALF CR NR MOUTH AB N UMPQUA R NR STEAMBOAT, OR","Stream","WILLAMETTE STATE STUDY - requested by heharrison",17100301,NA,"",NA,"","43.290953700000003","-122.6200484",NA,"1","seconds","Interpolated from map","NAD83",NA,"",NA,"","","","US",41,"019",NA,NA,NA,NA,NA,NA,NA,NA,NA,NA,NA,NA,NA,NA,NA,"43.2909537","-122.6200484"
"USGS-431730122323800","431730122323800","USGS-OR","USGS Oregon Water Science Center","COPELAND CR NR MTH AB N UMPQUA R NR TOKETEE F, OR","Stream","WILLAMETTE STATE STUDY - requested by heharrison",17100301,NA,"",NA,"","43.2915098","-122.5450462",NA,"1","seconds","Interpolated from map","NAD83",NA,"",NA,"","","","US",41,"019",NA,NA,NA,NA,NA,NA,NA,NA,NA,NA,NA,NA,NA,NA,NA,"43.2915098","-122.5450462"
"USGS-431750122104500","431750122104500","USGS-OR","USGS Oregon Water Science Center","LAKE CREEK AB LEMOLO LAKE NR DIAMOND LAKE, OR","Stream","WILLAMETTE STATE STUDY - Requested by heharrison",17100301,NA,"",NA,"","43.297069200000003","-122.180312",NA,"1","seconds","Interpolated from map","NAD83",NA,"",NA,"","","","US",41,"019",NA,NA,NA,NA,NA,NA,NA,NA,NA,NA,NA,NA,NA,NA,NA,"43.2970692","-122.180312"
"USGS-431750123060000","431750123060000","USGS-OR","USGS Oregon Water Science Center","LITTLE R NR MOUTH AB NORTH UMPQUA R NR GLIDE, OR","Stream","WILLAMETTE STATE STUDY - requested by heharrison",17100301,NA,"",NA,"","43.297062400000002","-123.1011752",NA,"1","seconds","Interpolated from map","NAD83",NA,"",NA,"","","","US",41,"019",NA,NA,NA,NA,NA,NA,NA,NA,NA,NA,NA,NA,NA,NA,NA,"43.2970624","-123.1011752"
"USGS-431815122404400","431815122404400","USGS-OR","USGS Oregon Water Science Center","PANTHER CR NR MOUTH AB N UMPQUA R NR STEAMBOAT, OR","Stream","WILLAMETTE STATE STUDY - requested by heharrison",17100301,NA,"",NA,"","43.304008899999999","-122.6800503",NA,"1","seconds","Interpolated from map","NAD83",NA,"",NA,"","","","US",41,"019",NA,NA,NA,NA,NA,NA,NA,NA,NA,NA,NA,NA,NA,NA,NA,"43.3040089","-122.6800503"
"USGS-431820122403700","431820122403700","USGS-OR","USGS Oregon Water Science Center","NORTH UMPQUA RIVER AB APPLE CREEK NR STEAMBOAT, OR","Stream","WILLAMETTE STATE STUDY - requested by heharrison",17100301,NA,"",NA,"","43.305397800000001","-122.67810590000001",NA,"1","seconds","Interpolated from map","NAD83",NA,"",NA,"","","","US",41,"019",NA,NA,NA,NA,NA,NA,NA,NA,NA,NA,NA,NA,NA,NA,NA,"43.3053978","-122.6781059"
"USGS-431827123072200","431827123072200","USGS-OR","USGS Oregon Water Science Center","NORTH UMPQUA RIVER BELOW LITTLE RIVER NR GLIDE, OR","Stream","WILLAMETTE STATE STUDY - requested by heharrison",17100301,NA,"",NA,"","43.307340199999999","-123.123954",NA,"Unknown","Unknown","Interpolated from map","NAD83",NA,"",NA,"","","","US",41,"019",NA,NA,NA,NA,NA,NA,NA,NA,NA,NA,NA,NA,NA,NA,NA,"43.3073402","-123.123954"
"USGS-431834117062800","431834117062800","USGS-OR","USGS Oregon Water Science Center","MS38 (Spring Ck Cell24-MIDDLE SNAKE-SUCCOR Stream)","Stream","ARMI Water collection sites-C. Anderson Aug. 2002",17050103,NA,"",NA,"","43.309322299999998","-117.1087589",NA,"1","seconds","Global positioning system (GPS), uncorrected","NAD83","3870.0","feet","10.0","feet","Global Positioning System","NGVD29","US",41,"45",NA,NA,NA,NA,NA,NA,NA,NA,NA,NA,NA,NA,NA,NA,NA,"43.3093223","-117.1087589"
"USGS-431839122091300","431839122091300","USGS-OR","USGS Oregon Water Science Center","N UMPQUA RIVER AB LEMOLO LAKE NR DIAMOND LAKE, OR","Stream","WILLAMETTE STATE PROJECT - REQUESTED BY HEHARRISON",17100301,NA,"",NA,"","43.310680599999998","-122.1547557",NA,"1","seconds","Interpolated from map","NAD83",NA,"",NA,"","","","US",41,"019",NA,NA,NA,NA,NA,NA,NA,NA,NA,NA,NA,NA,NA,NA,NA,"43.3106806","-122.1547557"
"USGS-431912122482700","431912122482700","USGS-OR","USGS Oregon Water Science Center","WRIGHT CR NR MOUTH AB N UMPQUA R NR STEAMBOAT, OR","Stream","WILLAMETTE STATE STUDY - requested by heharrison",17100301,NA,"",NA,"","43.319841599999997","-122.8086658",NA,"Unknown","Unknown","Interpolated from map","NAD83",NA,"",NA,"","","","US",41,"019",NA,NA,NA,NA,NA,NA,NA,NA,NA,NA,NA,NA,NA,NA,NA,"43.3198416","-122.8086658"
"USGS-432000123000700","432000123000700","USGS-OR","USGS Oregon Water Science Center","ROCK CR NR MOUTH AB N UMPQUA RIVER NR GLIDE, OR","Stream","WILLAMETTE STATE STUDY - requested by heharrison",17100301,NA,"",NA,"","43.333174200000002","-123.0031173",NA,"Unknown","Unknown","Interpolated from map","NAD83",NA,"",NA,"","","","US",41,"019",NA,NA,NA,NA,NA,NA,NA,NA,NA,NA,NA,NA,NA,NA,NA,"43.3331742","-123.0031173"
"USGS-432034122440100","432034122440100","USGS-OR","USGS Oregon Water Science Center","N UMP R AB STMBOAT CR AT MOTT BR NR STEAMBOAT, OR","Stream","WILLAMETTE STATE STUDY - requested by heharrison",17100301,NA,"",NA,"","43.342619800000001","-122.73477490000001",NA,"1","seconds","Interpolated from map","NAD83",NA,"",NA,"","","","US",41,"019",NA,NA,NA,NA,NA,NA,NA,NA,NA,NA,NA,NA,NA,NA,NA,"43.3426198","-122.7347749"
"USGS-432034122442500","432034122442500","USGS-OR","USGS Oregon Water Science Center","N UMPQUA R AT MI 52.5 BL STMBT CR NR STAMBOAT, OR","Stream","WILLAMETTE STATE STUDY - requested by heharrison",17100301,NA,"",NA,"","43.3426197","-122.7414418",NA,"Unknown","Unknown","Interpolated from map","NAD83",NA,"",NA,"","","","US",41,"019",NA,NA,NA,NA,NA,NA,NA,NA,NA,NA,NA,NA,NA,NA,NA,"43.3426197","-122.7414418"
"USGS-432224117023500","432224117023500","USGS-OR","USGS Oregon Water Science Center","MS6 (Sheep Reservoir  MIDDLE SNAKE-SUCCOR Ponds)","Lake, Reservoir, Impoundment","ARMI Water collection sites-C.Anderson  Aug.2002",17050103,NA,"",NA,"","43.3732112","-117.0440354",NA,"1","seconds","Global positioning system (GPS), uncorrected","NAD83","4900.0","feet","10.0","feet","Global Positioning System","NGVD29","US",41,"45",NA,NA,NA,NA,NA,NA,NA,NA,NA,NA,NA,NA,NA,NA,NA,"43.3732112","-117.0440354"
"USGS-432308117062800","432308117062800","USGS-OR","USGS Oregon Water Science Center","MS19 (Succor CK Cell 6-MIDDLE SNAKE-SUCCOR Stream)","Stream","ARMI Water collection sites-C. Anderson Aug. 2002",17050103,NA,"",NA,"","43.385434199999999","-117.1087615",NA,"1","seconds","Global positioning system (GPS), uncorrected","NAD83","3660.0","feet","10.0","feet","Global Positioning System","NGVD29","US",41,"45",NA,NA,NA,NA,NA,NA,NA,NA,NA,NA,NA,NA,NA,NA,NA,"43.3854342","-117.1087615"
"USGS-432312117090400","432312117090400","USGS-OR","USGS Oregon Water Science Center","MS4 (Saddle Butte Resv MIDDLE SNAKE-SUCCOR Ponds)","Lake, Reservoir, Impoundment","ARMI Water collection sites-C.Anderson Aug. 2002",17050103,NA,"",NA,"","43.386545900000002","-117.152097",NA,"1","seconds","Global positioning system (GPS), uncorrected","NAD83","3800.0","feet","10.0","feet","Global Positioning System","NGVD29","US",41,"45",NA,NA,NA,NA,NA,NA,NA,NA,NA,NA,NA,NA,NA,NA,NA,"43.3865459","-117.152097"
"USGS-432336117030500","432336117030500","USGS-OR","USGS Oregon Water Science Center","MS5 (Top Reservoir   MIDDLE SNAKE-SUCCOR Ponds)","Lake, Reservoir, Impoundment","ARMI Water collection sites,C.Anderson  Aug. 2002",17050103,NA,"",NA,"","43.393211399999998","-117.05237",NA,"1","seconds","Global positioning system (GPS), uncorrected","NAD83","4900.0","feet","10.0","feet","Global Positioning System","NGVD29","US",41,"45",NA,NA,NA,NA,NA,NA,NA,NA,NA,NA,NA,NA,NA,NA,NA,"43.3932114","-117.05237"
"USGS-432454123124801","432454123124801","USGS-OR","USGS Oregon Water Science Center","CALAPOOYA CREEK NEAR NONPAREIL, OR","Stream","Denny Wentz August 2002 project site",NA,"98.299999999999997","sq mi",NA,NA,"43.414841000000003","-123.2145167",NA,"1","seconds","Interpolated from map","NAD83","510.0","feet","10.0","feet","Interpolated from topographic map","NGVD29","US",41,"19",NA,NA,NA,NA,NA,NA,NA,NA,NA,NA,NA,NA,NA,NA,NA,"43.414841","-123.2145167"
"USGS-432627117591100","432627117591100","USGS-OR","USGS Oregon Water Science Center","STAR PONDS NR WARM SPRINGS RESV STAR-3, OR","Lake, Reservoir, Impoundment","USGS-BRD ARMI   C.ANDERSON  MAY 2003",17050116,NA,"",NA,"","43.4407146","-117.98740549999999",10,"1","seconds","Global positioning system (GPS), uncorrected","NAD83","4730.0","feet","10.0","feet","Interpolated from topographic map","NGVD29","US",41,"45",NA,NA,NA,NA,NA,NA,NA,NA,NA,NA,NA,NA,NA,NA,NA,"43.4407146","-117.9874055"
"USGS-432634117550500","432634117550500","USGS-OR","USGS Oregon Water Science Center","STAR PONDS NR WARM SPRINGS RESV - STAR-2, OR","Lake, Reservoir, Impoundment","USGS-BRD ARMI sites  C.Anderson May 2003",17050116,NA,"",NA,"","43.442658999999999","-117.91907019999999",NA,"1","seconds","Global positioning system (GPS), uncorrected","NAD83","5170.0","feet","10.0","feet","Interpolated from topographic map","NGVD29","US",41,"45",NA,NA,NA,NA,NA,NA,NA,NA,NA,NA,NA,NA,NA,NA,NA,"43.442659","-117.9190702"
"USGS-432805118015900","432805118015900","USGS-OR","USGS Oregon Water Science Center","STAR PONDS NR WARM SPRINGS RESV  STAR-18   OR","Lake, Reservoir, Impoundment","USGS-BRD ARMI SITES   C.ANDERSON  MAY 2003",17050116,NA,"",NA,"","43.467936999999999","-118.034074",NA,"1","seconds","Global positioning system (GPS), uncorrected","NAD83","4650.0","feet","10.0","feet","Global Positioning System","NGVD29","US",41,"45",NA,NA,NA,NA,NA,NA,NA,NA,NA,NA,NA,NA,NA,NA,NA,"43.467937","-118.034074"
"USGS-432848118080200","432848118080200","USGS-OR","USGS Oregon Water Science Center","STAR PONDS NR WARM SPRINGS RESV  STAR-14   OR","Lake, Reservoir, Impoundment","USGS-BRD ARMI SITES C. ANDERSON  MAY 2003",17050116,NA,"",NA,"","43.479881599999999","-118.13491139999999",NA,"1","seconds","Global positioning system (GPS), uncorrected","NAD83","4010.0","feet","10.0","feet","Global Positioning System","NGVD29","US",41,"45",NA,NA,NA,NA,NA,NA,NA,NA,NA,NA,NA,NA,NA,NA,NA,"43.4798816","-118.1349114"
"USGS-433142118060400","433142118060400","USGS-OR","USGS Oregon Water Science Center","STAR PONDS NR WARM SPRINGS RESV  STAR-15   OR","Lake, Reservoir, Impoundment","USGS-BRD ARMI SITES   C.ANDERSON  MAY 2003",17050116,NA,"",NA,"","43.528214800000001","-118.1021317",NA,"1","seconds","Global positioning system (GPS), uncorrected","NAD83","3730.0","feet","10.0","feet","Global Positioning System","NGVD29","US",41,"45",NA,NA,NA,NA,NA,NA,NA,NA,NA,NA,NA,NA,NA,NA,NA,"43.5282148","-118.1021317"
"USGS-433143118060400","433143118060400","USGS-OR","USGS Oregon Water Science Center","Star Stream GRANITE CREEK  STAR-32, OR","Lake, Reservoir, Impoundment","USGS-BRD ARMI SITES   C.ANDERSON  MAY 2003",17050116,NA,"",NA,"","43.528492499999999","-118.1021317",NA,"1","seconds","Global positioning system (GPS), uncorrected","NAD83","3730.0","feet","10.0","feet","Global Positioning System","NGVD29","US",41,"45",NA,NA,NA,NA,NA,NA,NA,NA,NA,NA,NA,NA,NA,NA,NA,"43.5284925","-118.1021317"
"USGS-433345117301500","433345117301500","USGS-OR","USGS Oregon Water Science Center","OW14 (Dry Creek-Lower Owyhee) OR","Stream","ARMI water collection site-C.Anderson Sept. 2002",17050110,NA,"",NA,"","43.562382100000001","-117.5051744",NA,"1","seconds","Global positioning system (GPS), uncorrected","NAD83","3350.0","feet","10.0","feet","Interpolated from topographic map","NGVD29","US",41,"45",NA,NA,NA,NA,NA,NA,NA,NA,NA,NA,NA,NA,NA,NA,NA,"43.5623821","-117.5051744"
"USGS-433350117293700","433350117293700","USGS-OR","USGS Oregon Water Science Center","OW13 (Dry Creek)","Stream","ARMI water collection sites-C.Anderson Sept. 2002",17050110,NA,"",NA,"","43.563771000000003","-117.4946186",NA,"1","seconds","Global positioning system (GPS), uncorrected","NAD83","3150.0","feet","10.0","feet","Interpolated from topographic map","NGVD29","US",41,"45",NA,NA,NA,NA,NA,NA,NA,NA,NA,NA,NA,NA,NA,NA,NA,"43.563771","-117.4946186"
"USGS-433546117320900","433546117320900","USGS-OR","USGS Oregon Water Science Center","OW4 (Sheep Corral Reservoir - Lower Owyhee) OR","Lake, Reservoir, Impoundment","ARMI water collection site-C.Anderson Sept. 2002",17050110,NA,"",NA,"","43.595992699999996","-117.53684269999999",NA,"1","seconds","Global positioning system (GPS), uncorrected","NAD83","4200.0","feet","10.0","feet","Interpolated from topographic map","NGVD29","US",41,"45",NA,NA,NA,NA,NA,NA,NA,NA,NA,NA,NA,NA,NA,NA,NA,"43.5959927","-117.5368427"
"USGS-433622117335700","433622117335700","USGS-OR","USGS Oregon Water Science Center","OW6 (Upper Sheep Corral Reservoir-Lower Owyhee),OR","Lake, Reservoir, Impoundment","ARMI water collection sites-C.Anderson Sept. 2002",17050110,NA,"",NA,"","43.605992499999999","-117.56684319999999",NA,"1","seconds","Global positioning system (GPS), uncorrected","NAD83","4840.0","feet","10.0","feet","Interpolated from topographic map","NGVD29","US",41,"45",NA,NA,NA,NA,NA,NA,NA,NA,NA,NA,NA,NA,NA,NA,NA,"43.6059925","-117.5668432"
"USGS-433715117250700","433715117250700","USGS-OR","USGS Oregon Water Science Center","TWIN SPRINGS, OR","Stream","ARME water collection sites-C.Anderson Sept. 2002",17050110,NA,"",NA,"","43.620714800000002","-117.41961740000001",NA,"1","seconds","Global positioning system (GPS), uncorrected","NAD83","3290.0","feet","10.0","feet","Interpolated from topographic map","NGVD29","US",41,"45",NA,NA,NA,NA,NA,NA,NA,NA,NA,NA,NA,NA,NA,NA,NA,"43.6207148","-117.4196174"
"USGS-433808117404100","433808117404100","USGS-OR","USGS Oregon Water Science Center","MESA RESERVOIR","Lake, Reservoir, Impoundment","ARMI Water Collection sites-C.Anderson Aug.2002",17050117,NA,"",NA,"","43.635436300000002","-117.6790666",NA,"1","seconds","Global positioning system (GPS), uncorrected","NAD83","4500.0","feet","10.0","feet","Global Positioning System","NGVD29","US",41,"45",NA,NA,NA,NA,NA,NA,NA,NA,NA,NA,NA,NA,NA,NA,NA,"43.6354363","-117.6790666"
"USGS-433846121352800","433846121352800","USGS-OR","USGS Oregon Water Science Center","LITTLE DESCHUTES RIVER AT MASTEN RD, NR LA PINE,OR","Stream","River Mile 37.8   S. Hinkle   Oct. 2006",17070302,NA,"",NA,"","43.645871700000001","-121.5922755",NA,".5","seconds","Global positioning system (GPS), uncorrected","NAD83","4235.0","feet","5.0","feet","Interpolated from topographic map","NGVD29","US",41,"017",NA,NA,NA,NA,NA,NA,NA,NA,NA,NA,NA,NA,NA,NA,NA,"43.6458717","-121.5922755"
"USGS-433855123045401","433855123045401","USGS-OR","USGS Oregon Water Science Center","COAST FORK WILLAMETTE RIVER NEAR LONDON, OR","Stream","Denny Wentz August 2002 project site",NA,"75.299999999999997","sq mi",NA,"","43.648454700000002","-123.0828535",NA,"1","seconds","Interpolated from map","NAD83","830.0","feet","10.0","feet","Interpolated from topographic map","NGVD29","US",41,"39",NA,NA,NA,NA,NA,NA,NA,NA,NA,NA,NA,NA,NA,NA,NA,"43.6484547","-123.0828535"
"USGS-434022121324600","434022121324600","USGS-OR","USGS Oregon Water Science Center","LITTLE DESCHUTES R@ DORRANCE MDW RD, NR LA PINE,OR","Stream","River mile 32.6   S.Hinkle  Oct. 2006",17070302,NA,"",NA,"","43.672676899999999","-121.5473865",NA,".5","seconds","Global positioning system (GPS), uncorrected","NAD83","4205.0","feet","5.0","feet","Global Positioning System","NGVD29","US",41,"017",NA,NA,NA,NA,NA,NA,NA,NA,NA,NA,NA,NA,NA,NA,NA,"43.6726769","-121.5473865"
"USGS-434153117215600","434153117215600","USGS-OR","USGS Oregon Water Science Center","GRASSY MOUNTAIN","Stream","ARMI water collection sites-C.Anderson Sept.2002",17050110,NA,"",NA,"","43.697936200000001","-117.36656259999999",NA,"1","seconds","Global positioning system (GPS), uncorrected","NAD83","3430.0","feet","10.0","feet","Interpolated from topographic map","NGVD29","US",41,"45",NA,NA,NA,NA,NA,NA,NA,NA,NA,NA,NA,NA,NA,NA,NA,"43.6979362","-117.3665626"
"USGS-434212121295700","434212121295700","USGS-OR","USGS Oregon Water Science Center","LITTLE DESCHUTES RIVER AT BURGESS ROAD","Stream","Steve Hinkle 1strmflw meas @LaPine GW project site",17070302,NA,"",NA,"","43.703333299999997","-121.4991667",NA,"1","seconds","Interpolated from map","NAD83","4195.0","feet","5.0","feet","Interpolated from topographic map","NGVD29","US",41,"017",NA,NA,NA,NA,NA,NA,NA,NA,NA,NA,NA,NA,NA,NA,NA,"43.7033333","-121.4991667"
"USGS-434512121290300","434512121290300","USGS-OR","USGS Oregon Water Science Center","LITTLE DESCHUTES RIVER AT RIVER MILE 16.1","Stream","STEVE HINKLE PROJECT",17070302,NA,"",NA,"","43.753258799999998","-121.4851926",NA,".5","seconds","Global positioning system (GPS), uncorrected","NAD83",NA,"",NA,"","","","US",41,"17",NA,NA,NA,NA,NA,NA,NA,NA,NA,NA,NA,NA,NA,NA,NA,"43.7532588","-121.4851926"
"USGS-434515121290200","434515121290200","USGS-OR","USGS Oregon Water Science Center","LITTLE DESCHUTES RIVER AT BRIDGE DR NR LA PINE, OR","Stream","River mile 16.0   S. Hinkle   Oct. 2006",17070302,NA,"",NA,"","43.753925500000001","-121.485026",NA,".5","seconds","Global positioning system (GPS), uncorrected","NAD83","4170.0","feet","5.0","feet","Interpolated from topographic map","NGVD29","US",41,"017",NA,NA,NA,NA,NA,NA,NA,NA,NA,NA,NA,NA,NA,NA,NA,"43.7539255","-121.485026"
"USGS-434621118101500","434621118101500","USGS-OR","USGS Oregon Water Science Center","KINGSBURY GULCH","Stream","ARMI Water Collection sites-C.Anderson Aug.2002",17050116,NA,"",NA,"","43.772380400000003","-118.1718553",NA,"1","seconds","Global positioning system (GPS), uncorrected","NAD83","3280.0","feet","10.0","feet","Global Positioning System","NGVD29","US",41,"45",NA,NA,NA,NA,NA,NA,NA,NA,NA,NA,NA,NA,NA,NA,NA,"43.7723804","-118.1718553"
"USGS-434627117274200","434627117274200","USGS-OR","USGS Oregon Water Science Center","KANE SPRING RESERVOIR, OR","Lake, Reservoir, Impoundment","ARMI Water Collection sites-C.Anderson Aug.2002",17050117,NA,"",NA,"","43.774047000000003","-117.4626809",NA,"1","seconds","Global positioning system (GPS), uncorrected","NAD83","3060.0","feet","10.0","feet","Global Positioning System","NGVD29","US",41,"45",NA,NA,NA,NA,NA,NA,NA,NA,NA,NA,NA,NA,NA,NA,NA,"43.774047","-117.4626809"
"USGS-434745123040200","434745123040200","USGS-OR","USGS Oregon Water Science Center","SILK CREEK NEAR COTTAGE GROVE, OR","Stream","URBAN GRADIENT LAND USE STUDY  M.Sarantou  3/04",17090002,"16.300000000000001","sq mi",NA,"","43.795122900000003","-123.0684138",NA,"1","seconds","Global positioning system (GPS), uncorrected","NAD83","640.0","feet","20.0","feet","Interpolated from topographic map","NGVD29","US",41,"039",NA,NA,NA,NA,NA,NA,NA,NA,"SILK CREEK NEAR COTTAGE GROVE, OR","USGS","1230680437950","1230680437950","Silk Creek",NA,NA,"43.7951229","-123.0684138"
"USGS-434805117031700","434805117031700","USGS-ID","USGS Idaho Water Science Center","301 DRAIN NEAR HIGHWAY 201 NEAR OWYHEE OR","Stream: Ditch","Project B6003",17050110,NA,"",NA,"","43.801388899999999","-117.0547222",24000,"1","seconds","Global positioning system (GPS), uncorrected","NAD83",NA,"",NA,"","","","US",41,"45",NA,NA,NA,NA,NA,NA,NA,NA,NA,NA,NA,NA,NA,NA,NA,"43.8013889","-117.0547222"
"USGS-434916117271600","434916117271600","USGS-OR","USGS Oregon Water Science Center","LITTLE TWIN RESERVOIR","Lake, Reservoir, Impoundment","ARMI Water Collection site-C.Anderson Aug.2002",17050117,NA,"",NA,"","43.820991800000002","-117.4554595",NA,"1","seconds","Global positioning system (GPS), uncorrected","NAD83","2760.0","feet","10.0","feet","Global Positioning System","NGVD29","US",41,"45",NA,NA,NA,NA,NA,NA,NA,NA,NA,NA,NA,NA,NA,NA,NA,"43.8209918","-117.4554595"
"USGS-434917121270000","434917121270000","USGS-OR","USGS Oregon Water Science Center","LITTLE DESCHUTES R @ S CENTURY DR, NR SUNRIVER, OR","Stream","River mile 5.4    S.Hinkle   Oct. 2006",17070302,NA,"",NA,"","43.821174300000003","-121.451083",NA,".5","seconds","Global positioning system (GPS), uncorrected","NAD83","4165.0","feet","5.0","feet","Interpolated from topographic map","NGVD29","US",41,"017",NA,NA,NA,NA,NA,NA,NA,NA,NA,NA,NA,NA,NA,NA,NA,"43.8211743","-121.451083"
"USGS-435014121274900","435014121274900","USGS-OR","USGS Oregon Water Science Center","UNNAMED SLOUGH DRAIN TO DESCHUTES R @ RM 194.8 OR","Stream","STEVE HINKLE PROJECT",17070301,NA,"",NA,"","43.836979599999999","-121.46475049999999",NA,".5","seconds","Global positioning system (GPS), uncorrected","NAD83",NA,"",NA,"","","","US",41,"17",NA,NA,NA,NA,NA,NA,NA,NA,NA,NA,NA,NA,NA,NA,NA,"43.8369796","-121.4647505"
"USGS-435029117283500","435029117283500","USGS-OR","USGS Oregon Water Science Center","VINE HILL RESERVOIR, OR","Lake, Reservoir, Impoundment","ARMI Water collection sites-C.Anderson Aug.2002",17050117,NA,"",NA,"","43.841269699999998","-117.4774055",NA,"1","seconds","Global positioning system (GPS), uncorrected","NAD83","2960.0","feet","10.0","feet","Global Positioning System","NGVD29","US",41,"45",NA,NA,NA,NA,NA,NA,NA,NA,NA,NA,NA,NA,NA,NA,NA,"43.8412697","-117.4774055"
"USGS-435147123034100","435147123034100","USGS-OR","USGS Oregon Water Science Center","HILL CREEK NEAR CRESWELL, OR","Stream","URBAN GRADIENT LAND USE STUDY  M.Sarantou  3/04",NA,NA,"",NA,"","43.861790300000003","-123.0625819",NA,"1","seconds","Global positioning system (GPS), uncorrected","NAD83",NA,"",NA,"","","","US",41,"039",NA,NA,NA,NA,NA,NA,NA,NA,NA,NA,NA,NA,NA,NA,NA,"43.8617903","-123.0625819"
"USGS-435212122483300","435212122483300","USGS-OR","USGS Oregon Water Science Center","LOST CREEK NEAR DEXTER, OR","Stream","URBAN GRADIENT LAND USE STUDY  M.Sarantou 3/04",17090001,"32.200000000000003","sq mi",NA,"","43.869847300000004","-122.8103481",NA,"1","seconds","Global positioning system (GPS), uncorrected","NAD83","800.0","feet","20.0","feet","Interpolated from topographic map","NGVD29","US",41,"039",NA,NA,NA,NA,NA,NA,NA,NA,"LOST CREEK NEAR DEXTER, OR","USGS","1228482439494","1228482439494","Lost Creek",NA,NA,"43.8698473","-122.8103481"
"USGS-440257123103200","440257123103200","USGS-OR","USGS Oregon Water Science Center","AMAZON CREEK NEAR DANEBO ROAD AT EUGENE, OR","Stream","URBAN GRADIENT LAND USE STUDY  M.Sarantou 04/2004",17090003,"19.399999999999999","sq mi",NA,"","44.049013100000003","-123.17675680000001",NA,"1","seconds","Global positioning system (GPS), uncorrected","NAD83","380.0","feet","20.0","feet","Interpolated from topographic map","NGVD29","US",41,"039",NA,NA,NA,NA,NA,NA,NA,NA,"AMAZON CREEK NEAR DANEBO ROAD AT EUGENE, OR","USGS","1232651442279","1232651442279","Amazon Creek",NA,NA,"44.0490131","-123.1767568"
"USGS-440306122535200","440306122535200","USGS-OR","USGS Oregon Water Science Center","72nd STORMWATER CULVERT AT THURSTON RD, SPGFLD, OR","Stream","EWEB Storm event monitor proj-C.Anderson Sept.2002",NA,NA,"",NA,"","44.051777800000004","-122.8976389",NA,".1","seconds","Global positioning system (GPS), uncorrected","NAD83","527.0","feet","1.0","feet","Altimeter","NAVD88","US",41,"39",NA,NA,NA,NA,NA,NA,NA,NA,NA,NA,NA,NA,NA,NA,NA,"44.0517778","-122.8976389"
"USGS-440314122541500","440314122541500","USGS-OR","USGS Oregon Water Science Center","69th STORMWATER CHANNEL AT THURSTON RD,SPRGFLD, OR","Stream","EWEB Storm event monitor proj-C.Anderson Sept.2002",NA,NA,"",NA,"","44.053972199999997","-122.90422220000001",NA,".1","seconds","Global positioning system (GPS), uncorrected","NAD83","529.0","feet","1.0","feet","Altimeter","NAVD88","US",41,"39",NA,NA,NA,NA,NA,NA,NA,NA,NA,NA,NA,NA,NA,NA,NA,"44.0539722","-122.9042222"
"USGS-440314123091300","440314123091300","USGS-OR","USGS Oregon Water Science Center","GRIMES POND (NWR EUGN SITE)","Lake, Reservoir, Impoundment","NWR qw EUGN site   C. Anderson June 2004",NA,NA,"",NA,"","44.053883300000003","-123.1537139",NA,".1","seconds","Global positioning system (GPS), uncorrected","NAD83","122.0","feet","10.0","feet","Interpolated from topographic map","NGVD29","US",41,"39",NA,NA,NA,NA,NA,NA,NA,NA,NA,NA,NA,NA,NA,NA,NA,"44.0538833","-123.1537139"
"USGS-440317122574900","440317122574900","USGS-OR","USGS Oregon Water Science Center","42nd STORMWATER CULVERT AT WEYCO, SPRINGFIELD, OR","Stream","EWEB storm event monitor proj-C.Anderson Sept.2002",NA,NA,"",NA,"","44.054611100000002","-122.9635833",NA,".1","seconds","Global positioning system (GPS), uncorrected","NAD83","486.0","feet","1.0","feet","Altimeter","NAVD88","US",41,"39",NA,NA,NA,NA,NA,NA,NA,NA,NA,NA,NA,NA,NA,NA,NA,"44.0546111","-122.9635833"
"USGS-440320122545300","440320122545300","USGS-OR","USGS Oregon Water Science Center","64th STORMWATER PIPE AT TMS, SPRINGFIELD, OR","Stream","EWEB Storm event monitor proj-C.Anderson Sept.2002",NA,NA,"",NA,"","44.055638899999998","-122.9146667",NA,".1","seconds","Global positioning system (GPS), uncorrected","NAD83","519.0","feet","1.0","feet","Altimeter","NAVD88","US",41,"39",NA,NA,NA,NA,NA,NA,NA,NA,NA,NA,NA,NA,NA,NA,NA,"44.0556389","-122.9146667"
"USGS-440322122494600","440322122494600","USGS-OR","USGS Oregon Water Science Center","MCKENZIE R AT HENDRICKS PARK BOAT RAMP, SPGFLD, OR","Stream","EWEB Storm event monitor proj-C.Anderson Sept.2002",NA,NA,"",NA,"","44.056027800000003","-122.8293056",NA,".1","seconds","Global positioning system (GPS), uncorrected","NAD83","566.0","feet","1.0","feet","Altimeter","NAVD88","US",41,"39",NA,NA,NA,NA,NA,NA,NA,NA,NA,NA,NA,NA,NA,NA,NA,"44.0560278","-122.8293056"
"USGS-440325122563600","440325122563600","USGS-OR","USGS Oregon Water Science Center","52nd STORMWATER CHANEL AT HWY 126 SPRINGFIELD, OR","Stream","EWEB Storm Event Monitor proj-C.Anderson Sept.2002",NA,NA,"",NA,"","44.056833300000001","-122.9433889",NA,".1","seconds","Global positioning system (GPS), uncorrected","NAD83","498.0","feet","1.0","feet","Altimeter","NAVD88","US",41,"39",NA,NA,NA,NA,NA,NA,NA,NA,NA,NA,NA,NA,NA,NA,NA,"44.0568333","-122.9433889"
"USGS-440339122580800","440339122580800","USGS-OR","USGS Oregon Water Science Center","KEIZER SLOUGH AT SUB BRIDGE, SPRINGFIELD, OR","Stream","EWEB Storm event monitor proj-C.Anderson Sept.2002",NA,NA,"",NA,"","44.060722200000001","-122.96899999999999",NA,".1","seconds","Global positioning system (GPS), uncorrected","NAD83","467.0","feet","1.0","feet","Altimeter","NAVD88","US",41,"39",NA,NA,NA,NA,NA,NA,NA,NA,NA,NA,NA,NA,NA,NA,NA,"44.0607222","-122.969"
"USGS-440405122495600","440405122495600","USGS-OR","USGS Oregon Water Science Center","UNNAME TRIB TO WALTERVILLE CANAL @ CAMP CRK RD, OR","Stream","Perennial crk off Walterville EWEB proj  Nov 2008",NA,NA,"",NA,NA,"44.068055600000001","-122.8322222",NA,".1","seconds","Global positioning system (GPS), uncorrected","NAD83",NA,"",NA,"","","","US",41,"39",NA,NA,NA,NA,NA,NA,NA,NA,NA,NA,NA,NA,NA,NA,NA,"44.0680556","-122.8322222"
"USGS-440418122574500","440418122574500","USGS-OR","USGS Oregon Water Science Center","MCKENZIE R.@ EUGENE PUMP; RM 14.9","Stream","",17090004,NA,"",NA,"","44.071514299999997","-122.9636939",NA,"Unknown","Unknown","Interpolated from map","NAD83",NA,"",NA,"","","","US",41,"39",NA,NA,NA,NA,NA,NA,NA,NA,NA,NA,NA,NA,NA,NA,NA,"44.0715143","-122.9636939"
"USGS-440516122424900","440516122424900",NA,NA,NA,NA,NA,NA,NA,NA,NA,NA,"44.0877778","-122.713611",NA,NA,NA,NA,"NAD83",NA,NA,NA,NA,NA,NA,NA,NA,NA,NA,NA,NA,NA,NA,NA,NA,NA,"HAAGEN CR @ DEERHORN ROAD BRIDGE, NR DEERHORN, OR","USGS","1227281440841","1227281440841","Haagen Creek",NA,NA,"44.0877778","-122.713611"
"USGS-440530122425500","440530122425500","USGS-OR","USGS Oregon Water Science Center","MCKENZIE R AT HOLDEN CK RD BRIDGE, NR LEABURG, OR","Stream","EWEB project  C.Anderson  Aug. 2005",NA,NA,"",NA,"","44.091666699999998","-122.7152778",NA,"1","seconds","Global positioning system (GPS), uncorrected","NAD83",NA,"",NA,"","","","US",41,"39",NA,NA,NA,NA,NA,NA,NA,NA,NA,NA,NA,NA,NA,NA,NA,"44.0916667","-122.7152778"
"USGS-440549122422200","440549122422200","USGS-OR","USGS Oregon Water Science Center","HOLDEN CREEK AT MCKENZIE HWY, NEAR LEABURG, OR","Stream","EWEB PROJECT short site id E950  C.Anderson 9/2005",NA,NA,"",NA,NA,"44.0968722","-122.70624170000001",NA,".1","seconds","Global positioning system (GPS), uncorrected","NAD83",NA,"",NA,"","","","US",41,"39",NA,NA,NA,NA,NA,NA,NA,NA,NA,NA,NA,NA,NA,NA,NA,"44.0968722","-122.7062417"
"USGS-440635122272100","440635122272100",NA,NA,NA,NA,NA,NA,NA,NA,NA,NA,"44.1097222","-122.4558333",NA,NA,NA,NA,"NAD83",NA,NA,NA,NA,NA,NA,NA,NA,NA,NA,NA,NA,NA,NA,NA,NA,NA,"DEER CREEK @ GOODPASTURE RD BRIDGE, NR LEABURG, OR","USGS","1224585441108","1224585441108","Deer Creek",NA,NA,"44.1097222","-122.4558333"
"USGS-440636120473100","440636120473100","USGS-OR","USGS Oregon Water Science Center","CROOKED RIVER BELOW BOWMAN DAM, OR","Stream","Curt Hughes Crooked River project  Nov. 1, 2004",NA,NA,"",NA,NA,"44.109848200000002","-120.7930697",NA,"1","seconds","Global positioning system (GPS), uncorrected","NAD83",NA,"",NA,"","","","US",41,"13",NA,NA,NA,NA,NA,NA,NA,NA,NA,NA,NA,NA,NA,NA,NA,"44.1098482","-120.7930697"
"USGS-440724122224300","440724122224300",NA,NA,NA,NA,NA,NA,NA,NA,NA,NA,"44.1233333","-122.378611",NA,NA,NA,NA,"NAD83",NA,NA,NA,NA,NA,NA,NA,NA,NA,NA,NA,NA,NA,NA,NA,NA,NA,"QUARTZ CREEK AT MOUTH, NEAR FINN ROCK, OR","USGS","1223823441236","1223823441236","Quartz Creek",NA,NA,"44.1233333","-122.378611"
"USGS-440731122314800","440731122314800",NA,NA,NA,NA,NA,NA,NA,NA,NA,NA,"44.1252778","-122.53",NA,NA,NA,NA,"NAD83",NA,NA,NA,NA,NA,NA,NA,NA,NA,NA,NA,NA,NA,NA,NA,NA,NA,"GALE CREEK @ GOODPASTURE RD BRIDGE, NR LEABURG, OR","USGS","1225289441222","1225289441222","Gale Creek",NA,NA,"44.1252778","-122.53"
"USGS-440944122091401","440944122091401","USGS-OR","USGS Oregon Water Science Center","HORSE CREEK BLW FOLEY SPRINGS @ MCKENZIE BRIDGE OR","Stream","Denny Wentz August 2002 project sites",NA,"150.0","sq mi",NA,NA,"44.162067899999997","-122.1550567",NA,"1","seconds","Interpolated from map","NAD83","1420.0","feet","10.0","feet","Interpolated from topographic map","NGVD29","US",41,"39",NA,NA,NA,NA,NA,NA,NA,NA,NA,NA,NA,NA,NA,NA,NA,"44.1620679","-122.1550567"
"USGS-441120122195001","441120122195001","USGS-OR","USGS Oregon Water Science Center","QUARTZ CREEK NEAR BLUE RIVER, OR","Stream","Denny Wentz August 2002 Project sites",NA,"3.5","sq mi",NA,NA,"44.188737500000002","-122.3317332",NA,"1","seconds","Interpolated from map","NAD83","1470.0","feet","10.0","feet","Interpolated from topographic map","NGVD29","US",41,"39",NA,NA,NA,NA,NA,NA,NA,NA,NA,NA,NA,NA,NA,NA,NA,"44.1887375","-122.3317332"
"USGS-441916121151300","441916121151300","USGS-OR","USGS Oregon Water Science Center","DESCHUTES RIVER ABOVE ODIN FALLS, OR","Stream","BLM WQ PROJECT    C.HUGHES   11/15/2005",NA,NA,"",NA,"","44.320952499999997","-121.2547591",24000,"1","seconds","Global positioning system (GPS), uncorrected","NAD83","2672.0","feet","20.0","feet","Altimeter","NGVD29","US",41,"17",NA,NA,NA,NA,NA,NA,NA,NA,NA,NA,NA,NA,NA,NA,NA,"44.3209525","-121.2547591"
"USGS-441924121153000","441924121153000","USGS-OR","USGS Oregon Water Science Center","DESCHUTES RIVER BELOW ODIN FALLS, OR","Stream","BLM WQ Study Mid Deschutes River C.Hughes 4/26/06",NA,NA,"",NA,NA,"44.323305599999998","-121.2584167",24000,".1","seconds","Global positioning system (GPS), uncorrected","NAD83","2673.0","feet","20.0","feet","Interpolated from topographic map","NGVD29","US",41,"17",NA,NA,NA,NA,NA,NA,NA,NA,NA,NA,NA,NA,NA,NA,NA,"44.3233056","-121.2584167"
"USGS-442348121133300","442348121133300","USGS-OR","USGS Oregon Water Science Center","CROOKED RIVER AT GRASSLAND TRAIL, OR","Stream","Curt Hughes Crooked River project  Nov. 1, 2004",NA,NA,"",NA,NA,"44.3965362","-121.22706599999999",NA,".1","seconds","Global positioning system (GPS), uncorrected","NAD83",NA,"",NA,"","","","US",41,"31",NA,NA,NA,NA,NA,NA,NA,NA,NA,NA,NA,NA,NA,NA,NA,"44.3965362","-121.227066"
"USGS-442351123181700","442351123181700","USGS-OR","USGS Oregon Water Science Center","CHEADLE POND, FINLEY NWR, OR","Lake, Reservoir, Impoundment","Finley NWR sites   C.Anderson   May 2004",17090003,NA,"",NA,"","44.397444399999998","-123.30475",16400,".1","seconds","Global positioning system (GPS), uncorrected","NAD83","122.0","feet","10.0","feet","Global Positioning System","NGVD29","US",41,"3",NA,NA,NA,NA,NA,NA,NA,NA,NA,NA,NA,NA,NA,NA,NA,"44.3974444","-123.30475"
"USGS-442406123192700","442406123192700","USGS-OR","USGS Oregon Water Science Center","CATTAIL POND  (NWR FNLY site)","Lake, Reservoir, Impoundment","NWR QW  FNLY site   C.Anderson June 2004",NA,NA,"",NA,"","44.4016667","-123.32416670000001",NA,"1","seconds","Global positioning system (GPS), uncorrected","NAD83","120.0","feet","10.0","feet","Interpolated from topographic map","NGVD29","US",41,"003",NA,NA,NA,NA,NA,NA,NA,NA,NA,NA,NA,NA,NA,NA,NA,"44.4016667","-123.3241667"
"USGS-442427123185900","442427123185900","USGS-OR","USGS Oregon Water Science Center","FINGER POND, FINLEY NWR, OR","Lake, Reservoir, Impoundment","Finley NWR Sites   C. Anderson  May 2004",17090003,NA,"",NA,"","44.407361100000003","-123.31627779999999",16400,".1","seconds","Global positioning system (GPS), uncorrected","NAD83","112.0","feet","10.0","feet","Global Positioning System","NGVD29","US",41,"3",NA,NA,NA,NA,NA,NA,NA,NA,NA,NA,NA,NA,NA,NA,NA,"44.4073611","-123.3162778"
"USGS-442447123194200","442447123194200","USGS-OR","USGS Oregon Water Science Center","LOWER 22 POND, FINLEY NWR, OR","Lake, Reservoir, Impoundment","Finley NWR Sites  C.Anderson   May 2004",17090003,NA,"",NA,"","44.412858300000003","-123.3284",16400,".1","seconds","Global positioning system (GPS), uncorrected","NAD83","119.0","feet","10.0","feet","Global Positioning System","NGVD29","US",41,"003",NA,NA,NA,NA,NA,NA,NA,NA,NA,NA,NA,NA,NA,NA,NA,"44.4128583","-123.3284"
"USGS-442455123201800","442455123201800","USGS-OR","USGS Oregon Water Science Center","UPPER WOODPECKER POND      OR","Lake, Reservoir, Impoundment","Chauncey Anderson NWR Finley sites  11/26/2007",NA,NA,"",NA,"","44.415121900000003","-123.339544",NA,"1","seconds","Global positioning system (GPS), uncorrected","NAD83","380.0","feet","20.0","feet","Interpolated from topographic map","NGVD29","US",41,"003",NA,NA,NA,NA,NA,NA,NA,NA,NA,NA,NA,NA,NA,NA,NA,"44.4151219","-123.339544"
"USGS-442503123194000","442503123194000","USGS-OR","USGS Oregon Water Science Center","UPPER 22 POND, FINLEY NWR, OR","Lake, Reservoir, Impoundment","Finley NWR Sites    C.Anderson   May 2004",NA,NA,"",NA,"","44.417361100000001","-123.3277222",NA,".1","seconds","Global positioning system (GPS), uncorrected","NAD83","120.0","feet","10.0","feet","Global Positioning System","NGVD29","US",41,"3",NA,NA,NA,NA,NA,NA,NA,NA,NA,NA,NA,NA,NA,NA,NA,"44.4173611","-123.3277222"
"USGS-442508121173200","442508121173200","USGS-OR","USGS Oregon Water Science Center","DESCHUTES RIVER BELOW STEELHEAD FALLS, OR","Stream","BLM WQ PROJECT     C.HUGHES   11/15/2005",NA,NA,"",NA,NA,"44.4187297","-121.29337460000001",24000,"1","seconds","Global positioning system (GPS), uncorrected","NAD83","2277.0","feet","20.0","feet","Altimeter","NGVD29","US",41,"31",NA,NA,NA,NA,NA,NA,NA,NA,NA,NA,NA,NA,NA,NA,NA,"44.4187297","-121.2933746"
"USGS-442519123192100","442519123192100","USGS-OR","USGS Oregon Water Science Center","UNIT 16 POND, FINLEY NWR, OR","Lake, Reservoir, Impoundment","Finley NWR Sites   C. Anderson May 2004",17090003,NA,"",NA,"","44.421944400000001","-123.32241670000001",16300,".1","seconds","Global positioning system (GPS), uncorrected","NAD83","114.0","feet","10.0","feet","Global Positioning System","NGVD29","US",41,"3",NA,NA,NA,NA,NA,NA,NA,NA,NA,NA,NA,NA,NA,NA,NA,"44.4219444","-123.3224167"
"USGS-442529123121900","442529123121900","USGS-OR","USGS Oregon Water Science Center","IMMIGRATION POND (NWR SNAG site)","Lake, Reservoir, Impoundment","NWR qw SNAG sites  C.Anderson   June 2004",NA,NA,"",NA,"","44.424677799999998","-123.20515829999999",NA,".1","seconds","Global positioning system (GPS), uncorrected","NAD83","79.0","feet","10.0","feet","Interpolated from topographic map","NGVD29","US",41,"43",NA,NA,NA,NA,NA,NA,NA,NA,NA,NA,NA,NA,NA,NA,NA,"44.4246778","-123.2051583"
"USGS-442534123122500","442534123122500","USGS-OR","USGS Oregon Water Science Center","LOWER BEAVER  (NWR QW SNAG site)","Lake, Reservoir, Impoundment","NWR QW SNAG site   C.Anderson  June 2004",NA,NA,"",NA,"","44.426227799999999","-123.20702780000001",NA,".1","seconds","Global positioning system (GPS), uncorrected","NAD83","43.0","feet","10.0","feet","Interpolated from topographic map","NGVD29","US",41,"43",NA,NA,NA,NA,NA,NA,NA,NA,NA,NA,NA,NA,NA,NA,NA,"44.4262278","-123.2070278"
"USGS-442545123132500","442545123132500","USGS-OR","USGS Oregon Water Science Center","UPPER BLUE HERON SLOUGH (NWR SNAG site)","Lake, Reservoir, Impoundment","NWR QW SNAG site  C.Anderson   June 2004",NA,NA,"",NA,"","44.429200000000002","-123.2235694",NA,".1","seconds","Global positioning system (GPS), uncorrected","NAD83","43.0","feet","10.0","feet","Interpolated from topographic map","NGVD29","US",41,"43",NA,NA,NA,NA,NA,NA,NA,NA,NA,NA,NA,NA,NA,NA,NA,"44.4292","-123.2235694"
"USGS-442848121180100","442848121180100","USGS-OR","USGS Oregon Water Science Center","CROOKED RIVER AT WHINER ROCK, ABV OPAL SPRINGS, OR","Stream","Curt Hughes project May 2005",NA,NA,"",NA,NA,"44.479812899999999","-121.3013212",24000,".1","seconds","Global positioning system (GPS), uncorrected","NAD83","2100.0","feet","20.0","feet","Altimeter","NGVD29","US",41,"31",NA,NA,NA,NA,NA,NA,NA,NA,NA,NA,NA,NA,NA,NA,NA,"44.4798129","-121.3013212"
"USGS-443003122000801","443003122000801","USGS-OR","USGS Oregon Water Science Center","NORTH SANTIAM RIVER NEAR MARION FORKS, OR","Stream","STRATA HC/f",17090005,"21.199999999999999","sq mi",NA,NA,"44.500676900000002","-122.0034014",24000,"1","seconds","Interpolated from map","NAD83",NA,"",NA,"","","","US",41,"43",NA,NA,NA,NA,NA,NA,NA,NA,"NORTH SANTIAM RIVER NEAR MARION FORKS, OR","USGS","1230064446868","1230064446868","North Santiam River",NA,NA,"44.5006769","-122.0034014"
"USGS-4432261175510","4432261175510","USGS-OR","USGS Oregon Water Science Center","PINE CREEK POND A","Lake, Reservoir, Impoundment","USGS-BRD ARMI Grazing effects study - C.Anderson",17050202,NA,"",NA,NA,"44.540437599999997","-117.9204909",NA,"1","seconds","Global positioning system (GPS), uncorrected","NAD83","4440.0","feet","10.0","feet","Interpolated from topographic map","NGVD29","US",41,"1",NA,NA,NA,NA,NA,NA,NA,NA,NA,NA,NA,NA,NA,NA,NA,"44.5404376","-117.9204909"
"USGS-4433091175540","4433091175540","USGS-OR","USGS Oregon Water Science Center","PINE CREEK POND F","Lake, Reservoir, Impoundment","USGS-BRD-ARMI Grazing effects study  C. Anderson",17050202,NA,"",NA,"","44.552381699999998","-117.92882470000001",NA,"1","seconds","Global positioning system (GPS), uncorrected","NAD83","4880.0","feet","10.0","feet","Interpolated from topographic map","NGVD29","US",41,"1",NA,NA,NA,NA,NA,NA,NA,NA,NA,NA,NA,NA,NA,NA,NA,"44.5523817","-117.9288247"
"USGS-4433121175539","4433121175539","USGS-OR","USGS Oregon Water Science Center","PINE CREEK POND G","Lake, Reservoir, Impoundment","USGS-BRD-ARMI Grazing effects study  C.Anderson",17050202,NA,"",NA,NA,"44.553215000000002","-117.9285469",NA,"1","seconds","Global positioning system (GPS), uncorrected","NAD83","5180.0","feet","10.0","feet","Interpolated from topographic map","NGVD29","US",41,"1",NA,NA,NA,NA,NA,NA,NA,NA,NA,NA,NA,NA,NA,NA,NA,"44.553215","-117.9285469"
"USGS-4433261175548","4433261175548","USGS-OR","USGS Oregon Water Science Center","PINE CREEK POND J","Lake, Reservoir, Impoundment","USGS-BRD-ARMI Grazing effects study  C.Anderson",17050202,NA,"",NA,"","44.5571038","-117.93104700000001",NA,"1","seconds","Global positioning system (GPS), uncorrected","NAD83","5050.0","feet","10.0","feet","Interpolated from topographic map","NGVD29","US",41,"1",NA,NA,NA,NA,NA,NA,NA,NA,NA,NA,NA,NA,NA,NA,NA,"44.5571038","-117.931047"
"USGS-443326123165200","443326123165200","USGS-OR","USGS Oregon Water Science Center","OAK CREEK AT CORVALLIS, OR","Stream","URBAN GRADIENT LAND USE STUDY  M.Sarantou  3/04",17090003,"12.6","sq mi",NA,"","44.557065799999997","-123.28232180000001",NA,"1","seconds","Global positioning system (GPS), uncorrected","NAD83","220.0","feet","20.0","feet","Interpolated from topographic map","NGVD29","US",41,"003",NA,NA,NA,NA,NA,NA,NA,NA,"OAK CREEK AT CORVALLIS, OR","USGS","1232780445550","1232780445550","Oak Creek",NA,NA,"44.5570658","-123.2823218"
"USGS-4433281175549","4433281175549","USGS-OR","USGS Oregon Water Science Center","PINE CREEK POND I","Lake, Reservoir, Impoundment","USGS-BRD-ARMI Grazing effects study  C.Anderson",17050202,NA,"",NA,NA,"44.557659299999997","-117.9313248",NA,"1","seconds","Global positioning system (GPS), uncorrected","NAD83","5280.0","feet","10.0","feet","Interpolated from topographic map","NGVD29","US",41,"1",NA,NA,NA,NA,NA,NA,NA,NA,NA,NA,NA,NA,NA,NA,NA,"44.5576593","-117.9313248"
"USGS-4433311175509","4433311175509","USGS-OR","USGS Oregon Water Science Center","PINE CREEK POND D","Lake, Reservoir, Impoundment","USGS-BRD-ARMI Grazing effects study C. Anderson",17050202,NA,"",NA,NA,"44.558492600000001","-117.92021370000001",NA,"1","seconds","Global positioning system (GPS), uncorrected","NAD83","4490.0","feet","10.0","feet","Interpolated from topographic map","NGVD29","US",41,"1",NA,NA,NA,NA,NA,NA,NA,NA,NA,NA,NA,NA,NA,NA,NA,"44.5584926","-117.9202137"
"USGS-4433331175508","4433331175508","USGS-OR","USGS Oregon Water Science Center","PINE CREEK POND E","Lake, Reservoir, Impoundment","USGS-BRD-ARMI Grazing effects study  C.Anderson",17050202,NA,"",NA,NA,"44.559048099999998","-117.9199359",NA,"1","seconds","Global positioning system (GPS), uncorrected","NAD83","4500.0","feet","10.0","feet","Interpolated from topographic map","NGVD29","US",41,"1",NA,NA,NA,NA,NA,NA,NA,NA,NA,NA,NA,NA,NA,NA,NA,"44.5590481","-117.9199359"
"USGS-443516122204701","443516122204701","USGS-OR","USGS Oregon Water Science Center","CANAL CREEK NEAR CASCADIA, OR","Stream","Denny Wentz August 2002 project site",NA,"23.600000000000001","sq mi",NA,NA,"44.587623299999997","-122.34757980000001",NA,"1","seconds","Interpolated from map","NAD83","1525.0","feet","10.0","feet","Interpolated from topographic map","NGVD29","US",41,"43",NA,NA,NA,NA,NA,NA,NA,NA,NA,NA,NA,NA,NA,NA,NA,"44.5876233","-122.3475798"
"USGS-443700117572600","443700117572600","USGS-OR","USGS Oregon Water Science Center","BLACK MOUNTAIN MIDDLE POND, OR","Lake, Reservoir, Impoundment","USGS-BRD-ARMI Project  C.Anderson Dec. 2002",17050203,NA,"",NA,NA,"44.616546399999997","-117.958271",NA,"1","seconds","Global positioning system (GPS), uncorrected","NAD83","5240.0","feet","10.0","feet","Interpolated from topographic map","NGVD29","US",41,"1",NA,NA,NA,NA,NA,NA,NA,NA,NA,NA,NA,NA,NA,NA,NA,"44.6165464","-117.958271"
"USGS-4437151175721","4437151175721","USGS-OR","USGS Oregon Water Science Center","LOWER BLACK MOUNTAIN POND, OR","Lake, Reservoir, Impoundment","USGS-BRD-ARMI Grazing effects study   C.Anderson",17050203,NA,"",NA,NA,"44.620712900000001","-117.9568823",NA,"1","seconds","Global positioning system (GPS), uncorrected","NAD83","5100.0","feet","10.0","feet","Interpolated from topographic map","NGVD29","US",41,"1",NA,NA,NA,NA,NA,NA,NA,NA,NA,NA,NA,NA,NA,NA,NA,"44.6207129","-117.9568823"
"USGS-4437301175712","4437301175712","USGS-OR","USGS Oregon Water Science Center","BLACK MOUNTAIN LITTLE POND","Lake, Reservoir, Impoundment","USGS-BRD-ARMI Grazing effects study  C.Anderson",17050203,NA,"",NA,NA,"44.624879499999999","-117.9543824",NA,"1","seconds","Global positioning system (GPS), uncorrected","NAD83","4900.0","feet","10.0","feet","Interpolated from topographic map","NGVD29","US",41,"1",NA,NA,NA,NA,NA,NA,NA,NA,NA,NA,NA,NA,NA,NA,NA,"44.6248795","-117.9543824"
"USGS-4440091182112","4440091182112","USGS-OR","USGS Oregon Water Science Center","BURNT RIVER E","Stream","USGS-BRD-ARMI Grazing effects study C.Anderson2002",17050202,NA,"",NA,"","44.669042699999999","-118.35438670000001",NA,"1","seconds","Global positioning system (GPS), uncorrected","NAD83","4250.0","feet","10.0","feet","Interpolated from topographic map","NGVD29","US",41,"1",NA,NA,NA,NA,NA,NA,NA,NA,NA,NA,NA,NA,NA,NA,NA,"44.6690427","-118.3543867"
"USGS-4440091182115","4440091182115","USGS-OR","USGS Oregon Water Science Center","BURNT RIVER NW","Stream","USGS-BRD-ARMI Grazing effects study C.Anderson2002",17050202,NA,"",NA,NA,"44.669042699999999","-118.35522",NA,"1","seconds","Global positioning system (GPS), uncorrected","NAD83","4250.0","feet","10.0","feet","Interpolated from topographic map","NGVD29","US",41,"1",NA,NA,NA,NA,NA,NA,NA,NA,NA,NA,NA,NA,NA,NA,NA,"44.6690427","-118.35522"
"USGS-444057118275000","444057118275000","USGS-OR","USGS Oregon Water Science Center","LOWER SNOW CREEK, OR","Stream","USGS-BRD-ARMI project  C. Anderson Dec. 2002",17050202,NA,"",NA,"","44.682375299999997","-118.4649454",NA,"1","seconds","Global positioning system (GPS), uncorrected","NAD83","5000.0","feet","10.0","feet","Interpolated from topographic map","NGVD29","US",41,"1",NA,NA,NA,NA,NA,NA,NA,NA,NA,NA,NA,NA,NA,NA,NA,"44.6823753","-118.4649454"
"USGS-4441061182518","4441061182518","USGS-OR","USGS Oregon Water Science Center","PARKERVILLE","Stream","USGS-BRD-ARMI Grazing effects study  C.Anderson",17050202,NA,"",NA,NA,"44.684875300000002","-118.42272199999999",NA,"1","seconds","Global positioning system (GPS), uncorrected","NAD83","4840.0","feet","10.0","feet","Interpolated from topographic map","NGVD29","US",41,"1",NA,NA,NA,NA,NA,NA,NA,NA,NA,NA,NA,NA,NA,NA,NA,"44.6848753","-118.422722"
"USGS-4441091182804","4441091182804","USGS-OR","USGS Oregon Water Science Center","GREENHORN","Stream","USGS-BRD-ARMI Grazing effects study  C.Anderson",17050202,NA,"",NA,"","44.685708499999997","-118.46883440000001",NA,"1","seconds","Global positioning system (GPS), uncorrected","NAD83","5200.0","feet","10.0","feet","Interpolated from topographic map","NGVD29","US",41,"1",NA,NA,NA,NA,NA,NA,NA,NA,NA,NA,NA,NA,NA,NA,NA,"44.6857085","-118.4688344"
"USGS-4441121182826","4441121182826","USGS-OR","USGS Oregon Water Science Center","SLAB CREEK POND","Lake, Reservoir, Impoundment","USGS-BRD-ARMI Grazing effects study C.Anderson2002",17050202,NA,"",NA,"","44.686541800000001","-118.47494570000001",NA,"1","seconds","Global positioning system (GPS), uncorrected","NAD83","5180.0","feet","10.0","feet","Interpolated from topographic map","NGVD29","US",41,"1",NA,NA,NA,NA,NA,NA,NA,NA,NA,NA,NA,NA,NA,NA,NA,"44.6865418","-118.4749457"
"USGS-4441301181909","4441301181909","USGS-OR","USGS Oregon Water Science Center","LOWER CAMP  CREEK","Stream","USGS-BRD-ARMI Grazing effects study  C.Anderson",17050202,NA,"",NA,NA,"44.691541899999997","-118.3202196",NA,"1","seconds","Global positioning system (GPS), uncorrected","NAD83","4300.0","feet","10.0","feet","Interpolated from topographic map","NGVD29","US",41,"1",NA,NA,NA,NA,NA,NA,NA,NA,NA,NA,NA,NA,NA,NA,NA,"44.6915419","-118.3202196"
"USGS-444137118232500","444137118232500","USGS-OR","USGS Oregon Water Science Center","WINTERVILLE POND","Lake, Reservoir, Impoundment","ARMI Water collection sites-C.Anderson Aug.2003",NA,NA,"",NA,"","44.693486100000001","-118.3913326",NA,"1","seconds","Global positioning system (GPS), uncorrected","NAD83","4827.8999999999996","feet","10.0","feet","Global Positioning System","NGVD29","US",41,"1",NA,NA,NA,NA,NA,NA,NA,NA,NA,NA,NA,NA,NA,NA,NA,"44.6934861","-118.3913326"
"USGS-444139122124700","444139122124700","USGS-OR","USGS Oregon Water Science Center","DETROIT LAKE BELOW BLOWOUT CREEK","Lake, Reservoir, Impoundment","QW sediment study - profiling",NA,NA,"",NA,"","44.6940113","-122.21424349999999",NA,"1","seconds","Global positioning system (GPS), uncorrected","NAD83",NA,"",NA,"","","","US",41,"047",NA,NA,NA,NA,NA,NA,NA,NA,NA,NA,NA,NA,NA,NA,NA,"44.6940113","-122.2142435"
"USGS-444207122120900","444207122120900","USGS-OR","USGS Oregon Water Science Center","DETROIT LAKE NEAR DETROIT LAKE DAM, OR","Lake, Reservoir, Impoundment","USGS & City of Salem N.Santiam turbid project 8/03",17090005,NA,"",NA,NA,"44.701944400000002","-122.2025",24000,"1","seconds","Global positioning system (GPS), uncorrected","NAD83","1550.0","feet","17.0","feet","Global Positioning System","NGVD29","US",41,"47",NA,NA,NA,NA,NA,NA,NA,NA,NA,NA,NA,NA,NA,NA,NA,"44.7019444","-122.2025"
"USGS-444230122141700","444230122141700","USGS-OR","USGS Oregon Water Science Center","DETROIT LAKE BELOW KINNEY CREEK","Lake, Reservoir, Impoundment","QW sediment study - profiling",NA,NA,"",NA,"","44.708177900000003","-122.239244",NA,"1","seconds","Global positioning system (GPS), uncorrected","NAD83",NA,"",NA,"","","","US",41,"047",NA,NA,NA,NA,NA,NA,NA,NA,NA,NA,NA,NA,NA,NA,NA,"44.7081779","-122.239244"
"USGS-4442311181909","4442311181909","USGS-OR","USGS Oregon Water Science Center","UPPER CAMP CREEK","Stream","USGS-BRD-ARMI Grazing effects study  C.Anderson",17050202,NA,"",NA,"","44.708485699999997","-118.3202199",NA,"1","seconds","Global positioning system (GPS), uncorrected","NAD83","4310.0","feet","10.0","feet","Interpolated from topographic map","NGVD29","US",41,"1",NA,NA,NA,NA,NA,NA,NA,NA,NA,NA,NA,NA,NA,NA,NA,"44.7084857","-118.3202199"
"USGS-444236122110300","444236122110300","USGS-OR","USGS Oregon Water Science Center","DETROIT LAKE AT MONGOLD STATE PARK","Lake, Reservoir, Impoundment","QW sediment study - profiling",NA,NA,"",NA,"","44.709844400000001","-122.1853541",NA,"1","seconds","Global positioning system (GPS), uncorrected","NAD83",NA,"",NA,"","","","US",41,"047",NA,NA,NA,NA,NA,NA,NA,NA,NA,NA,NA,NA,NA,NA,NA,"44.7098444","-122.1853541"
"USGS-444250122112600","444250122112600","USGS-OR","USGS Oregon Water Science Center","Swimming area at Mongold State Park, OR","Lake, Reservoir, Impoundment","Detroit Lake Swim Area QW study - Amy Brooks",NA,NA,"",NA,"","44.713733300000001","-122.1917432",NA,"1","seconds","Global positioning system (GPS), uncorrected","NAD83",NA,"",NA,"","","","US",41,"47",NA,NA,NA,NA,NA,NA,NA,NA,NA,NA,NA,NA,NA,NA,NA,"44.7137333","-122.1917432"
"USGS-4443181182752","4443181182752","USGS-OR","USGS Oregon Water Science Center","LITTLE SKINNY DIP","Stream","USGS-BRD-ARMI Grazing effects study  C.Anderson",17050202,NA,"",NA,"","44.721540500000003","-118.4655018",NA,"1","seconds","Global positioning system (GPS), uncorrected","NAD83","5800.0","feet","10.0","feet","Interpolated from topographic map","NGVD29","US",41,"23",NA,NA,NA,NA,NA,NA,NA,NA,NA,NA,NA,NA,NA,NA,NA,"44.7215405","-118.4655018"
"USGS-4443281175624","4443281175624","USGS-OR","USGS Oregon Water Science Center","ELK CREEK POND","Lake, Reservoir, Impoundment","USGS-BRD-ARMI Grazing effects study C.Anderson",17050203,NA,"",NA,NA,"44.7243207","-117.94105159999999",NA,"1","seconds","Global positioning system (GPS), uncorrected","NAD83","4440.0","feet","10.0","feet","Interpolated from topographic map","NGVD29","US",41,"1",NA,NA,NA,NA,NA,NA,NA,NA,NA,NA,NA,NA,NA,NA,NA,"44.7243207","-117.9410516"
"USGS-444410122093000","444410122093000","USGS-OR","USGS Oregon Water Science Center","DETROIT LAKE AT KANES MARINA, OR","Lake, Reservoir, Impoundment","USGS & City of Salem N.Santiam turbid project 8/03",17090005,NA,"",NA,NA,"44.736111100000002","-122.1583333",24000,"1","seconds","Global positioning system (GPS), uncorrected","NAD83","1549.0","feet","22.0","feet","Global Positioning System","NGVD29","US",41,"47",NA,NA,NA,NA,NA,NA,NA,NA,NA,NA,NA,NA,NA,NA,NA,"44.7361111","-122.1583333"
"USGS-444605123043200","444605123043200","USGS-OR","USGS Oregon Water Science Center","KILLDEER POND, OR (NWR ANKY SITES)","Lake, Reservoir, Impoundment","NWR  ANKY QW SITES  C.Anderson May 2004",NA,NA,"",NA,"","44.767944399999998","-123.0755556",NA,".1","seconds","Global positioning system (GPS), uncorrected","NAD83","59.0","feet","10.0","feet","Interpolated from topographic map","NGVD29","US",41,"47",NA,NA,NA,NA,NA,NA,NA,NA,NA,NA,NA,NA,NA,NA,NA,"44.7679444","-123.0755556"
"USGS-444605123043201","444605123043201","USGS-OR","USGS Oregon Water Science Center","SOUTH POND , OR  (NWR  ANKY SITES)","Lake, Reservoir, Impoundment","NWR QW SITES ANKY refuge   May 2004, C.Anderson",NA,NA,"",NA,"","44.768138899999997","-123.0755278",NA,".1","seconds","Global positioning system (GPS), uncorrected","NAD83","59.0","feet","10.0","feet","Interpolated from topographic map","NGVD29","US",41,"47",NA,NA,NA,NA,NA,NA,NA,NA,NA,NA,NA,NA,NA,NA,NA,"44.7681389","-123.0755278"
"USGS-444624123032600","444624123032600","USGS-OR","USGS Oregon Water Science Center","DUGOUT PONDS, OR (NWR ANKY SITES)","Lake, Reservoir, Impoundment","NWRs qw ANKY sites   C.Anderson May 2004",NA,NA,"",NA,"","44.773249999999997","-123.0572222",NA,".1","seconds","Global positioning system (GPS), uncorrected","NAD83","61.0","feet","10.0","feet","Interpolated from topographic map","NGVD29","US",41,"47",NA,NA,NA,NA,NA,NA,NA,NA,NA,NA,NA,NA,NA,NA,NA,"44.77325","-123.0572222"
"USGS-444649121594701","444649121594701","USGS-OR","USGS Oregon Water Science Center","BREITENBUSH R BLW BREITENBUSH HOT SPGS NR DETROIT","Stream","Denny Wentz August 2002 project site",NA,"62.299999999999997","sq mi",NA,NA,"44.780121600000001","-121.9975747",NA,"1","seconds","Interpolated from map","NAD83","2100.0","feet","10.0","feet","Interpolated from topographic map","NGVD29","US",41,"47",NA,NA,NA,NA,NA,NA,NA,NA,NA,NA,NA,NA,NA,NA,NA,"44.7801216","-121.9975747"
"USGS-444728122450000","444728122450000","USGS-OR","USGS Oregon Water Science Center","NORTH SANTIAM RIVER AT GEREN ISLAND, NR STAYTON,OR","Stream","site at water treatment plant Amy Brooks,M.Uhrich",17090005,"688.0","sq mi",NA,"","44.790955599999997","-122.75119890000001",NA,"1","seconds","Global positioning system (GPS), uncorrected","NAD83",NA,"",NA,"","","","US",41,"047",NA,NA,NA,NA,NA,NA,NA,NA,NA,NA,NA,NA,NA,NA,NA,"44.7909556","-122.7511989"
"USGS-444732123051800","444732123051800","USGS-OR","USGS Oregon Water Science Center","MAHOFF OND, OR (NWR  ANKY SITES)","Lake, Reservoir, Impoundment","NWR  ANKY QW SITES C.Anderson  May 2004",NA,NA,"",NA,"","44.792222199999998","-123.0883333",NA,".1","seconds","Global positioning system (GPS), uncorrected","NAD83","59.0","feet","10.0","feet","Interpolated from topographic map","NGVD29","US",41,"47",NA,NA,NA,NA,NA,NA,NA,NA,NA,NA,NA,NA,NA,NA,NA,"44.7922222","-123.0883333"
"USGS-444759123050800","444759123050800","USGS-OR","USGS Oregon Water Science Center","WIGEON MARSH , OR   (NWR  ANKY SITES)","Lake, Reservoir, Impoundment","NWR  ANKY  QW SITES   C.Anderson  May 2004",NA,NA,"",NA,"","44.799722199999998","-123.08555560000001",NA,".1","seconds","Global positioning system (GPS), uncorrected","NAD83","59.0","feet","10.0","feet","Interpolated from topographic map","NGVD29","US",41,"47",NA,NA,NA,NA,NA,NA,NA,NA,NA,NA,NA,NA,NA,NA,NA,"44.7997222","-123.0855556"
"USGS-445029122592600","445029122592600","USGS-OR","USGS Oregon Water Science Center","BATTLE CREEK NEAR TURNER, OR","Stream","URBAN GRADIENT LAND USE STUDY  M.Sarantou  3/04",17090007,"11.6","sq mi",NA,"","44.841231999999998","-122.99176060000001",NA,"1","seconds","Global positioning system (GPS), uncorrected","NAD83","310.0","feet","20.0","feet","Interpolated from topographic map","NGVD29","US",41,"047",NA,NA,NA,NA,NA,NA,NA,NA,"BATTLE CREEK NEAR TURNER, OR","USGS","1229643448348","1229643448348","Battle Creek",NA,NA,"44.841232","-122.9917606"
"USGS-445551123015800","445551123015800","USGS-OR","USGS Oregon Water Science Center","PRINGLE CREEK AT SALEM, OR","Stream","NAWQA URBAN LAND-USE GRADIENT STUDY OCT.2003",17090007,"9.5999999999999996","sq mi",NA,"","44.930675399999998","-123.033985",NA,".5","seconds","Interpolated from map","NAD83","150.0","feet","20.0","feet","Interpolated from topographic map","NGVD29","US",41,"047",NA,NA,NA,NA,NA,NA,NA,NA,"PRINGLE CREEK AT SALEM, OR","USGS","1230450449387","1230450449387","Pringle Creek",NA,NA,"44.9306754","-123.033985"
"USGS-445719123152200","445719123152200","USGS-OR","USGS Oregon Water Science Center","DUSKY MARSH (NWR BSKT SITE)","Lake, Reservoir, Impoundment","NWRs qw BSKT site   C.Anderson June 2004",NA,NA,"",NA,"","44.955277799999998","-123.256111",NA,".1","seconds","Global positioning system (GPS), uncorrected","NAD83","61.0","feet","10.0","feet","Interpolated from topographic map","NGVD29","US",41,"53",NA,NA,NA,NA,NA,NA,NA,NA,NA,NA,NA,NA,NA,NA,NA,"44.9552778","-123.256111"
"USGS-445720123152000","445720123152000","USGS-OR","USGS Oregon Water Science Center","VANCOUVER MARSH (NWR BSKT SITE)","Lake, Reservoir, Impoundment","NWRs qw BSKT site  C.Anderson June 2004",NA,NA,"",NA,"","44.955555599999997","-123.25555559999999",NA,"1","seconds","Global positioning system (GPS), uncorrected","NAD83","61.0","feet","10.0","feet","Interpolated from topographic map","NGVD29","US",41,"53",NA,NA,NA,NA,NA,NA,NA,NA,NA,NA,NA,NA,NA,NA,NA,"44.9555556","-123.2555556"
"USGS-445830123150300","445830123150300","USGS-OR","USGS Oregon Water Science Center","SMITH POND (NWR BSKT SITE)","Lake, Reservoir, Impoundment","NWRs  qw BSKT site  C.Anderson  June 2004",NA,NA,"",NA,"","44.975000000000001","-123.2508333",NA,"1","seconds","Global positioning system (GPS), uncorrected","NAD83","85.0","feet","10.0","feet","Interpolated from topographic map","NGVD29","US",41,"53",NA,NA,NA,NA,NA,NA,NA,NA,NA,NA,NA,NA,NA,NA,NA,"44.975","-123.2508333"
"USGS-445915123153900","445915123153900","USGS-OR","USGS Oregon Water Science Center","ALEUTIAN MARSH  (NWR BSKT SITES)","Lake, Reservoir, Impoundment","NWRs qw BSKT sites    C.Anderson May 2004",NA,NA,"",NA,"","44.987416699999997","-123.2608333",NA,".1","seconds","Interpolated from map","NAD83","61.0","feet","10.0","feet","Interpolated from topographic map","NGVD29","US",41,"53",NA,NA,NA,NA,NA,NA,NA,NA,NA,NA,NA,NA,NA,NA,NA,"44.9874167","-123.2608333"
"USGS-450022123012400","450022123012400","USGS-OR","USGS Oregon Water Science Center","CLAGGETT CREEK AT KEIZER, OR","Stream","NAWQA URBAN LAND-USE GRADIENT STUDY OCT. 2003",17090007,"9.5999999999999996","sq mi",NA,"","45.005952600000001","-123.0245413",NA,".5","seconds","Interpolated from map","NAD83","120.0","feet","20.0","feet","Interpolated from topographic map","NGVD29","US",41,"047",NA,NA,NA,NA,NA,NA,NA,NA,"CLAGGETT CREEK AT KEIZER, OR","USGS","1230310450293","1230310450293","Claggett Creek",NA,NA,"45.0059526","-123.0245413"
"USGS-450156122033100","450156122033100","USGS-OR","USGS Oregon Water Science Center","UPPER CLACKAMAS RIVER AT TWO RIVERS C.G., OR","Stream","REQUESTED BY KURT CARPENTER",17090011,"157.0","sq mi",NA,NA,"45.032066499999999","-122.05980219999999",NA,"10","seconds","Interpolated from map","NAD83",NA,"",NA,"","","","US",41,"5",NA,NA,NA,NA,NA,NA,NA,NA,"UPPER CLACKAMAS RIVER AT TWO RIVERS C.G., OR","USGS","1226050453723","1226050453723","Clackamas River",NA,NA,"45.0320665","-122.0598022"
"USGS-450448122023000","450448122023000","USGS-OR","USGS Oregon Water Science Center","OAK GROVE FORK AT RAINBOW CAMPGROUND, OR","Stream","Denny Wentz August 2002 Projects sites",NA,"141.0","sq mi",NA,NA,"45.079843699999998","-122.04285779999999",NA,"1","seconds","Interpolated from map","NAD83","1410.0","feet","10.0","feet","Interpolated from topographic map","NGVD29","US",41,"5",NA,NA,NA,NA,NA,NA,NA,NA,NA,NA,NA,NA,NA,NA,NA,"45.0798437","-122.0428578"
"USGS-450453122291000","450453122291000","USGS-OR","USGS Oregon Water Science Center","MOLALLA RIVER AT GLEN AVON BRIDGE","Stream","KURT CARPENTER",17090009,NA,"",NA,"","45.081277800000002","-122.4861444",24000,".01","seconds","Interpolated from Digital Map","NAD83","540.0","feet","5.0","feet","Interpolated from topographic map","NGVD29","US",41,"005",NA,NA,NA,NA,NA,NA,NA,NA,NA,NA,NA,NA,NA,NA,NA,"45.0812778","-122.4861444"
"USGS-450653121481001","450653121481001","USGS-OR","USGS Oregon Water Science Center","TIMOTHY LAKE AT BOOM, OR (DEPTH 1)","Lake, Reservoir, Impoundment","REQUESTED BY KURT CARPENTER",17090011,NA,"",NA,"","45.1145633","-121.8039663",NA,"10","seconds","Interpolated from map","NAD83",NA,"",NA,"","","","US",41,"005",NA,NA,NA,NA,NA,NA,NA,NA,NA,NA,NA,NA,NA,NA,NA,"45.1145633","-121.8039663"
"USGS-450653121481002","450653121481002","USGS-OR","USGS Oregon Water Science Center","TIMOTHY LAKE AT BOOM, OR  (DEPTH 2)","Lake, Reservoir, Impoundment","REQUESTED BY KURT CARPENTER",17090011,NA,"",NA,"","45.1145633","-121.8039663",NA,"10","seconds","Interpolated from map","NAD83",NA,"",NA,"","","","US",41,"005",NA,NA,NA,NA,NA,NA,NA,NA,NA,NA,NA,NA,NA,NA,NA,"45.1145633","-121.8039663"
"USGS-450653121481003","450653121481003","USGS-OR","USGS Oregon Water Science Center","TIMOTHY LAKE AT BOOM, OR            (DUPLICATE3)","Lake, Reservoir, Impoundment","REQUESTED BY KURT CARPENTER",17090011,NA,"",NA,"","45.1145633","-121.8039663",NA,"10","seconds","Interpolated from map","NAD83",NA,"",NA,"","","","US",41,"005",NA,NA,NA,NA,NA,NA,NA,NA,NA,NA,NA,NA,NA,NA,NA,"45.1145633","-121.8039663"
"USGS-450653121481004","450653121481004","USGS-OR","USGS Oregon Water Science Center","TIMOTHY LAKE AT BOOM, OR            (DUPLICATE4)","Lake, Reservoir, Impoundment","REQUESTED KURT CARPENTER",17090011,NA,"",NA,"","45.1145633","-121.8039663",NA,"10","seconds","Interpolated from map","NAD83",NA,"",NA,"","","","US",41,"005",NA,NA,NA,NA,NA,NA,NA,NA,NA,NA,NA,NA,NA,NA,NA,"45.1145633","-121.8039663"
"USGS-450943122320400","450943122320400","USGS-OR","USGS Oregon Water Science Center","MOLALLA RIVER AT HWY 211","Stream","KURT CARPENTER",17090009,NA,"",NA,"","45.161861100000003","-122.5354444",NA,"1","seconds","Interpolated from map","NAD83","300.0","feet","10.0","feet","Interpolated from topographic map","NGVD29","US",41,"005",NA,NA,NA,NA,NA,NA,NA,NA,NA,NA,NA,NA,NA,NA,NA,"45.1618611","-122.5354444"
"USGS-450955122291200","450955122291200",NA,NA,NA,NA,NA,NA,NA,NA,NA,NA,"45.1655","-122.4868889",NA,NA,NA,NA,"NAD83",NA,NA,NA,NA,NA,NA,NA,NA,NA,NA,NA,NA,NA,NA,NA,NA,NA,"MILK CREEK AT CAMP ADAMS","USGS","1226638452398","1226638452398","Milk Creek",NA,NA,"45.1655","-122.4868889"
"USGS-451200122345800","451200122345800","USGS-OR","USGS Oregon Water Science Center","MOLALLA RIVER AT HWY 213","Stream","AMY BROOKS/KURT CARPENTER PROJECT STUDY",17090009,NA,"",NA,"","45.200055599999999","-122.5828333",NA,".5","seconds","Global positioning system (GPS), uncorrected","NAD83",NA,"",NA,"","","","US",41,"005",NA,NA,NA,NA,NA,NA,NA,NA,NA,NA,NA,NA,NA,NA,NA,"45.2000556","-122.5828333"
"USGS-451336122381100","451336122381100","USGS-OR","USGS Oregon Water Science Center","MOLALLA RIVER UPSTREAM FROM MILK CREEK","Stream","KURT CARPENTER",17090009,NA,"",NA,"","45.226505000000003","-122.6375848",NA,".1","seconds","Interpolated from map","NAD83","65.0","feet","5.0","feet","Interpolated from topographic map","NGVD29","US",41,"5",NA,NA,NA,NA,NA,NA,NA,NA,NA,NA,NA,NA,NA,NA,NA,"45.226505","-122.6375848"
"USGS-451343122215900","451343122215900","USGS-OR","USGS Oregon Water Science Center","CLEAR CREEK NEAR ESTACADA, OR","Stream","NAWQA URBAN LAND-USE GRADIENT STUDY  OCT. 2003",NA,NA,"",NA,"","45.228454999999997","-122.3675846",NA,".5","seconds","Interpolated from map","NAD83",NA,"",NA,"","","","US",41,"5",NA,NA,NA,NA,NA,NA,NA,NA,NA,NA,NA,NA,NA,NA,NA,"45.228455","-122.3675846"
"USGS-451438122164001","451438122164001","USGS-OR","USGS Oregon Water Science Center","NORTH FORK RES AT BOOM STATION 1 (DEPTH 1), OR","Stream","REQUESTED BY KURT CARPENTER",17090011,NA,"",NA,"","45.243731699999998","-122.278972",NA,"10","seconds","Interpolated from map","NAD83",NA,"",NA,"","","","US",41,"005",NA,NA,NA,NA,NA,NA,NA,NA,NA,NA,NA,NA,NA,NA,NA,"45.2437317","-122.278972"
"USGS-451438122164002","451438122164002","USGS-OR","USGS Oregon Water Science Center","NORTH FORK RES AT BOOM STATION 1 (DEPTH 2), OR","Stream","REQUESTED BY KURT CARPENTER",17090011,NA,"",NA,"","45.243731699999998","-122.278972",NA,"10","seconds","Interpolated from map","NAD83",NA,"",NA,"","","","US",41,"005",NA,NA,NA,NA,NA,NA,NA,NA,NA,NA,NA,NA,NA,NA,NA,"45.2437317","-122.278972"
"USGS-451438122164003","451438122164003","USGS-OR","USGS Oregon Water Science Center","NORTH FORK RES AT BOOM STATION 1 (DEPTH 3), OR","Stream","REQUESTED BY KURT CARPENTER",17090011,NA,"",NA,"","45.243731699999998","-122.278972",NA,"10","seconds","Interpolated from map","NAD83",NA,"",NA,"","","","US",41,"005",NA,NA,NA,NA,NA,NA,NA,NA,NA,NA,NA,NA,NA,NA,NA,"45.2437317","-122.278972"
"USGS-451438122164004","451438122164004","USGS-OR","USGS Oregon Water Science Center","NORTH FORK RES AT BOOM STATION 1 (DEPTH 4), OR","Stream","REQUESTED BY KURT CARPENTER",17090011,NA,"",NA,"","45.243731699999998","-122.278972",NA,"10","seconds","Interpolated from map","NAD83",NA,"",NA,"","","","US",41,"005",NA,NA,NA,NA,NA,NA,NA,NA,NA,NA,NA,NA,NA,NA,NA,"45.2437317","-122.278972"
"USGS-451603122423301","451603122423301","USGS-OR","USGS Oregon Water Science Center","MOLALLA R AT KNIGHTS BRIDGE NR CANBY, OR","Stream","WILL NAWQA QUARTERLY SAMPLING FY94",17090009,NA,"",NA,"","45.267342800000002","-122.7103706",24000,"Unknown","Unknown","Interpolated from map","NAD83",NA,"",NA,"","","","US",41,"005",NA,NA,NA,NA,NA,NA,NA,NA,"MOLALLA R AT KNIGHTS BRIDGE NR CANBY, OR","USGS","1227171452976","1227171452976","Molalla River",NA,NA,"45.2673428","-122.7103706"
"USGS-451607122423700","451607122423700",NA,NA,NA,NA,NA,NA,NA,NA,NA,NA,"45.26852778","-122.710111",NA,NA,NA,NA,"NAD83",NA,NA,NA,NA,NA,NA,NA,NA,NA,NA,NA,NA,NA,NA,NA,NA,NA,"MOLALLA RIVER AT KNIGHTS BRIDGE, CANBY, OR","USGS","1227171452976","1227171452976","Molalla River",NA,NA,"45.26852778","-122.710111"
"USGS-451734122585400","451734122585400","USGS-OR","USGS Oregon Water Science Center","CHEHALEM CREEK AT NEWBERG, OR","Stream","URBAN GRADIENT LAND USE STUDY  M.Sarantou  3/04",17090007,"37.799999999999997","sq mi",NA,"","45.292617800000002","-122.9828789",NA,"1","seconds","Global positioning system (GPS), uncorrected","NAD83","90.0","feet","20.0","feet","Interpolated from topographic map","NGVD29","US",41,"071",NA,NA,NA,NA,NA,NA,NA,NA,"CHEHALEM CREEK AT NEWBERG, OR","USGS","1229746452804","1229746452804","Chehalem Creek",NA,NA,"45.2926178","-122.9828789"
"USGS-452109122531101","452109122531101","USGS-OR","USGS Oregon Water Science Center","CHICKEN CREEK AT KRUGER RD","Stream","CWS 3835060",17090001,"1.7","sq mi",NA,NA,"45.352522200000003","-122.8863944",24000,"1","seconds","Interpolated from Digital Map","NAD83","262.0","feet","10.0","feet","Interpolated from digital elevation model (DEM)","NGVD29","US",41,"67",NA,NA,NA,NA,NA,NA,NA,NA,"CHICKEN CREEK AT KRUGER RD","USGS","1228372453885","1228372453885","Chicken Creek",NA,NA,"45.3525222","-122.8863944"
"USGS-452149123194900","452149123194900","USGS-OR","USGS Oregon Water Science Center","NORTH YAMHILL CREEK NEAR YAMHILL, OR","Stream","URBAN GRADIENT LAND USE STUDY   M.Sarantou  3/04",17090008,"25.399999999999999","sq mi",NA,"","45.363445800000001","-123.33149880000001",NA,"1","seconds","Global positioning system (GPS), uncorrected","NAD83","360.0","feet","20.0","feet","Interpolated from topographic map","NGVD29","US",41,"071",NA,NA,NA,NA,NA,NA,NA,NA,"NORTH YAMHILL CREEK NEAR YAMHILL, OR","USGS","1231445452259","1231445452259","North Yamhill River",NA,NA,"45.3634458","-123.3314988"
"USGS-452231122200000","452231122200000","USGS-OR","USGS Oregon Water Science Center","DEEP CREEK NEAR SANDY, OR","Stream","NAWQA URBAN LAND-USE GRADIENT STUDY  OCT. 2003",17090011,"12.1","sq mi",NA,"","45.375120799999998","-122.33453179999999",NA,".5","seconds","Interpolated from map","NAD83","490.0","feet","20.0","feet","Interpolated from topographic map","NGVD29","US",41,"005",NA,NA,NA,NA,NA,NA,NA,NA,"DEEP CREEK NEAR SANDY, OR","USGS","1224320453894","1224320453894","Deep Creek",NA,NA,"45.3751208","-122.3345318"
"USGS-452301122442301","452301122442301","USGS-OR","USGS Oregon Water Science Center","NYBERG CREEK AT BROWNS FERRY PARK","Stream","CWS 3838001",17090001,"1.0","sq mi",NA,"","45.383672199999999","-122.7397639",24000,"1","seconds","Interpolated from Digital Map","NAD83","108.0","feet","10.0","feet","Interpolated from digital elevation model (DEM)","NGVD29","US",41,"5",NA,NA,NA,NA,NA,NA,NA,NA,"NYBERG CREEK AT BROWNS FERRY PARK","USGS","1227381453844","1227381453844","Unnamed Stream",NA,NA,"45.3836722","-122.7397639"
"USGS-452314122454600","452314122454600","USGS-OR","USGS Oregon Water Science Center","TUALATIN R @ TUALATIN PARK RR BRDG, NR TUALATIN,OR","Stream","Tualatin QW    Stewart Rounds August 2006",17090010,NA,"",NA,"","45.3870632","-122.76398519999999",NA,"1","seconds","Interpolated from map","NAD83","101.5","feet","20.0","feet","Interpolated from topographic map","NGVD29","US",41,"67",NA,NA,NA,NA,NA,NA,NA,NA,"TUALATIN R @ TUALATIN PARK RR BRDG, NR TUALATIN,OR","USGS","1226500453377","1226500453377","Tualatin River",NA,NA,"45.3870632","-122.7639852"
"USGS-452326122454700","452326122454700","USGS-OR","USGS Oregon Water Science Center","TUALATIN RIVER DOWNSTREAM FANNO CK, NR DURHAM, OR","Stream","Tualatin QW  Stewart Rounds  August 2006",17090010,NA,"",NA,"","45.390396500000001","-122.764263",NA,"1","seconds","Interpolated from map","NAD83","101.5","feet","20.0","feet","Interpolated from topographic map","NGVD29","US",41,"67",NA,NA,NA,NA,NA,NA,NA,NA,"TUALATIN RIVER DOWNSTREAM FANNO CK, NR DURHAM, OR","USGS","1226500453377","1226500453377","Tualatin River",NA,NA,"45.3903965","-122.764263"
"USGS-452333122460100","452333122460100","USGS-OR","USGS Oregon Water Science Center","TUALATIN RIVER UPSTRM RM 9.4 RIFFLE, NR DURHAM, OR","Stream","Tualatin QW  Stewart Rounds   August 2006",17090010,NA,"",NA,"","45.392340900000001","-122.768152",NA,"1","seconds","Interpolated from map","NAD83","101.5","feet","20.0","feet","Interpolated from topographic map","NGVD29","US",41,"67",NA,NA,NA,NA,NA,NA,NA,NA,"TUALATIN RIVER UPSTRM RM 9.4 RIFFLE, NR DURHAM, OR","USGS","1226500453377","1226500453377","Tualatin River",NA,NA,"45.3923409","-122.768152"
"USGS-452336122455300","452336122455300","USGS-OR","USGS Oregon Water Science Center","TUALATIN RIVER UP/FROM WWTP OUTFALL,NR DURHAM, OR","Stream","Tualatin QW  Stewart Rounds  August 2006",17090010,NA,"",NA,"","45.393174299999998","-122.76592979999999",NA,"1","seconds","Interpolated from map","NAD83","101.5","feet","20.0","feet","Interpolated from topographic map","NGVD29","US",41,"67",NA,NA,NA,NA,NA,NA,NA,NA,"TUALATIN RIVER UP/FROM WWTP OUTFALL,NR DURHAM, OR","USGS","1226500453377","1226500453377","Tualatin River",NA,NA,"45.3931743","-122.7659298"
"USGS-452337122243300","452337122243300","USGS-OR","USGS Oregon Water Science Center","DEEP CREEK AT CAMP KURATLI, NEAR BARTON, OR","Stream","Kurt Carpenter QW Clackamas study  Sept. 2005",NA,NA,"",NA,"","45.393454400000003","-122.41036630000001",NA,"1","seconds","Global positioning system (GPS), uncorrected","NAD83",NA,"",NA,"","","","US",41,"5",NA,NA,NA,NA,NA,NA,NA,NA,NA,NA,NA,NA,NA,NA,NA,"45.3934544","-122.4103663"
"USGS-452337122243500","452337122243500","USGS-OR","USGS Oregon Water Science Center","NORTH FORK DEEP CREEK AT BARTON, OR","Stream","NAWQA URBAN LAND-USE GRADIENT STUDY  OCT. 2003",17090011,"14.300000000000001","sq mi",NA,"","45.393454400000003","-122.41092190000001",NA,".5","seconds","Interpolated from map","NAD83","200.0","feet","20.0","feet","Interpolated from topographic map","NGVD29","US",41,"5",NA,NA,NA,NA,NA,NA,NA,NA,"NORTH FORK DEEP CREEK AT BARTON, OR","USGS","1224107453935","1224107453935","North Fork Deep Creek",NA,NA,"45.3934544","-122.4109219"
"USGS-452338122461800","452338122461800","USGS-OR","USGS Oregon Water Science Center","TUALATIN RIVER @ COOK PARK BOAT RMP, NR TIGARD, OR","Stream","Tualatin QW   Stewart Rounds   August 2006",17090010,NA,"",NA,"","45.393729800000003","-122.77287440000001",NA,"1","seconds","Interpolated from map","NAD83","101.5","feet","20.0","feet","Interpolated from topographic map","NGVD29","US",41,"67",NA,NA,NA,NA,NA,NA,NA,NA,"TUALATIN RIVER @ COOK PARK BOAT RMP, NR TIGARD, OR","USGS","1226500453377","1226500453377","Tualatin River",NA,NA,"45.3937298","-122.7728744"
"USGS-452340122251000","452340122251000","USGS-OR","USGS Oregon Water Science Center","DEEP CREEK AT HWY 224, OR","Stream","REQUESTED BY KURT CARPENTER",NA,NA,"",NA,"","45.3942877","-122.4206442",NA,"1","seconds","Interpolated from map","NAD83",NA,"",NA,"","","","US",41,"5",NA,NA,NA,NA,NA,NA,NA,NA,NA,NA,NA,NA,NA,NA,NA,"45.3942877","-122.4206442"
"USGS-452342122460600","452342122460600","USGS-OR","USGS Oregon Water Science Center","TUALATIN RIVER DOWNSTREAM COOK PARK, NR TIGARD, OR","Stream","Tualatin QW  Stewart Rounds   August 2006",17090010,NA,"",NA,"","45.394840899999998","-122.769541",NA,"1","seconds","Interpolated from map","NAD83","101.5","feet","20.0","feet","Interpolated from topographic map","NGVD29","US",41,"67",NA,NA,NA,NA,NA,NA,NA,NA,"TUALATIN RIVER DOWNSTREAM COOK PARK, NR TIGARD, OR","USGS","1226500453377","1226500453377","Tualatin River",NA,NA,"45.3948409","-122.769541"
"USGS-452344122250400","452344122250400","USGS-OR","USGS Oregon Water Science Center","NOYER CREEK AT MOUTH, NEAR BARTON, OR","Stream","Kurt Carpenter project site",NA,NA,"",NA,"","45.395398800000002","-122.4189775",NA,"1","seconds","Global positioning system (GPS), uncorrected","NAD83",NA,"",NA,"","","","US",41,"5",NA,NA,NA,NA,NA,NA,NA,NA,NA,NA,NA,NA,NA,NA,NA,"45.3953988","-122.4189775"
"USGS-452347122463000","452347122463000","USGS-OR","USGS Oregon Water Science Center","TUALATIN RIVER UPSTREAM COOK PARK, NEAR TIGARD, OR","Stream","Tualatin QW   Stewart Rounds    August 2006",17090010,NA,"",NA,"","45.396229699999999","-122.7762079",NA,"1","seconds","Interpolated from map","NAD83","101.5","feet","20.0","feet","Interpolated from topographic map","NGVD29","US",41,"67",NA,NA,NA,NA,NA,NA,NA,NA,"TUALATIN RIVER UPSTREAM COOK PARK, NEAR TIGARD, OR","USGS","1226500453377","1226500453377","Tualatin River",NA,NA,"45.3962297","-122.7762079"
"USGS-452348122454701","452348122454701","USGS-OR","USGS Oregon Water Science Center","FANNO CREEK AT DURHAM CITY PARK, DURHAM, OR","Stream","TAMMY WOOD",17090010,"31.899999999999999","sq mi",NA,"","45.396613100000003","-122.7629714",NA,".5","seconds","Global positioning system (GPS), uncorrected","NAD83","110.0","feet","5.0","feet","Interpolated from topographic map","NGVD29","US",41,"067",NA,NA,NA,NA,NA,NA,NA,NA,"FANNO CREEK AT DURHAM CITY PARK, DURHAM, OR","USGS","1227639453931","1227639453931","Fanno Creek",NA,NA,"45.3966131","-122.7629714"
"USGS-452350122454101","452350122454101","USGS-OR","USGS Oregon Water Science Center","FANNO CREEK AT FOOT BRIDGE","Stream","CWS 3840004",17090001,"31.5","sq mi",NA,"","45.397158300000001","-122.7613889",24000,"1","seconds","Interpolated from Digital Map","NAD83","115.0","feet","10.0","feet","Interpolated from digital elevation model (DEM)","NGVD29","US",41,"67",NA,NA,NA,NA,NA,NA,NA,NA,"FANNO CREEK AT FOOT BRIDGE","USGS","1227639453931","1227639453931","Fanno Creek",NA,NA,"45.3971583","-122.7613889"
"USGS-452355122172400","452355122172400","USGS-OR","USGS Oregon Water Science Center","TICKLE CREEK AT 362ND, NEAR SANDY, OR","Stream","Kurt Carpenter Clackamas study  QW  Sept. 2005",NA,NA,"",NA,"","45.398454000000001","-122.2911986",NA,"1","seconds","Global positioning system (GPS), uncorrected","NAD83",NA,"",NA,"","","","US",41,"5",NA,NA,NA,NA,NA,NA,NA,NA,NA,NA,NA,NA,NA,NA,NA,"45.398454","-122.2911986"
"USGS-452414122213200","452414122213200","USGS-OR","USGS Oregon Water Science Center","TICKLE CREEK NEAR BORING, OR","Stream","NAWQA URBAN LAND-USE GRADIENT STUDY  OCT. 2003",17090011,"13.199999999999999","sq mi",NA,"","45.403731899999997","-122.3600883",NA,".5","seconds","Interpolated from map","NAD83","360.0","feet","20.0","feet","Interpolated from topographic map","NGVD29","US",41,"5",NA,NA,NA,NA,NA,NA,NA,NA,"TICKLE CREEK NEAR BORING, OR","USGS","1223744453954","1223744453954","Tickle Creek",NA,NA,"45.4037319","-122.3600883"
"USGS-452417122194600","452417122194600","USGS-OR","USGS Oregon Water Science Center","TICKLE CREEK AT COLORADO ROAD, NEAR SANDY, OR","Stream","Kurt Carpenter Clackamas study QW  Sept. 2005",NA,NA,"",NA,"","45.4045652","-122.3306436",NA,"1","seconds","Global positioning system (GPS), uncorrected","NAD83",NA,"",NA,"","","","US",41,"005",NA,NA,NA,NA,NA,NA,NA,NA,NA,NA,NA,NA,NA,NA,NA,"45.4045652","-122.3306436"
"USGS-452420122291600","452420122291600","USGS-OR","USGS Oregon Water Science Center","TRILLIUM CREEK AT ANDREGG PARKWAY, NR DAMASCUS, OR","Stream","Kurt Carpenter project site",NA,NA,"",NA,"","45.405399000000003","-122.4889783",NA,"1","seconds","Global positioning system (GPS), uncorrected","NAD83",NA,"",NA,"","","","US",41,"5",NA,NA,NA,NA,NA,NA,NA,NA,NA,NA,NA,NA,NA,NA,NA,"45.405399","-122.4889783"
"USGS-452431122303200","452431122303200","USGS-OR","USGS Oregon Water Science Center","ROCK CREEK NEAR MOUTH, OR","Stream","REQUESTED BY KURT CARPENTER",NA,NA,"",NA,"","45.408454399999997","-122.5100898",NA,"10","seconds","Interpolated from map","NAD83",NA,"",NA,"","","","US",41,"5",NA,NA,NA,NA,NA,NA,NA,NA,NA,NA,NA,NA,NA,NA,NA,"45.4084544","-122.5100898"
"USGS-452441122180500","452441122180500","USGS-OR","USGS Oregon Water Science Center","TICKLE CREEK TRIB AT ORIENT ROAD, NEAR SANDY, OR","Stream","Kurt Carpenter Clackamas QW study  Sept. 2005",NA,NA,"",NA,"","45.411231800000003","-122.302588",NA,"1","seconds","Global positioning system (GPS), uncorrected","NAD83",NA,"",NA,"","","","US",41,"5",NA,NA,NA,NA,NA,NA,NA,NA,NA,NA,NA,NA,NA,NA,NA,"45.4112318","-122.302588"
"USGS-452448122450801","452448122450801","USGS-OR","USGS Oregon Water Science Center","BALL CREEK AT 74TH","Stream","CWS 3841001",17090001,"2.1000000000000001","sq mi",NA,"","45.4133639","-122.75213890000001",24000,"1","seconds","Interpolated from Digital Map","NAD83","148.0","feet","10.0","feet","Interpolated from digital elevation model (DEM)","NGVD29","US",41,"67",NA,NA,NA,NA,NA,NA,NA,NA,"BALL CREEK AT 74TH","USGS","1227534454137","1227534454137","Ball Creek",NA,NA,"45.4133639","-122.7521389"
"USGS-452500122242700","452500122242700","USGS-OR","USGS Oregon Water Science Center","NOYER CREEK DWNSTRM HWY 212, NEAR DAMASCUS, OR","Stream","Kurt Carpenter project site",NA,NA,"",NA,"","45.4165098","-122.4087",NA,"1","seconds","Global positioning system (GPS), uncorrected","NAD83",NA,"",NA,"","","","US",41,"5",NA,NA,NA,NA,NA,NA,NA,NA,NA,NA,NA,NA,NA,NA,NA,"45.4165098","-122.4087"
"USGS-452516122310500","452516122310500","USGS-OR","USGS Oregon Water Science Center","SIEBEN CREEK DOWNSTREAM FROM SUNNYSIDE ROAD, OR","Stream","Kurt Carpenter Clackamas study  Sept. 2005",NA,NA,"",NA,"","45.420954199999997","-122.5192569",NA,"1","seconds","Global positioning system (GPS), uncorrected","NAD83",NA,"",NA,"","","","US",41,"5",NA,NA,NA,NA,NA,NA,NA,NA,NA,NA,NA,NA,NA,NA,NA,"45.4209542","-122.5192569"
"USGS-452522122293700","452522122293700","USGS-OR","USGS Oregon Water Science Center","ROCK CK@STONY BROOK CT(DWNSTRM 172)NR DAMASCUS, OR","Stream","Kurt Carpenter project site",NA,NA,"",NA,"","45.422620999999999","-122.494812",NA,"1","seconds","Global positioning system (GPS), uncorrected","NAD83",NA,"",NA,"","","","US",41,"5",NA,NA,NA,NA,NA,NA,NA,NA,NA,NA,NA,NA,NA,NA,NA,"45.422621","-122.494812"
"USGS-452526122364400","452526122364400","USGS-OR","USGS Oregon Water Science Center","KELLOGG CREEK AT MILWAUKIE, OR","Stream","NAWQA URBAN LAND-USE GRADIENT STUDY   OCT. 2003",17090012,"13.199999999999999","sq mi",NA,"","45.423730999999997","-122.61342620000001",NA,".5","seconds","Interpolated from map","NAD83","50.0","feet","20.0","feet","Interpolated from topographic map","NGVD29","US",41,"005",NA,NA,NA,NA,NA,NA,NA,NA,"KELLOGG CREEK AT MILWAUKIE, OR","USGS","1226466454405","1226466454405","Kellogg Creek",NA,NA,"45.423731","-122.6134262"
"USGS-452532122203800","452532122203800","USGS-OR","USGS Oregon Water Science Center","NF DEEP CREEK TRIB AT CHURCH ROAD, NEAR BORING, OR","Stream","Kurt Carpenter Clackamas study  Sept. 2005",NA,NA,"",NA,"","45.411231800000003","-122.302588",NA,"1","seconds","Global positioning system (GPS), uncorrected","NAD83",NA,"",NA,"","","","US",41,"5",NA,NA,NA,NA,NA,NA,NA,NA,NA,NA,NA,NA,NA,NA,NA,"45.4112318","-122.302588"
"USGS-452536122223800","452536122223800","USGS-OR","USGS Oregon Water Science Center","NF DEEP CREEK UPSTREAM FROM WEIR, NEAR BORING, OR","Stream","Kurt Carpenter project site",NA,NA,"",NA,"","45.426509600000003","-122.3784223",NA,"1","seconds","Global positioning system (GPS), uncorrected","NAD83",NA,"",NA,"","","","US",41,"5",NA,NA,NA,NA,NA,NA,NA,NA,NA,NA,NA,NA,NA,NA,NA,"45.4265096","-122.3784223"
"USGS-452541122453401","452541122453401","USGS-OR","USGS Oregon Water Science Center","RED ROCK CREEK AT HUNZIKER RD","Stream","CWS 3846002",17090001,"1.3999999999999999","sq mi",NA,"","45.428077799999997","-122.7595278",24000,"1","seconds","Interpolated from Digital Map","NAD83","151.0","feet","10.0","feet","Interpolated from digital elevation model (DEM)","NGVD29","US",41,"67",NA,NA,NA,NA,NA,NA,NA,NA,"RED ROCK CREEK AT HUNZIKER RD","USGS","1227626454239","1227626454239","Redrock Creek",NA,NA,"45.4280778","-122.7595278"
"USGS-452544122222600","452544122222600","USGS-OR","USGS Oregon Water Science Center","NORTH FORK DEEP CREEK AT BORING, OR","Stream","Kurt Carpenter QW Clackamas study  Sept. 2005",NA,NA,"",NA,"","45.428731800000001","-122.375089",NA,"1","seconds","Global positioning system (GPS), uncorrected","NAD83",NA,"",NA,"","","","US",41,"5",NA,NA,NA,NA,NA,NA,NA,NA,NA,NA,NA,NA,NA,NA,NA,"45.4287318","-122.375089"
"USGS-452546122202700","452546122202700","USGS-OR","USGS Oregon Water Science Center","NF DEEP CREEK TRIBUTARY AT 312TH, NEAR BORING, OR","Stream","Kurt Carpenter Clackamas study   QW   Sept. 2005",NA,NA,"",NA,"","45.429287299999999","-122.3420332",NA,"1","seconds","Global positioning system (GPS), uncorrected","NAD83",NA,"",NA,"","","","US",41,"5",NA,NA,NA,NA,NA,NA,NA,NA,NA,NA,NA,NA,NA,NA,NA,"45.4292873","-122.3420332"
"USGS-452547122465900","452547122465900","USGS-OR","USGS Oregon Water Science Center","UNNAMEED CREEK AT WALNUT STREET, TIGARD, OR","Stream","Tualatin project   S.Rounds May 2007",17090010,NA,"",NA,"","45.429562699999998","-122.7842642",24000,"1","seconds","Interpolated from map","NAD83",NA,"",NA,"","","","US",41,"67",NA,NA,NA,NA,NA,NA,NA,NA,"UNNAMEED CREEK AT WALNUT STREET, TIGARD, OR","USGS","1227824454322","1227824454322",NA,NA,NA,"45.4295627","-122.7842642"
"USGS-452558122211200","452558122211200","USGS-OR","USGS Oregon Water Science Center","DOANE CREEK DOWNSTREAM FROM HWY 212, NR BORING, OR","Stream","Kurt Carpenter QW Clackamas study   Sept. 2005",NA,NA,"",NA,"","45.432620700000001","-122.35453339999999",NA,"1","seconds","Global positioning system (GPS), uncorrected","NAD83",NA,"",NA,"","","","US",41,"5",NA,NA,NA,NA,NA,NA,NA,NA,NA,NA,NA,NA,NA,NA,NA,"45.4326207","-122.3545334"
"USGS-452601122470901","452601122470901","USGS-OR","USGS Oregon Water Science Center","SUMMER CR AT TIEDEMAN AT MOUTH","Stream","CWS 3844001",17090001,"6.0999999999999996","sq mi",NA,"","45.433513900000001","-122.7858583",24000,"1","seconds","Interpolated from Digital Map","NAD83","151.0","feet","10.0","feet","Interpolated from digital elevation model (DEM)","NGVD29","US",41,"67",NA,NA,NA,NA,NA,NA,NA,NA,"SUMMER CR AT TIEDEMAN AT MOUTH","USGS","1227852454334","1227852454334","Summer Creek",NA,NA,"45.4335139","-122.7858583"
"USGS-452601123080200","452601123080200","USGS-OR","USGS Oregon Water Science Center","WAPATO LAKE NEAR GASTON, OR","Stream","TUALATIN PROJECT",17090010,NA,"",NA,"","45.4336111","-123.1338889",24000,"1","seconds","Interpolated from Digital Map","NAD83",NA,"",NA,"","","","US",41,"067",NA,NA,NA,NA,NA,NA,NA,NA,NA,NA,NA,NA,NA,NA,NA,"45.4336111","-123.1338889"
"USGS-452607122195200","452607122195200","USGS-OR","USGS Oregon Water Science Center","DOLAN CREEK D/S FROM ORIENT ROAD, NEAR BORING, OR","Stream","Kurt Carpenter QW Clackamas study  Sept. 2005",NA,NA,"",NA,"","45.435120599999998","-122.332311",NA,"1","seconds","Global positioning system (GPS), uncorrected","NAD83",NA,"",NA,"","","","US",41,"5",NA,NA,NA,NA,NA,NA,NA,NA,NA,NA,NA,NA,NA,NA,NA,"45.4351206","-122.332311"
"USGS-452609122281900","452609122281900","USGS-OR","USGS Oregon Water Science Center","ROCK CREEK AT FOSTER ROAD, OR","Stream","Kurt Carpenter QW Clackamas study  Sept. 2005",NA,NA,"",NA,"","45.435676299999997","-122.47314540000001",NA,"1","seconds","Global positioning system (GPS), uncorrected","NAD83",NA,"",NA,"","","","US",41,"5",NA,NA,NA,NA,NA,NA,NA,NA,NA,NA,NA,NA,NA,NA,NA,"45.4356763","-122.4731454"
"USGS-452610122290200","452610122290200","USGS-OR","USGS Oregon Water Science Center","ROCK CREEK AT 172ND AVENUE, OR","Stream","Kurt Carpenter QW Clackamas study  Sept. 2005",NA,NA,"",NA,"","45.435954099999996","-122.48508990000001",NA,"1","seconds","Global positioning system (GPS), uncorrected","NAD83",NA,"",NA,"","","","US",41,"5",NA,NA,NA,NA,NA,NA,NA,NA,NA,NA,NA,NA,NA,NA,NA,"45.4359541","-122.4850899"
"USGS-452631122463101","452631122463101","USGS-OR","USGS Oregon Water Science Center","ASH CREEK AT SHADY LANE, TIGARD, OR","Stream","TAMMY WOOD",17090010,"3.2599999999999998","sq mi",NA,"","45.441773699999999","-122.77654750000001",NA,".01","seconds","Global positioning system (GPS), uncorrected","NAD83","160.0","feet","5.0","feet","Interpolated from topographic map","NGVD29","US",41,"67",NA,NA,NA,NA,NA,NA,NA,NA,"ASH CREEK AT SHADY LANE, TIGARD, OR","USGS","1227827454392","1227827454392","Ash Creek",NA,NA,"45.4417737","-122.7765475"
"USGS-452635122471801","452635122471801","USGS-OR","USGS Oregon Water Science Center","UNNAMED TRIB TO FANNO CR AT IRONWOOD LOOP","Stream","CWS 3500038",17090001,"0.69999999999999996","sq mi",NA,"","45.443144400000001","-122.7882639",24000,"1","seconds","Interpolated from Digital Map","NAD83","161.0","feet","10.0","feet","Interpolated from digital elevation model (DEM)","NGVD29","US",41,"67",NA,NA,NA,NA,NA,NA,NA,NA,"UNNAMED TRIB TO FANNO CR AT IRONWOOD LOOP","USGS","1227874454433","1227874454433",NA,NA,NA,"45.4431444","-122.7882639"
"USGS-452637123142501","452637123142501","USGS-OR","USGS Oregon Water Science Center","TUALATIN RIVER AT SOUTH ROAD NEAR CHERRY GROVE, OR","Stream","CWS 3701715",17090001,"37.0","sq mi",NA,NA,"45.4437389","-123.24027220000001",24000,"1","seconds","Interpolated from Digital Map","NAD83","240.0","feet","10.0","feet","Interpolated from digital elevation model (DEM)","NGVD29","US",41,"67",NA,NA,NA,NA,NA,NA,NA,NA,"TUALATIN RIVER AT SOUTH ROAD NEAR CHERRY GROVE, OR","USGS","1226500453377","1226500453377","Tualatin River",NA,NA,"45.4437389","-123.2402722"
"USGS-452712122474901","452712122474901","USGS-OR","USGS Oregon Water Science Center","UNNAMED TRIB TO FANNO TRIB BELOW GREENWAY SCHOOL","Stream","CWS 3500049",17090001,"0.59999999999999998","sq mi",NA,"","45.453261099999999","-122.7969583",24000,"1","seconds","Interpolated from Digital Map","NAD83","161.0","feet","10.0","feet","Interpolated from digital elevation model (DEM)","NGVD29","US",41,"67",NA,NA,NA,NA,NA,NA,NA,NA,"UNNAMED TRIB TO FANNO TRIB BELOW GREENWAY SCHOOL","USGS","1227639453931","1227639453931","Fanno Creek",NA,NA,"45.4532611","-122.7969583"
"USGS-452743122365400","452743122365400","USGS-OR","USGS Oregon Water Science Center","JOHNSON CREEK AT 45TH AVENUE, PORTLAND, OR","Stream","Karl Lee project",17090012,NA,"",NA,NA,"45.461786099999998","-122.6162046",NA,"1","seconds","Global positioning system (GPS), uncorrected","NAD83","100.0","feet","10.0","feet","Global Positioning System","NGVD29","US",41,"51",NA,NA,NA,NA,NA,NA,NA,NA,"JOHNSON CREEK AT 45TH AVENUE, PORTLAND, OR","USGS","1226465454422","1226465454422","Johnson Creek",NA,NA,"45.4617861","-122.6162046"
"USGS-452756122502501","452756122502501","USGS-OR","USGS Oregon Water Science Center","JOHNSON CREEK SOUTH AT HART RD","Stream","CWS 3827024",17090001,"1.8999999999999999","sq mi",NA,"","45.465552799999998","-122.84014999999999",24000,"1","seconds","Interpolated from Digital Map","NAD83","213.0","feet","10.0","feet","Interpolated from digital elevation model (DEM)","NGVD29","US",41,"67",NA,NA,NA,NA,NA,NA,NA,NA,"JOHNSON CREEK SOUTH AT HART RD","USGS","1228355454932","1228355454932","Johnson Creek",NA,NA,"45.4655528","-122.84015"
"USGS-452819122445501","452819122445501","USGS-OR","USGS Oregon Water Science Center","WOODS CREEK AT OLESON RD","Stream","CWS 3891005",17090001,"1.1000000000000001","sq mi",NA,"","45.471874999999997","-122.7486444",24000,"1","seconds","Interpolated from Digital Map","NAD83","230.0","feet","10.0","feet","Interpolated from digital elevation model (DEM)","NGVD29","US",41,"67",NA,NA,NA,NA,NA,NA,NA,NA,"WOODS CREEK AT OLESON RD","USGS","1227615454726","1227615454726",NA,NA,NA,"45.471875","-122.7486444"
"USGS-452823122240900","452823122240900","USGS-OR","USGS Oregon Water Science Center","JOHNSON CREEK AT PALMBLAD RD NR GRESHAM, OR","Stream","WILLAMETTE STATE STUDY - requested by CHAUNCEY",17090012,NA,"",NA,NA,"45.472898200000003","-122.4037012",NA,"Unknown","Unknown","Interpolated from map","NAD83",NA,"",NA,"","","","US",41,"51",NA,NA,NA,NA,NA,NA,NA,NA,"JOHNSON CREEK AT PALMBLAD RD NR GRESHAM, OR","USGS","1226465454422","1226465454422","Johnson Creek",NA,NA,"45.4728982","-122.4037012"
"USGS-452842122450101","452842122450101","USGS-OR","USGS Oregon Water Science Center","FANNO CREEK AT WILLOWMERE DRIVE, PORTLAND, OR","Stream","TAMMY WOOD",17090010,"6.3399999999999999","sq mi",NA,"","45.478162400000002","-122.751414",NA,".01","seconds","Global positioning system (GPS), uncorrected","NAD83","220.0","feet","5.0","feet","Interpolated from topographic map","NGVD29","US",41,"67",NA,NA,NA,NA,NA,NA,NA,NA,"FANNO CREEK AT WILLOWMERE DRIVE, PORTLAND, OR","USGS","1227639453931","1227639453931","Fanno Creek",NA,NA,"45.4781624","-122.751414"
"USGS-452843122445001","452843122445001","USGS-OR","USGS Oregon Water Science Center","VERMONT CREEK AT RM 0.2","Stream","CWS 3890002",17090001,"1.2","sq mi",NA,"","45.478672199999998","-122.747236",24000,"1","seconds","Interpolated from Digital Map","NAD83","226.0","feet","10.0","feet","Interpolated from digital elevation model (DEM)","NGVD29","US",41,"67",NA,NA,NA,NA,NA,NA,NA,NA,"VERMONT CREEK AT RM 0.2","USGS","1227502454783","1227502454783","Unnamed Stream",NA,NA,"45.4786722","-122.747236"
"USGS-452844122495001","452844122495001","USGS-OR","USGS Oregon Water Science Center","JOHNSON CREEK SOUTH AT GLENBROOK","Stream","CWS 3827011",17090001,"3.0","sq mi",NA,"","45.479013899999998","-122.830636",24000,"1","seconds","Interpolated from Digital Map","NAD83","174.0","feet","10.0","feet","Interpolated from digital elevation model (DEM)","NGVD29","US",41,"67",NA,NA,NA,NA,NA,NA,NA,NA,"JOHNSON CREEK SOUTH AT GLENBROOK","USGS","1228355454932","1228355454932","Johnson Creek",NA,NA,"45.4790139","-122.830636"
"USGS-452855123142501","452855123142501","USGS-OR","USGS Oregon Water Science Center","SAIN CREEK ABOVE HAGG LAKE","Stream","CWS 3806002",17090001,"10.699999999999999","sq mi",NA,"","45.4819028","-123.2402972",24000,"1","seconds","Interpolated from Digital Map","NAD83","295.0","feet","10.0","feet","Interpolated from digital elevation model (DEM)","NGVD29","US",41,"67",NA,NA,NA,NA,NA,NA,NA,NA,"SAIN CREEK ABOVE HAGG LAKE","USGS","1232219454870","1232219454870","Sain Creek",NA,NA,"45.4819028","-123.2402972"
"USGS-452912122291200","452912122291200","USGS-OR","USGS Oregon Water Science Center","JOHNSON CREEK AT CIRCLE AVE, OR","Stream","URBAN GRADIENT LAND USE STUDY   M.Sarantou  3/04",17090012,"21.5","sq mi",NA,"","45.486509099999999","-122.4878685",NA,"1","seconds","Global positioning system (GPS), uncorrected","NAD83","250.0","feet","20.0","feet","Interpolated from topographic map","NGVD29","US",41,"051",NA,NA,NA,NA,NA,NA,NA,NA,"JOHNSON CREEK AT CIRCLE AVE, OR","USGS","1226465454422","1226465454422","Johnson Creek",NA,NA,"45.4865091","-122.4878685"
"USGS-452912122444501","452912122444501","USGS-OR","USGS Oregon Water Science Center","FANNO CREEK ABOVE SYLVAN CREEK CONFLUENCE","Stream","CWS 3840117",17090001,"1.2","sq mi",NA,"","45.486699999999999","-122.74577499999999",24000,"1","seconds","Interpolated from Digital Map","NAD83","0.0","feet","10.0","feet","Interpolated from digital elevation model (DEM)","NGVD29","US",41,"67",NA,NA,NA,NA,NA,NA,NA,NA,"FANNO CREEK ABOVE SYLVAN CREEK CONFLUENCE","USGS","1227639453931","1227639453931","Fanno Creek",NA,NA,"45.4867","-122.745775"
"USGS-452928122472301","452928122472301","USGS-OR","USGS Oregon Water Science Center","HALL CREEK AT 110TH AND CANYON","Stream","CWS 3829007",17090001,"2.5","sq mi",NA,"","45.490977800000003","-122.78979169999999",24000,"1","seconds","Interpolated from Digital Map","NAD83","180.0","feet","10.0","feet","Interpolated from digital elevation model (DEM)","NGVD29","US",41,"67",NA,NA,NA,NA,NA,NA,NA,NA,"HALL CREEK AT 110TH AND CANYON","USGS","1229133455196","1229133455196","Beaverton Creek",NA,NA,"45.4909778","-122.7897917"
"USGS-452939122502301","452939122502301","USGS-OR","USGS Oregon Water Science Center","BEAVERTON CR AT MILLIKAN BLVD BELOW JOHNSON CR","Stream","CWS 3821059",17090001,"13.0","sq mi",NA,"","45.4940389","-122.8396944",24000,"1","seconds","Interpolated from Digital Map","NAD83","157.0","feet","10.0","feet","Interpolated from digital elevation model (DEM)","NGVD29","US",41,"67",NA,NA,NA,NA,NA,NA,NA,NA,"BEAVERTON CR AT MILLIKAN BLVD BELOW JOHNSON CR","USGS","1229133455196","1229133455196","Beaverton Creek",NA,NA,"45.4940389","-122.8396944"
"USGS-452959123145801","452959123145801","USGS-OR","USGS Oregon Water Science Center","SCOGGINS CREEK ABOVE HAGG LAKE","Stream","CWS 3805095",17090001,"16.5","sq mi",NA,"","45.499669400000002","-123.2493972",24000,"1","seconds","Interpolated from Digital Map","NAD83","308.0","feet","10.0","feet","Interpolated from digital elevation model (DEM)","NGVD29","US",41,"67",NA,NA,NA,NA,NA,NA,NA,NA,"SCOGGINS CREEK ABOVE HAGG LAKE","USGS","1231261454600","1231261454600","Scoggins Creek",NA,NA,"45.4996694","-123.2493972"
"USGS-453004122510301","453004122510301","USGS-OR","USGS Oregon Water Science Center","BEAVERTON CREEK AT 170TH AVE, BEAVERTON, OR","Stream","Stewart Rounds",17090010,NA,"",NA,NA,"45.500950500000002","-122.852045",NA,".01","seconds","Global positioning system (GPS), uncorrected","NAD83","160.0","feet","5.0","feet","Interpolated from topographic map","NGVD29","US",41,"67",NA,NA,NA,NA,NA,NA,NA,NA,"BEAVERTON CREEK AT 170TH AVE, BEAVERTON, OR","USGS","1229133455196","1229133455196","Beaverton Creek",NA,NA,"45.5009505","-122.852045"
"USGS-453020122501501","453020122501501","USGS-OR","USGS Oregon Water Science Center","CEDAR MILL CREEK BELOW JENKINS RD","Stream","CWS 3823009",17090001,"8.3000000000000007","sq mi",NA,"","45.505641699999998","-122.8374444",24000,"1","seconds","Interpolated from Digital Map","NAD83","174.0","feet","10.0","feet","Interpolated from digital elevation model (DEM)","NGVD29","US",41,"67",NA,NA,NA,NA,NA,NA,NA,NA,"CEDAR MILL CREEK BELOW JENKINS RD","USGS","1228477455001","1228477455001","Cedar Mill Creek",NA,NA,"45.5056417","-122.8374444"
"USGS-453026123063401","453026123063401","USGS-OR","USGS Oregon Water Science Center","GALES CREEK AT NEW HWY 47","Stream","CWS 3810015",17090001,"74.900000000000006","sq mi",NA,NA,"45.507147199999999","-123.1093667",24000,"1","seconds","Interpolated from Digital Map","NAD83","167.0","feet","10.0","feet","Interpolated from digital elevation model (DEM)","NGVD29","US",41,"67",NA,NA,NA,NA,NA,NA,NA,NA,"GALES CREEK AT NEW HWY 47","USGS","1231025454915","1231025454915","Gales Creek",NA,NA,"45.5071472","-123.1093667"
"USGS-453030122560101","453030122560101","USGS-OR","USGS Oregon Water Science Center","ROCK CREEK AT BROOKWOOD AVENUE, HILLSBORO, OR","Stream","Tualatin Study S.Rounds   A.Brooks May 2004",17090010,NA,"",NA,NA,"45.508194400000001","-122.9335",NA,".1","seconds","Global positioning system (GPS), uncorrected","NAD83",NA,"",NA,"","","","US",41,"67",NA,NA,NA,NA,NA,NA,NA,NA,"ROCK CREEK AT BROOKWOOD AVENUE, HILLSBORO, OR","USGS","1229444454907","1229444454907","Rock Creek",NA,NA,"45.5081944","-122.9335"
"USGS-453108122475200","453108122475200","USGS-OR","USGS Oregon Water Science Center","BARNES ROAD MITIGATION POND, OR","Lake, Reservoir, Impoundment","Chauncey Anderson Finley sites 11/26/2007",17090010,NA,"",NA,NA,"45.518728400000001","-122.7989882",24000,"1","seconds","Global positioning system (GPS), uncorrected","NAD83","180.0","feet","20.0","feet","Interpolated from topographic map","NGVD29","US",41,"67",NA,NA,NA,NA,NA,NA,NA,NA,NA,NA,NA,NA,NA,NA,NA,"45.5187284","-122.7989882"
"USGS-453115122530801","453115122530801","USGS-OR","USGS Oregon Water Science Center","BRONSON CR AT 205TH NEAR BASELINE RD","Stream","CWS 3824001",17090001,"37.299999999999997","sq mi",NA,"","45.520752799999997","-122.8855806",24000,"1","seconds","Interpolated from Digital Map","NAD83","151.0","feet","10.0","feet","Interpolated from digital elevation model (DEM)","NGVD29","US",41,"67",NA,NA,NA,NA,NA,NA,NA,NA,"BRONSON CR AT 205TH NEAR BASELINE RD","USGS","1228861455195","1228861455195","Bronson Creek",NA,NA,"45.5207528","-122.8855806"
"USGS-453115122542701","453115122542701","USGS-OR","USGS Oregon Water Science Center","BEAVERTON CREEK AT GUSTAN COURT","Stream","CWS 3821008",17090001,"37.299999999999997","sq mi",NA,NA,"45.520702800000002","-122.90745",24000,"1","seconds","Interpolated from Digital Map","NAD83","141.0","feet","10.0","feet","Interpolated from digital elevation model (DEM)","NGVD29","US",41,"67",NA,NA,NA,NA,NA,NA,NA,NA,"BEAVERTON CREEK AT GUSTAN COURT","USGS","1229133455196","1229133455196","Beaverton Creek",NA,NA,"45.5207028","-122.90745"
"USGS-453146123012501","453146123012501","USGS-OR","USGS Oregon Water Science Center","COUNCIL CREEK AT KILLARNEY GOLF COURSE","Stream","CWS 3812002",17090001,"219.09999999999999","sq mi",NA,"","45.529416699999999","-123.02358889999999",24000,"1","seconds","Interpolated from Digital Map","NAD83","138.0","feet","10.0","feet","Interpolated from digital elevation model (DEM)","NGVD29","US",41,"67",NA,NA,NA,NA,NA,NA,NA,NA,"COUNCIL CREEK AT KILLARNEY GOLF COURSE","USGS","1230233455313","1230233455313","Council Creek",NA,NA,"45.5294167","-123.0235889"
"USGS-453158123001701","453158123001701","USGS-OR","USGS Oregon Water Science Center","MCKAY CREEK AT PADGETT RD","Stream","CWS 3816010",17090001,"66.0","sq mi",NA,NA,"45.532683300000002","-123.0046972",24000,"1","seconds","Interpolated from Digital Map","NAD83","128.0","feet","10.0","feet","Interpolated from digital elevation model (DEM)","NGVD29","US",41,"67",NA,NA,NA,NA,NA,NA,NA,NA,"MCKAY CREEK AT PADGETT RD","USGS","1230119455224","1230119455224","McKay Creek",NA,NA,"45.5326833","-123.0046972"
"USGS-453209123061601","453209123061601","USGS-OR","USGS Oregon Water Science Center","COUNCIL CREEK AT BEAL RD","Stream","CWS 3812050",17090001,"4.5999999999999996","sq mi",NA,"","45.535813900000001","-123.1044528",24000,"1","seconds","Interpolated from Digital Map","NAD83","164.0","feet","10.0","feet","Interpolated from digital elevation model (DEM)","NGVD29","US",41,"67",NA,NA,NA,NA,NA,NA,NA,NA,"COUNCIL CREEK AT BEAL RD","USGS","1230233455313","1230233455313","Council Creek",NA,NA,"45.5358139","-123.1044528"
"USGS-453214122512501","453214122512501","USGS-OR","USGS Oregon Water Science Center","BRONSON CR AT BRONSON PARK BELOW SUNSET HWY","Stream","CWS 3824020",17090001,"3.8999999999999999","sq mi",NA,NA,"45.537111099999997","-122.85686099999999",24000,"1","seconds","Interpolated from Digital Map","NAD83","190.0","feet","10.0","feet","Interpolated from digital elevation model (DEM)","NGVD29","US",41,"67",NA,NA,NA,NA,NA,NA,NA,NA,"BRONSON CR AT BRONSON PARK BELOW SUNSET HWY","USGS","1228861455195","1228861455195","Bronson Creek",NA,NA,"45.5371111","-122.856861"
"USGS-453229123101101","453229123101101","USGS-OR","USGS Oregon Water Science Center","GALES CREEK AT STRINGTOWN","Stream","CWS 3810070",17090001,"69.0","sq mi",NA,NA,"45.541311100000001","-123.16958889999999",24000,"1","seconds","Interpolated from Digital Map","NAD83","190.0","feet","10.0","feet","Interpolated from digital elevation model (DEM)","NGVD29","US",41,"67",NA,NA,NA,NA,NA,NA,NA,NA,"GALES CREEK AT STRINGTOWN","USGS","1231025454915","1231025454915","Gales Creek",NA,NA,"45.5413111","-123.1695889"
"USGS-453232122553401","453232122553401","USGS-OR","USGS Oregon Water Science Center","DAWSON CREEK AT SHUTE RD ABOVE SITE","Stream","CWS 3850023",17090001,"1.5","sq mi",NA,"","45.542086099999999","-122.9259972",24000,"1","seconds","Interpolated from Digital Map","NAD83","177.0","feet","10.0","feet","Interpolated from digital elevation model (DEM)","NGVD29","US",41,"67",NA,NA,NA,NA,NA,NA,NA,NA,"DAWSON CREEK AT SHUTE RD ABOVE SITE","USGS","1229329455162","1229329455162","Dawson Creek",NA,NA,"45.5420861","-122.9259972"
"USGS-453249122494701","453249122494701","USGS-OR","USGS Oregon Water Science Center","BRONSON CREEK AT 143RD","Stream","CWS 3824050",17090001,"2.8999999999999999","sq mi",NA,"","45.547022200000001","-122.8296917",24000,"1","seconds","Interpolated from Digital Map","NAD83","217.0","feet","10.0","feet","Interpolated from digital elevation model (DEM)","NGVD29","US",41,"67",NA,NA,NA,NA,NA,NA,NA,NA,"BRONSON CREEK AT 143RD","USGS","1228861455195","1228861455195","Bronson Creek",NA,NA,"45.5470222","-122.8296917"
"USGS-453321122483401","453321122483401","USGS-OR","USGS Oregon Water Science Center","BANNISTER CREEK AT LAIDLAW","Stream","CWS 3859001",17090001,"0.90000000000000002","sq mi",NA,"","45.55585","-122.80943600000001",24000,"1","seconds","Interpolated from Digital Map","NAD83","266.0","feet","10.0","feet","Interpolated from digital elevation model (DEM)","NGVD29","US",41,"67",NA,NA,NA,NA,NA,NA,NA,NA,"BANNISTER CREEK AT LAIDLAW","USGS","1228861455195","1228861455195","Bronson Creek",NA,NA,"45.55585","-122.809436"
"USGS-453339122481301","453339122481301","USGS-OR","USGS Oregon Water Science Center","BANNISTER CREEK AT 124TH","Stream","CWS 3859010",17090001,"0.5","sq mi",NA,"","45.560891699999999","-122.803725",24000,"1","seconds","Interpolated from Digital Map","NAD83","358.0","feet","10.0","feet","Interpolated from digital elevation model (DEM)","NGVD29","US",41,"051",NA,NA,NA,NA,NA,NA,NA,NA,"BANNISTER CREEK AT 124TH","USGS","1228861455195","1228861455195","Bronson Creek",NA,NA,"45.5608917","-122.803725"
"USGS-453438118462801","453438118462801","USGS-GA","USGS Georgia Water Science Center","MCKAY CR RESERVOIR (MCKAY CR NWR) NR PENDLETON, OR","Lake, Reservoir, Impoundment","AVIAN INFLUENZA RECON",17070103,NA,"",NA,"","45.577472200000003","-118.7746389",24000,".1","seconds","Global positioning system (GPS), uncorrected","NAD83","1312.0","feet","1.0","feet","Interpolated from topographic map","NGVD29","US",41,"59",NA,NA,NA,NA,NA,NA,NA,NA,NA,NA,NA,NA,NA,NA,NA,"45.5774722","-118.7746389"
"USGS-453506123125700","453506123125700","USGS-OR","USGS Oregon Water Science Center","ILER CREEK NEAR FOREST GROVE, OR","Stream","URBAN GRADIENT LAND USE STUDY  M.Sarantou  3/04",17090010,"4.9000000000000004","sq mi",NA,"","45.584834399999998","-123.21705559999999",NA,"1","seconds","Global positioning system (GPS), uncorrected","NAD83","270.0","feet","20.0","feet","Interpolated from topographic map","NGVD29","US",41,"067",NA,NA,NA,NA,NA,NA,NA,NA,"ILER CREEK NEAR FOREST GROVE, OR","USGS","1232127455836","1232127455836","Iler Creek",NA,NA,"45.5848344","-123.2170556"
"USGS-453510122593301","453510122593301","USGS-OR","USGS Oregon Water Science Center","MCKAY CREEK AT SUNSET HWY","Stream","CWS 3816080",17090001,"42.799999999999997","sq mi",NA,"","45.586077799999998","-122.9924194",24000,"1","seconds","Interpolated from Digital Map","NAD83","154.0","feet","10.0","feet","Interpolated from digital elevation model (DEM)","NGVD29","US",41,"67",NA,NA,NA,NA,NA,NA,NA,NA,"MCKAY CREEK AT SUNSET HWY","USGS","1230119455224","1230119455224","McKay Creek",NA,NA,"45.5860778","-122.9924194"
"USGS-453535123035001","453535123035001","USGS-OR","USGS Oregon Water Science Center","EAST FORK DAIRY CREEK AT HARRINGTON RD","Stream","CWS 3818032",17090001,"58.700000000000003","sq mi",NA,"","45.593000000000004","-123.0639472",24000,"1","seconds","Interpolated from Digital Map","NAD83","161.0","feet","10.0","feet","Interpolated from digital elevation model (DEM)","NGVD29","US",41,"67",NA,NA,NA,NA,NA,NA,NA,NA,"EAST FORK DAIRY CREEK AT HARRINGTON RD","USGS","1230728455698","1230728455698","East Fork Dairy Creek",NA,NA,"45.593","-123.0639472"
"USGS-454543122524900","454543122524900","USGS-OR","USGS Oregon Water Science Center","SOUTH SCAPPOSE CREEK AT SCAPPOSE, OR","Stream","URBAN GRADIENT LAND USE STUDY  M.Sarantou  3/04",17090012,"25.199999999999999","sq mi",NA,"","45.761780899999998","-122.88149300000001",NA,"1","seconds","Global positioning system (GPS), uncorrected","NAD83","40.0","feet","20.0","feet","Interpolated from topographic map","NGVD29","US",41,"009",NA,NA,NA,NA,NA,NA,NA,NA,"SOUTH SCAPPOSE CREEK AT SCAPPOSE, OR","USGS","1228744457689","1228744457689","South Scappoose Creek",NA,NA,"45.7617809","-122.881493"
"USGS-455032122492300","455032122492300","USGS-OR","USGS Oregon Water Science Center","MCNULTY CREEK AT ST. HELENS, OR","Stream","URBAN GRADIENT LAND USE STUDY M.Sarantou 04/2004",NA,NA,"",NA,"","45.842058899999998","-122.8242702",NA,"1","seconds","Global positioning system (GPS), uncorrected","NAD83",NA,"",NA,"","","","US",41,"009",NA,NA,NA,NA,NA,NA,NA,NA,NA,NA,NA,NA,NA,NA,NA,"45.8420589","-122.8242702"
"USGS-461206123564000","461206123564000","USGS-OR","USGS Oregon Water Science Center","COLUMBIA RIVER NEAR POINT ADAMS, OR","Estuary","LCREP WQ Monitoring   Jennifer Morace  Sept. 2004",17080006,NA,"",NA,"","46.201666699999997","-123.94444439999999",240000,"1","seconds","Global positioning system (GPS), uncorrected","NAD83",NA,"",NA,"","","","US",41,"7",NA,NA,NA,NA,NA,NA,NA,NA,NA,NA,NA,NA,NA,NA,NA,"46.2016667","-123.9444444"
